{"type": "FeatureCollection", "features": [{"type": "Feature", "geometry": {"type": "LineString", "coordinates": [[-79.4511138, 43.6574166], [-79.4510111, 43.6574422]]}, "properties": {"segment": 1, "length_m": 8.7, "danger_score": 0.553, "nearest_stop": "Dundas West Station - Eastbound Platform"}}, {"type": "Feature", "geometry": {"type": "LineString", "coordinates": [[-79.4510111, 43.6574422], [-79.451026, 43.6574877]]}, "properties": {"segment": 2, "length_m": 5.2, "danger_score": 0.553, "nearest_stop": "Dundas West Station - Eastbound Platform"}}, {"type": "Feature", "geometry": {"type": "LineString", "coordinates": [[-79.451026, 43.6574877], [-79.4509906, 43.6576303]]}, "properties": {"segment": 3, "length_m": 24.6, "danger_score": 0.553, "nearest_stop": "Dundas West Station - Eastbound Platform"}}, {"type": "Feature", "geometry": {"type": "LineString", "coordinates": [[-79.4509906, 43.6576303], [-79.4511217, 43.6577413]]}, "properties": {"segment": 4, "length_m": 17.8, "danger_score": 0.553, "nearest_stop": "Dundas West Station - Eastbound Platform"}}, {"type": "Feature", "geometry": {"type": "LineString", "coordinates": [[-79.4511217, 43.6577413], [-79.4516099, 43.658155]]}, "properties": {"segment": 5, "length_m": 65.9, "danger_score": 0.553, "nearest_stop": "Dundas West Station - Eastbound Platform"}}, {"type": "Feature", "geometry": {"type": "LineString", "coordinates": [[-79.4516099, 43.658155], [-79.451676, 43.6581662]]}, "properties": {"segment": 6, "length_m": 5.5, "danger_score": 0.553, "nearest_stop": "Dundas West Station - Eastbound Platform"}}, {"type": "Feature", "geometry": {"type": "LineString", "coordinates": [[-79.451676, 43.6581662], [-79.4518965, 43.6584425]]}, "properties": {"segment": 7, "length_m": 37.4, "danger_score": 0.447, "nearest_stop": "Dundas St West at Chelsea Ave North Side"}}, {"type": "Feature", "geometry": {"type": "LineString", "coordinates": [[-79.4518965, 43.6584425], [-79.4523954, 43.6587575]]}, "properties": {"segment": 8, "length_m": 59.8, "danger_score": 0.447, "nearest_stop": "Dundas St West at Chelsea Ave North Side"}}, {"type": "Feature", "geometry": {"type": "LineString", "coordinates": [[-79.4523954, 43.6587575], [-79.4526365, 43.6587037]]}, "properties": {"segment": 9, "length_m": 20.3, "danger_score": 0.447, "nearest_stop": "Dundas St West at Chelsea Ave North Side"}}, {"type": "Feature", "geometry": {"type": "LineString", "coordinates": [[-79.4526365, 43.6587037], [-79.4528474, 43.658656]]}, "properties": {"segment": 10, "length_m": 17.8, "danger_score": 0.447, "nearest_stop": "Dundas St West at Chelsea Ave North Side"}}, {"type": "Feature", "geometry": {"type": "LineString", "coordinates": [[-79.4528474, 43.658656], [-79.4529966, 43.6586262]]}, "properties": {"segment": 11, "length_m": 12.5, "danger_score": 0.462, "nearest_stop": "Dundas St West at Chelsea Ave"}}, {"type": "Feature", "geometry": {"type": "LineString", "coordinates": [[-79.4529966, 43.6586262], [-79.4529607, 43.6585434]]}, "properties": {"segment": 12, "length_m": 9.6, "danger_score": 0.462, "nearest_stop": "Dundas St West at Chelsea Ave"}}, {"type": "Feature", "geometry": {"type": "LineString", "coordinates": [[-79.4529607, 43.6585434], [-79.4531518, 43.6585066]]}, "properties": {"segment": 13, "length_m": 15.9, "danger_score": 0.462, "nearest_stop": "Dundas St West at Chelsea Ave"}}, {"type": "Feature", "geometry": {"type": "LineString", "coordinates": [[-79.4531518, 43.6585066], [-79.4530479, 43.6582014]]}, "properties": {"segment": 14, "length_m": 35.0, "danger_score": 0.462, "nearest_stop": "Dundas St West at Chelsea Ave"}}, {"type": "Feature", "geometry": {"type": "LineString", "coordinates": [[-79.4530479, 43.6582014], [-79.4534393, 43.6581042]]}, "properties": {"segment": 15, "length_m": 33.7, "danger_score": 0.462, "nearest_stop": "Dundas St West at Chelsea Ave"}}, {"type": "Feature", "geometry": {"type": "LineString", "coordinates": [[-79.4534393, 43.6581042], [-79.4534194, 43.6580307]]}, "properties": {"segment": 16, "length_m": 8.4, "danger_score": 0.462, "nearest_stop": "Dundas St West at Chelsea Ave"}}, {"type": "Feature", "geometry": {"type": "LineString", "coordinates": [[-79.4534194, 43.6580307], [-79.4549034, 43.6577034]]}, "properties": {"segment": 17, "length_m": 124.9, "danger_score": 0.462, "nearest_stop": "Dundas St West at Chelsea Ave"}}, {"type": "Feature", "geometry": {"type": "LineString", "coordinates": [[-79.4549034, 43.6577034], [-79.4550487, 43.6576918]]}, "properties": {"segment": 18, "length_m": 11.8, "danger_score": 0.422, "nearest_stop": "Dundas West Station"}}, {"type": "Feature", "geometry": {"type": "LineString", "coordinates": [[-79.4550487, 43.6576918], [-79.4551388, 43.6577066]]}, "properties": {"segment": 19, "length_m": 7.6, "danger_score": 0.422, "nearest_stop": "Dundas West Station"}}, {"type": "Feature", "geometry": {"type": "LineString", "coordinates": [[-79.4551388, 43.6577066], [-79.4557639, 43.6576345]]}, "properties": {"segment": 20, "length_m": 52.9, "danger_score": 0.422, "nearest_stop": "Dundas West Station"}}, {"type": "Feature", "geometry": {"type": "LineString", "coordinates": [[-79.4557639, 43.6576345], [-79.4564909, 43.6575013]]}, "properties": {"segment": 21, "length_m": 64.2, "danger_score": 0.422, "nearest_stop": "Dundas West Station"}}, {"type": "Feature", "geometry": {"type": "LineString", "coordinates": [[-79.4564909, 43.6575013], [-79.4570883, 43.6565641]]}, "properties": {"segment": 22, "length_m": 132.8, "danger_score": 0.549, "nearest_stop": "Bloor St West at Indian Rd"}}, {"type": "Feature", "geometry": {"type": "LineString", "coordinates": [[-79.4570883, 43.6565641], [-79.4572253, 43.6565165]]}, "properties": {"segment": 23, "length_m": 12.2, "danger_score": 0.549, "nearest_stop": "Bloor St West at Indian Rd"}}, {"type": "Feature", "geometry": {"type": "LineString", "coordinates": [[-79.4572253, 43.6565165], [-79.4571639, 43.6563217]]}, "properties": {"segment": 24, "length_m": 22.3, "danger_score": 0.549, "nearest_stop": "Bloor St West at Indian Rd"}}, {"type": "Feature", "geometry": {"type": "LineString", "coordinates": [[-79.4571639, 43.6563217], [-79.457125, 43.6561768]]}, "properties": {"segment": 25, "length_m": 16.4, "danger_score": 0.549, "nearest_stop": "Bloor St West at Indian Rd"}}, {"type": "Feature", "geometry": {"type": "LineString", "coordinates": [[-79.457125, 43.6561768], [-79.4570625, 43.6559453]]}, "properties": {"segment": 26, "length_m": 26.2, "danger_score": 0.549, "nearest_stop": "Bloor St West at Indian Rd"}}, {"type": "Feature", "geometry": {"type": "LineString", "coordinates": [[-79.4570625, 43.6559453], [-79.4569592, 43.6554559]]}, "properties": {"segment": 27, "length_m": 55.5, "danger_score": 0.549, "nearest_stop": "Bloor St West at Indian Rd"}}, {"type": "Feature", "geometry": {"type": "LineString", "coordinates": [[-79.4569592, 43.6554559], [-79.457145, 43.6554155]]}, "properties": {"segment": 28, "length_m": 15.6, "danger_score": 0.51, "nearest_stop": "Bloor St West at Indian Rd"}}, {"type": "Feature", "geometry": {"type": "LineString", "coordinates": [[-79.457145, 43.6554155], [-79.4586395, 43.655103]]}, "properties": {"segment": 29, "length_m": 125.2, "danger_score": 0.51, "nearest_stop": "Bloor St West at Indian Rd"}}, {"type": "Feature", "geometry": {"type": "LineString", "coordinates": [[-79.4586395, 43.655103], [-79.4587558, 43.6550787]]}, "properties": {"segment": 30, "length_m": 9.7, "danger_score": 0.491, "nearest_stop": "Keele Station - Eastbound Platform"}}, {"type": "Feature", "geometry": {"type": "LineString", "coordinates": [[-79.4587558, 43.6550787], [-79.4589457, 43.655039]]}, "properties": {"segment": 31, "length_m": 15.9, "danger_score": 0.491, "nearest_stop": "Keele Station - Eastbound Platform"}}, {"type": "Feature", "geometry": {"type": "LineString", "coordinates": [[-79.4589457, 43.655039], [-79.4595338, 43.6549153]]}, "properties": {"segment": 32, "length_m": 49.5, "danger_score": 0.462, "nearest_stop": "Bloor St West at Keele St"}}, {"type": "Feature", "geometry": {"type": "LineString", "coordinates": [[-79.4595338, 43.6549153], [-79.4598655, 43.6548745]]}, "properties": {"segment": 33, "length_m": 27.9, "danger_score": 0.462, "nearest_stop": "Bloor St West at Keele St"}}, {"type": "Feature", "geometry": {"type": "LineString", "coordinates": [[-79.4598655, 43.6548745], [-79.4602018, 43.654811]]}, "properties": {"segment": 34, "length_m": 28.0, "danger_score": 0.424, "nearest_stop": "Keele St at Bloor St West - Keele Station"}}, {"type": "Feature", "geometry": {"type": "LineString", "coordinates": [[-79.4602018, 43.654811], [-79.4602209, 43.6547722]]}, "properties": {"segment": 35, "length_m": 4.6, "danger_score": 0.424, "nearest_stop": "Keele St at Bloor St West - Keele Station"}}, {"type": "Feature", "geometry": {"type": "LineString", "coordinates": [[-79.4602209, 43.6547722], [-79.4605837, 43.6546801]]}, "properties": {"segment": 36, "length_m": 31.1, "danger_score": 0.424, "nearest_stop": "Keele St at Bloor St West - Keele Station"}}, {"type": "Feature", "geometry": {"type": "LineString", "coordinates": [[-79.4605837, 43.6546801], [-79.4609898, 43.6546045]]}, "properties": {"segment": 37, "length_m": 34.3, "danger_score": 0.433, "nearest_stop": "Bloor St West at Parkside Dr"}}, {"type": "Feature", "geometry": {"type": "LineString", "coordinates": [[-79.4609898, 43.6546045], [-79.461141, 43.6545718]]}, "properties": {"segment": 38, "length_m": 12.7, "danger_score": 0.433, "nearest_stop": "Bloor St West at Parkside Dr"}}, {"type": "Feature", "geometry": {"type": "LineString", "coordinates": [[-79.461141, 43.6545718], [-79.4622629, 43.6543195]]}, "properties": {"segment": 39, "length_m": 95.5, "danger_score": 0.433, "nearest_stop": "Bloor St West at Parkside Dr"}}, {"type": "Feature", "geometry": {"type": "LineString", "coordinates": [[-79.4622629, 43.6543195], [-79.462478, 43.6542731]]}, "properties": {"segment": 40, "length_m": 18.1, "danger_score": 0.433, "nearest_stop": "Bloor St West at Parkside Dr"}}, {"type": "Feature", "geometry": {"type": "LineString", "coordinates": [[-79.462478, 43.6542731], [-79.4636099, 43.6540251]]}, "properties": {"segment": 41, "length_m": 95.2, "danger_score": 0.492, "nearest_stop": "Bloor St West at High Park Ave"}}, {"type": "Feature", "geometry": {"type": "LineString", "coordinates": [[-79.4636099, 43.6540251], [-79.4638243, 43.6539752]]}, "properties": {"segment": 42, "length_m": 18.1, "danger_score": 0.492, "nearest_stop": "Bloor St West at High Park Ave"}}, {"type": "Feature", "geometry": {"type": "LineString", "coordinates": [[-79.4638243, 43.6539752], [-79.4651555, 43.653666]]}, "properties": {"segment": 43, "length_m": 112.5, "danger_score": 0.492, "nearest_stop": "Bloor St West at High Park Ave"}}, {"type": "Feature", "geometry": {"type": "LineString", "coordinates": [[-79.4651555, 43.653666], [-79.4651743, 43.6536781]]}, "properties": {"segment": 44, "length_m": 2.0, "danger_score": 0.492, "nearest_stop": "Bloor St West at High Park Ave"}}, {"type": "Feature", "geometry": {"type": "LineString", "coordinates": [[-79.4651743, 43.6536781], [-79.4654383, 43.6536215]]}, "properties": {"segment": 45, "length_m": 22.2, "danger_score": 0.492, "nearest_stop": "Bloor St West at High Park Ave"}}, {"type": "Feature", "geometry": {"type": "LineString", "coordinates": [[-79.4654383, 43.6536215], [-79.4668325, 43.653319]]}, "properties": {"segment": 46, "length_m": 117.9, "danger_score": 0.535, "nearest_stop": "High Park Station"}}, {"type": "Feature", "geometry": {"type": "LineString", "coordinates": [[-79.4668325, 43.653319], [-79.4670051, 43.6532755]]}, "properties": {"segment": 47, "length_m": 14.7, "danger_score": 0.518, "nearest_stop": "High Park Station - Eastbound Platform"}}, {"type": "Feature", "geometry": {"type": "LineString", "coordinates": [[-79.4670051, 43.6532755], [-79.468632, 43.6529278]]}, "properties": {"segment": 48, "length_m": 137.2, "danger_score": 0.509, "nearest_stop": "High Park Station - Westbound Platform"}}, {"type": "Feature", "geometry": {"type": "LineString", "coordinates": [[-79.468632, 43.6529278], [-79.4687841, 43.6528933]]}, "properties": {"segment": 49, "length_m": 12.8, "danger_score": 0.509, "nearest_stop": "High Park Station - Westbound Platform"}}, {"type": "Feature", "geometry": {"type": "LineString", "coordinates": [[-79.4687841, 43.6528933], [-79.4693288, 43.6527547]]}, "properties": {"segment": 50, "length_m": 47.0, "danger_score": 0.457, "nearest_stop": "Bloor St West at Clendenan Ave"}}, {"type": "Feature", "geometry": {"type": "LineString", "coordinates": [[-79.4693288, 43.6527547], [-79.4698827, 43.6526294]]}, "properties": {"segment": 51, "length_m": 46.7, "danger_score": 0.457, "nearest_stop": "Bloor St West at Clendenan Ave"}}, {"type": "Feature", "geometry": {"type": "LineString", "coordinates": [[-79.4698827, 43.6526294], [-79.469944, 43.6526317]]}, "properties": {"segment": 52, "length_m": 4.9, "danger_score": 0.457, "nearest_stop": "Bloor St West at Clendenan Ave"}}, {"type": "Feature", "geometry": {"type": "LineString", "coordinates": [[-79.469944, 43.6526317], [-79.4701108, 43.652598]]}, "properties": {"segment": 53, "length_m": 13.9, "danger_score": 0.457, "nearest_stop": "Bloor St West at Clendenan Ave"}}, {"type": "Feature", "geometry": {"type": "LineString", "coordinates": [[-79.4701108, 43.652598], [-79.4701349, 43.6525787]]}, "properties": {"segment": 54, "length_m": 2.9, "danger_score": 0.457, "nearest_stop": "Bloor St West at Clendenan Ave"}}, {"type": "Feature", "geometry": {"type": "LineString", "coordinates": [[-79.4701349, 43.6525787], [-79.4717096, 43.6522412]]}, "properties": {"segment": 55, "length_m": 132.1, "danger_score": 0.45, "nearest_stop": "Bloor St West at Clendenan Ave"}}, {"type": "Feature", "geometry": {"type": "LineString", "coordinates": [[-79.4717096, 43.6522412], [-79.4719092, 43.6521976]]}, "properties": {"segment": 56, "length_m": 16.8, "danger_score": 0.45, "nearest_stop": "Bloor St West at Clendenan Ave"}}, {"type": "Feature", "geometry": {"type": "LineString", "coordinates": [[-79.4719092, 43.6521976], [-79.4738264, 43.6517706]]}, "properties": {"segment": 57, "length_m": 161.4, "danger_score": 0.528, "nearest_stop": "Runnymede Station - Eastbound Platform"}}, {"type": "Feature", "geometry": {"type": "LineString", "coordinates": [[-79.4738264, 43.6517706], [-79.4739658, 43.6517395]]}, "properties": {"segment": 58, "length_m": 11.7, "danger_score": 0.528, "nearest_stop": "Runnymede Station - Eastbound Platform"}}, {"type": "Feature", "geometry": {"type": "LineString", "coordinates": [[-79.4739658, 43.6517395], [-79.4739773, 43.6517369]]}, "properties": {"segment": 59, "length_m": 1.0, "danger_score": 0.528, "nearest_stop": "Runnymede Station - Eastbound Platform"}}, {"type": "Feature", "geometry": {"type": "LineString", "coordinates": [[-79.4739773, 43.6517369], [-79.4741677, 43.6516953]]}, "properties": {"segment": 60, "length_m": 16.0, "danger_score": 0.528, "nearest_stop": "Runnymede Station - Eastbound Platform"}}, {"type": "Feature", "geometry": {"type": "LineString", "coordinates": [[-79.4741677, 43.6516953], [-79.4750868, 43.6514983]]}, "properties": {"segment": 61, "length_m": 77.1, "danger_score": 0.528, "nearest_stop": "Runnymede Station - Eastbound Platform"}}, {"type": "Feature", "geometry": {"type": "LineString", "coordinates": [[-79.4750868, 43.6514983], [-79.4752978, 43.6514546]]}, "properties": {"segment": 62, "length_m": 17.7, "danger_score": 0.542, "nearest_stop": "Runnymede Station"}}, {"type": "Feature", "geometry": {"type": "LineString", "coordinates": [[-79.4752978, 43.6514546], [-79.476164, 43.6512638]]}, "properties": {"segment": 63, "length_m": 72.8, "danger_score": 0.504, "nearest_stop": "Bloor St West at Runnymede Rd"}}, {"type": "Feature", "geometry": {"type": "LineString", "coordinates": [[-79.476164, 43.6512638], [-79.4762985, 43.6512288]]}, "properties": {"segment": 64, "length_m": 11.5, "danger_score": 0.504, "nearest_stop": "Bloor St West at Runnymede Rd"}}, {"type": "Feature", "geometry": {"type": "LineString", "coordinates": [[-79.4762985, 43.6512288], [-79.4763983, 43.6512002]]}, "properties": {"segment": 65, "length_m": 8.6, "danger_score": 0.504, "nearest_stop": "Bloor St West at Runnymede Rd"}}, {"type": "Feature", "geometry": {"type": "LineString", "coordinates": [[-79.4763983, 43.6512002], [-79.4776011, 43.6509553]]}, "properties": {"segment": 66, "length_m": 100.8, "danger_score": 0.493, "nearest_stop": "Bloor St West at Runnymede Rd"}}, {"type": "Feature", "geometry": {"type": "LineString", "coordinates": [[-79.4776011, 43.6509553], [-79.4776807, 43.650938]]}, "properties": {"segment": 67, "length_m": 6.7, "danger_score": 0.493, "nearest_stop": "Bloor St West at Runnymede Rd"}}, {"type": "Feature", "geometry": {"type": "LineString", "coordinates": [[-79.4776807, 43.650938], [-79.4777639, 43.6509199]]}, "properties": {"segment": 68, "length_m": 7.0, "danger_score": 0.493, "nearest_stop": "Bloor St West at Runnymede Rd"}}, {"type": "Feature", "geometry": {"type": "LineString", "coordinates": [[-79.4777639, 43.6509199], [-79.4789908, 43.6506525]]}, "properties": {"segment": 69, "length_m": 103.1, "danger_score": 0.493, "nearest_stop": "Bloor St West at Runnymede Rd"}}, {"type": "Feature", "geometry": {"type": "LineString", "coordinates": [[-79.4789908, 43.6506525], [-79.4791619, 43.6506137]]}, "properties": {"segment": 70, "length_m": 14.4, "danger_score": 0.502, "nearest_stop": "Bloor St West at Windermere Ave"}}, {"type": "Feature", "geometry": {"type": "LineString", "coordinates": [[-79.4791619, 43.6506137], [-79.4803047, 43.650353]]}, "properties": {"segment": 71, "length_m": 98.0, "danger_score": 0.502, "nearest_stop": "Bloor St West at Windermere Ave"}}, {"type": "Feature", "geometry": {"type": "LineString", "coordinates": [[-79.4803047, 43.650353], [-79.4805092, 43.6503117]]}, "properties": {"segment": 72, "length_m": 17.1, "danger_score": 0.502, "nearest_stop": "Bloor St West at Windermere Ave"}}, {"type": "Feature", "geometry": {"type": "LineString", "coordinates": [[-79.4805092, 43.6503117], [-79.4816937, 43.6500592]]}, "properties": {"segment": 73, "length_m": 99.4, "danger_score": 0.457, "nearest_stop": "Bloor St West at Windermere Ave"}}, {"type": "Feature", "geometry": {"type": "LineString", "coordinates": [[-79.4816937, 43.6500592], [-79.4818628, 43.6500231]]}, "properties": {"segment": 74, "length_m": 14.2, "danger_score": 0.649, "nearest_stop": "Jane Station - Eastbound Platform"}}, {"type": "Feature", "geometry": {"type": "LineString", "coordinates": [[-79.4818628, 43.6500231], [-79.4828569, 43.6498015]]}, "properties": {"segment": 75, "length_m": 83.7, "danger_score": 0.649, "nearest_stop": "Jane Station - Eastbound Platform"}}, {"type": "Feature", "geometry": {"type": "LineString", "coordinates": [[-79.4828569, 43.6498015], [-79.4829653, 43.649776]]}, "properties": {"segment": 76, "length_m": 9.2, "danger_score": 0.649, "nearest_stop": "Jane Station - Eastbound Platform"}}, {"type": "Feature", "geometry": {"type": "LineString", "coordinates": [[-79.4829653, 43.649776], [-79.4830895, 43.6497468]]}, "properties": {"segment": 77, "length_m": 10.5, "danger_score": 0.643, "nearest_stop": "Jane Station"}}, {"type": "Feature", "geometry": {"type": "LineString", "coordinates": [[-79.4830895, 43.6497468], [-79.4837709, 43.6496008]]}, "properties": {"segment": 78, "length_m": 57.2, "danger_score": 0.655, "nearest_stop": "Jane Station"}}, {"type": "Feature", "geometry": {"type": "LineString", "coordinates": [[-79.4837709, 43.6496008], [-79.4843842, 43.6494657]]}, "properties": {"segment": 79, "length_m": 51.6, "danger_score": 0.497, "nearest_stop": "Bloor St West at Jane St"}}, {"type": "Feature", "geometry": {"type": "LineString", "coordinates": [[-79.4843842, 43.6494657], [-79.4844101, 43.64946]]}, "properties": {"segment": 80, "length_m": 2.2, "danger_score": 0.497, "nearest_stop": "Bloor St West at Jane St"}}, {"type": "Feature", "geometry": {"type": "LineString", "coordinates": [[-79.4844101, 43.64946], [-79.4846194, 43.6494097]]}, "properties": {"segment": 81, "length_m": 17.7, "danger_score": 0.497, "nearest_stop": "Bloor St West at Jane St"}}, {"type": "Feature", "geometry": {"type": "LineString", "coordinates": [[-79.4846194, 43.6494097], [-79.4846279, 43.649387]]}, "properties": {"segment": 82, "length_m": 2.6, "danger_score": 0.497, "nearest_stop": "Bloor St West at Jane St"}}, {"type": "Feature", "geometry": {"type": "LineString", "coordinates": [[-79.4846279, 43.649387], [-79.4855651, 43.6486626]]}, "properties": {"segment": 83, "length_m": 111.2, "danger_score": 0.483, "nearest_stop": "Bloor St West at Jane St"}}, {"type": "Feature", "geometry": {"type": "LineString", "coordinates": [[-79.4855651, 43.6486626], [-79.4856295, 43.6486136]]}, "properties": {"segment": 84, "length_m": 7.5, "danger_score": 0.454, "nearest_stop": "Bloor St West at Riverview Gardens"}}, {"type": "Feature", "geometry": {"type": "LineString", "coordinates": [[-79.4856295, 43.6486136], [-79.4858137, 43.6484697]]}, "properties": {"segment": 85, "length_m": 21.8, "danger_score": 0.454, "nearest_stop": "Bloor St West at Riverview Gardens"}}, {"type": "Feature", "geometry": {"type": "LineString", "coordinates": [[-79.4858137, 43.6484697], [-79.4858115, 43.6484509]]}, "properties": {"segment": 86, "length_m": 2.1, "danger_score": 0.454, "nearest_stop": "Bloor St West at Riverview Gardens"}}, {"type": "Feature", "geometry": {"type": "LineString", "coordinates": [[-79.4858115, 43.6484509], [-79.4866475, 43.648066]]}, "properties": {"segment": 87, "length_m": 81.2, "danger_score": 0.441, "nearest_stop": "Bloor St West at South Kingsway"}}, {"type": "Feature", "geometry": {"type": "LineString", "coordinates": [[-79.4866475, 43.648066], [-79.486873, 43.6480292]]}, "properties": {"segment": 88, "length_m": 19.0, "danger_score": 0.441, "nearest_stop": "Bloor St West at South Kingsway"}}, {"type": "Feature", "geometry": {"type": "LineString", "coordinates": [[-79.486873, 43.6480292], [-79.4880567, 43.6478235]]}, "properties": {"segment": 89, "length_m": 98.8, "danger_score": 0.441, "nearest_stop": "Bloor St West at South Kingsway"}}, {"type": "Feature", "geometry": {"type": "LineString", "coordinates": [[-79.4880567, 43.6478235], [-79.4886714, 43.6478538]]}, "properties": {"segment": 90, "length_m": 49.8, "danger_score": 0.421, "nearest_stop": "Bloor St West at Brule Terrace"}}, {"type": "Feature", "geometry": {"type": "LineString", "coordinates": [[-79.4886714, 43.6478538], [-79.4901607, 43.6479752]]}, "properties": {"segment": 91, "length_m": 121.2, "danger_score": 0.421, "nearest_stop": "Bloor St West at Brule Terrace"}}, {"type": "Feature", "geometry": {"type": "LineString", "coordinates": [[-79.4901607, 43.6479752], [-79.4903926, 43.6480407]]}, "properties": {"segment": 92, "length_m": 20.0, "danger_score": 0.442, "nearest_stop": "Bloor St West at Brule Terrace"}}, {"type": "Feature", "geometry": {"type": "LineString", "coordinates": [[-79.4903926, 43.6480407], [-79.4905917, 43.6481163]]}, "properties": {"segment": 93, "length_m": 18.1, "danger_score": 0.442, "nearest_stop": "Bloor St West at Brule Terrace"}}, {"type": "Feature", "geometry": {"type": "LineString", "coordinates": [[-79.4905917, 43.6481163], [-79.4941231, 43.649284]]}, "properties": {"segment": 94, "length_m": 312.6, "danger_score": 0.375, "nearest_stop": "Old Mill Station - Eastbound Platform"}}, {"type": "Feature", "geometry": {"type": "LineString", "coordinates": [[-79.4941231, 43.649284], [-79.4946075, 43.6494554]]}, "properties": {"segment": 95, "length_m": 43.4, "danger_score": 0.42, "nearest_stop": "Bloor St West at Old Mill Trail"}}, {"type": "Feature", "geometry": {"type": "LineString", "coordinates": [[-79.4946075, 43.6494554], [-79.4950046, 43.6495914]]}, "properties": {"segment": 96, "length_m": 35.3, "danger_score": 0.42, "nearest_stop": "Bloor St West at Old Mill Trail"}}, {"type": "Feature", "geometry": {"type": "LineString", "coordinates": [[-79.4950046, 43.6495914], [-79.4951203, 43.6496332]]}, "properties": {"segment": 97, "length_m": 10.4, "danger_score": 0.42, "nearest_stop": "Bloor St West at Old Mill Trail"}}, {"type": "Feature", "geometry": {"type": "LineString", "coordinates": [[-79.4951203, 43.6496332], [-79.4952351, 43.6494523]]}, "properties": {"segment": 98, "length_m": 22.1, "danger_score": 0.42, "nearest_stop": "Bloor St West at Old Mill Trail"}}, {"type": "Feature", "geometry": {"type": "LineString", "coordinates": [[-79.4952351, 43.6494523], [-79.4956015, 43.649565]]}, "properties": {"segment": 99, "length_m": 32.0, "danger_score": 0.432, "nearest_stop": "Bloor St West at Old Mill Trail"}}, {"type": "Feature", "geometry": {"type": "LineString", "coordinates": [[-79.4956015, 43.649565], [-79.4962952, 43.649731]]}, "properties": {"segment": 100, "length_m": 58.8, "danger_score": 0.432, "nearest_stop": "Bloor St West at Old Mill Trail"}}, {"type": "Feature", "geometry": {"type": "LineString", "coordinates": [[-79.4962952, 43.649731], [-79.4983246, 43.6499499]]}, "properties": {"segment": 101, "length_m": 165.5, "danger_score": 0.432, "nearest_stop": "Bloor St West at Old Mill Trail"}}, {"type": "Feature", "geometry": {"type": "LineString", "coordinates": [[-79.4983246, 43.6499499], [-79.4984181, 43.6499563]]}, "properties": {"segment": 102, "length_m": 7.6, "danger_score": 0.432, "nearest_stop": "Bloor St West at The Kingsway"}}, {"type": "Feature", "geometry": {"type": "LineString", "coordinates": [[-79.4984181, 43.6499563], [-79.4990125, 43.6499836]]}, "properties": {"segment": 103, "length_m": 48.1, "danger_score": 0.432, "nearest_stop": "Bloor St West at The Kingsway"}}, {"type": "Feature", "geometry": {"type": "LineString", "coordinates": [[-79.4990125, 43.6499836], [-79.4991628, 43.6499647]]}, "properties": {"segment": 104, "length_m": 12.3, "danger_score": 0.432, "nearest_stop": "Bloor St West at The Kingsway"}}, {"type": "Feature", "geometry": {"type": "LineString", "coordinates": [[-79.4991628, 43.6499647], [-79.4993077, 43.6499247]]}, "properties": {"segment": 105, "length_m": 12.8, "danger_score": 0.432, "nearest_stop": "Bloor St West at The Kingsway"}}, {"type": "Feature", "geometry": {"type": "LineString", "coordinates": [[-79.4993077, 43.6499247], [-79.4994322, 43.6499077]]}, "properties": {"segment": 106, "length_m": 10.2, "danger_score": 0.432, "nearest_stop": "Bloor St West at The Kingsway"}}, {"type": "Feature", "geometry": {"type": "LineString", "coordinates": [[-79.4994322, 43.6499077], [-79.5019463, 43.6493995]]}, "properties": {"segment": 107, "length_m": 210.4, "danger_score": 0.405, "nearest_stop": "Bloor St West at The Kingsway West Side"}}, {"type": "Feature", "geometry": {"type": "LineString", "coordinates": [[-79.5019463, 43.6493995], [-79.5052785, 43.6486112]]}, "properties": {"segment": 108, "length_m": 282.8, "danger_score": 0.37, "nearest_stop": "Bloor St West at Prince Edward Dr"}}, {"type": "Feature", "geometry": {"type": "LineString", "coordinates": [[-79.5052785, 43.6486112], [-79.5053081, 43.6486018]]}, "properties": {"segment": 109, "length_m": 2.6, "danger_score": 0.405, "nearest_stop": "Prince Edward Dr South at Bloor St West"}}, {"type": "Feature", "geometry": {"type": "LineString", "coordinates": [[-79.5053081, 43.6486018], [-79.5054078, 43.6485768]]}, "properties": {"segment": 110, "length_m": 8.5, "danger_score": 0.405, "nearest_stop": "Prince Edward Dr South at Bloor St West"}}, {"type": "Feature", "geometry": {"type": "LineString", "coordinates": [[-79.5054078, 43.6485768], [-79.5055717, 43.6485357]]}, "properties": {"segment": 111, "length_m": 14.0, "danger_score": 0.439, "nearest_stop": "Bloor St West at Prince Edward Dr South"}}, {"type": "Feature", "geometry": {"type": "LineString", "coordinates": [[-79.5055717, 43.6485357], [-79.507967, 43.6480238]]}, "properties": {"segment": 112, "length_m": 202.3, "danger_score": 0.439, "nearest_stop": "Bloor St West at Prince Edward Dr South"}}, {"type": "Feature", "geometry": {"type": "LineString", "coordinates": [[-79.507967, 43.6480238], [-79.5080849, 43.6479806]]}, "properties": {"segment": 113, "length_m": 10.9, "danger_score": 0.504, "nearest_stop": "Royal York Station - Eastbound Platform"}}, {"type": "Feature", "geometry": {"type": "LineString", "coordinates": [[-79.5080849, 43.6479806], [-79.5083073, 43.6479317]]}, "properties": {"segment": 114, "length_m": 18.7, "danger_score": 0.504, "nearest_stop": "Royal York Station - Eastbound Platform"}}, {"type": "Feature", "geometry": {"type": "LineString", "coordinates": [[-79.5083073, 43.6479317], [-79.508735, 43.6478426]]}, "properties": {"segment": 115, "length_m": 35.8, "danger_score": 0.504, "nearest_stop": "Royal York Station - Eastbound Platform"}}, {"type": "Feature", "geometry": {"type": "LineString", "coordinates": [[-79.508735, 43.6478426], [-79.5090423, 43.6477719]]}, "properties": {"segment": 116, "length_m": 25.9, "danger_score": 0.504, "nearest_stop": "Royal York Station - Eastbound Platform"}}, {"type": "Feature", "geometry": {"type": "LineString", "coordinates": [[-79.5090423, 43.6477719], [-79.5091365, 43.6477501]]}, "properties": {"segment": 117, "length_m": 8.0, "danger_score": 0.504, "nearest_stop": "Royal York Station - Eastbound Platform"}}, {"type": "Feature", "geometry": {"type": "LineString", "coordinates": [[-79.5091365, 43.6477501], [-79.5092511, 43.6477246]]}, "properties": {"segment": 118, "length_m": 9.6, "danger_score": 0.504, "nearest_stop": "Royal York Station - Eastbound Platform"}}, {"type": "Feature", "geometry": {"type": "LineString", "coordinates": [[-79.5092511, 43.6477246], [-79.5100967, 43.6475372]]}, "properties": {"segment": 119, "length_m": 71.2, "danger_score": 0.468, "nearest_stop": "Royal York Station - Westbound Platform"}}, {"type": "Feature", "geometry": {"type": "LineString", "coordinates": [[-79.5100967, 43.6475372], [-79.5101989, 43.6475145]]}, "properties": {"segment": 120, "length_m": 8.6, "danger_score": 0.458, "nearest_stop": "Bloor St West at Royal York Rd"}}, {"type": "Feature", "geometry": {"type": "LineString", "coordinates": [[-79.5101989, 43.6475145], [-79.5111578, 43.6472861]]}, "properties": {"segment": 121, "length_m": 81.3, "danger_score": 0.458, "nearest_stop": "Bloor St West at Royal York Rd"}}, {"type": "Feature", "geometry": {"type": "LineString", "coordinates": [[-79.5111578, 43.6472861], [-79.5114417, 43.6472234]]}, "properties": {"segment": 122, "length_m": 23.9, "danger_score": 0.475, "nearest_stop": "Royal York Rd at Bloor St West"}}, {"type": "Feature", "geometry": {"type": "LineString", "coordinates": [[-79.5114417, 43.6472234], [-79.5114645, 43.647227]]}, "properties": {"segment": 123, "length_m": 1.9, "danger_score": 0.459, "nearest_stop": "Bloor St West at Royal York Rd"}}, {"type": "Feature", "geometry": {"type": "LineString", "coordinates": [[-79.5114645, 43.647227], [-79.5123374, 43.6470365]]}, "properties": {"segment": 124, "length_m": 73.4, "danger_score": 0.459, "nearest_stop": "Bloor St West at Royal York Rd"}}, {"type": "Feature", "geometry": {"type": "LineString", "coordinates": [[-79.5123374, 43.6470365], [-79.5124106, 43.6470221]]}, "properties": {"segment": 125, "length_m": 6.1, "danger_score": 0.459, "nearest_stop": "Bloor St West at Royal York Rd"}}, {"type": "Feature", "geometry": {"type": "LineString", "coordinates": [[-79.5124106, 43.6470221], [-79.5125336, 43.6469998]]}, "properties": {"segment": 126, "length_m": 10.2, "danger_score": 0.459, "nearest_stop": "Bloor St West at Royal York Rd"}}, {"type": "Feature", "geometry": {"type": "LineString", "coordinates": [[-79.5125336, 43.6469998], [-79.5127576, 43.6469539]]}, "properties": {"segment": 127, "length_m": 18.7, "danger_score": 0.459, "nearest_stop": "Bloor St West at Royal York Rd"}}, {"type": "Feature", "geometry": {"type": "LineString", "coordinates": [[-79.5127576, 43.6469539], [-79.512892, 43.6469255]]}, "properties": {"segment": 128, "length_m": 11.3, "danger_score": 0.459, "nearest_stop": "Bloor St West at Royal York Rd"}}, {"type": "Feature", "geometry": {"type": "LineString", "coordinates": [[-79.512892, 43.6469255], [-79.5130714, 43.646886]]}, "properties": {"segment": 129, "length_m": 15.1, "danger_score": 0.459, "nearest_stop": "Bloor St West at Royal York Rd"}}, {"type": "Feature", "geometry": {"type": "LineString", "coordinates": [[-79.5130714, 43.646886], [-79.5134515, 43.6467991]]}, "properties": {"segment": 130, "length_m": 32.1, "danger_score": 0.424, "nearest_stop": "Bloor St West at Thompson Ave West Side"}}, {"type": "Feature", "geometry": {"type": "LineString", "coordinates": [[-79.5134515, 43.6467991], [-79.5135313, 43.6467704]]}, "properties": {"segment": 131, "length_m": 7.2, "danger_score": 0.424, "nearest_stop": "Bloor St West at Thompson Ave West Side"}}, {"type": "Feature", "geometry": {"type": "LineString", "coordinates": [[-79.5135313, 43.6467704], [-79.513656, 43.6467358]]}, "properties": {"segment": 132, "length_m": 10.8, "danger_score": 0.424, "nearest_stop": "Bloor St West at Thompson Ave West Side"}}, {"type": "Feature", "geometry": {"type": "LineString", "coordinates": [[-79.513656, 43.6467358], [-79.5140907, 43.6466453]]}, "properties": {"segment": 133, "length_m": 36.4, "danger_score": 0.424, "nearest_stop": "Bloor St West at Thompson Ave West Side"}}, {"type": "Feature", "geometry": {"type": "LineString", "coordinates": [[-79.5140907, 43.6466453], [-79.5141879, 43.6466259]]}, "properties": {"segment": 134, "length_m": 8.1, "danger_score": 0.424, "nearest_stop": "Bloor St West at Thompson Ave West Side"}}, {"type": "Feature", "geometry": {"type": "LineString", "coordinates": [[-79.5141879, 43.6466259], [-79.5143041, 43.6466027]]}, "properties": {"segment": 135, "length_m": 9.7, "danger_score": 0.424, "nearest_stop": "Bloor St West at Thompson Ave West Side"}}, {"type": "Feature", "geometry": {"type": "LineString", "coordinates": [[-79.5143041, 43.6466027], [-79.5143811, 43.646586]]}, "properties": {"segment": 136, "length_m": 6.5, "danger_score": 0.424, "nearest_stop": "Bloor St West at Thompson Ave West Side"}}, {"type": "Feature", "geometry": {"type": "LineString", "coordinates": [[-79.5143811, 43.646586], [-79.5147317, 43.6465075]]}, "properties": {"segment": 137, "length_m": 29.5, "danger_score": 0.424, "nearest_stop": "Bloor St West at Thompson Ave West Side"}}, {"type": "Feature", "geometry": {"type": "LineString", "coordinates": [[-79.5147317, 43.6465075], [-79.5151627, 43.646408]]}, "properties": {"segment": 138, "length_m": 36.4, "danger_score": 0.424, "nearest_stop": "Bloor St West at Thompson Ave West Side"}}, {"type": "Feature", "geometry": {"type": "LineString", "coordinates": [[-79.5151627, 43.646408], [-79.5156631, 43.6462987]]}, "properties": {"segment": 139, "length_m": 42.1, "danger_score": 0.438, "nearest_stop": "Bloor St West at Montgomery Rd West Side"}}, {"type": "Feature", "geometry": {"type": "LineString", "coordinates": [[-79.5156631, 43.6462987], [-79.5157598, 43.6462776]]}, "properties": {"segment": 140, "length_m": 8.1, "danger_score": 0.438, "nearest_stop": "Bloor St West at Montgomery Rd West Side"}}, {"type": "Feature", "geometry": {"type": "LineString", "coordinates": [[-79.5157598, 43.6462776], [-79.5158633, 43.6462555]]}, "properties": {"segment": 141, "length_m": 8.7, "danger_score": 0.438, "nearest_stop": "Bloor St West at Montgomery Rd West Side"}}, {"type": "Feature", "geometry": {"type": "LineString", "coordinates": [[-79.5158633, 43.6462555], [-79.5164075, 43.6461621]]}, "properties": {"segment": 142, "length_m": 45.3, "danger_score": 0.438, "nearest_stop": "Bloor St West at Montgomery Rd West Side"}}, {"type": "Feature", "geometry": {"type": "LineString", "coordinates": [[-79.5164075, 43.6461621], [-79.5174674, 43.6459369]]}, "properties": {"segment": 143, "length_m": 88.9, "danger_score": 0.458, "nearest_stop": "Bloor St West at Aberfoyle Cres"}}, {"type": "Feature", "geometry": {"type": "LineString", "coordinates": [[-79.5174674, 43.6459369], [-79.5188331, 43.6456101]]}, "properties": {"segment": 144, "length_m": 115.7, "danger_score": 0.458, "nearest_stop": "Bloor St West at Aberfoyle Cres"}}, {"type": "Feature", "geometry": {"type": "LineString", "coordinates": [[-79.5188331, 43.6456101], [-79.5188478, 43.6456058]]}, "properties": {"segment": 145, "length_m": 1.3, "danger_score": 0.458, "nearest_stop": "Bloor St West at Aberfoyle Cres"}}, {"type": "Feature", "geometry": {"type": "LineString", "coordinates": [[-79.5188478, 43.6456058], [-79.5189178, 43.6455855]]}, "properties": {"segment": 146, "length_m": 6.1, "danger_score": 0.458, "nearest_stop": "Bloor St West at Aberfoyle Cres"}}, {"type": "Feature", "geometry": {"type": "LineString", "coordinates": [[-79.5189178, 43.6455855], [-79.5190061, 43.6455598]]}, "properties": {"segment": 147, "length_m": 7.7, "danger_score": 0.458, "nearest_stop": "Bloor St West at Aberfoyle Cres"}}, {"type": "Feature", "geometry": {"type": "LineString", "coordinates": [[-79.5190061, 43.6455598], [-79.5199155, 43.6453493]]}, "properties": {"segment": 148, "length_m": 76.8, "danger_score": 0.457, "nearest_stop": "Bloor St West at Eagle Rd East Side"}}, {"type": "Feature", "geometry": {"type": "LineString", "coordinates": [[-79.5199155, 43.6453493], [-79.5200196, 43.6453282]]}, "properties": {"segment": 149, "length_m": 8.7, "danger_score": 0.457, "nearest_stop": "Bloor St West at Eagle Rd East Side"}}, {"type": "Feature", "geometry": {"type": "LineString", "coordinates": [[-79.5200196, 43.6453282], [-79.5201301, 43.6453051]]}, "properties": {"segment": 150, "length_m": 9.3, "danger_score": 0.457, "nearest_stop": "Bloor St West at Eagle Rd East Side"}}, {"type": "Feature", "geometry": {"type": "LineString", "coordinates": [[-79.5201301, 43.6453051], [-79.5210324, 43.6451088]]}, "properties": {"segment": 151, "length_m": 75.8, "danger_score": 0.457, "nearest_stop": "Bloor St West at Eagle Rd East Side"}}, {"type": "Feature", "geometry": {"type": "LineString", "coordinates": [[-79.5210324, 43.6451088], [-79.5211261, 43.6450852]]}, "properties": {"segment": 152, "length_m": 8.0, "danger_score": 0.457, "nearest_stop": "Bloor St West at Eagle Rd East Side"}}, {"type": "Feature", "geometry": {"type": "LineString", "coordinates": [[-79.5211261, 43.6450852], [-79.5212337, 43.6450611]]}, "properties": {"segment": 153, "length_m": 9.1, "danger_score": 0.457, "nearest_stop": "Bloor St West at Eagle Rd East Side"}}, {"type": "Feature", "geometry": {"type": "LineString", "coordinates": [[-79.5212337, 43.6450611], [-79.5221446, 43.6448463]]}, "properties": {"segment": 154, "length_m": 77.1, "danger_score": 0.445, "nearest_stop": "Bloor St West at Islington Ave"}}, {"type": "Feature", "geometry": {"type": "LineString", "coordinates": [[-79.5221446, 43.6448463], [-79.5222374, 43.6448123]]}, "properties": {"segment": 155, "length_m": 8.4, "danger_score": 0.445, "nearest_stop": "Bloor St West at Islington Ave"}}, {"type": "Feature", "geometry": {"type": "LineString", "coordinates": [[-79.5222374, 43.6448123], [-79.5223448, 43.6447786]]}, "properties": {"segment": 156, "length_m": 9.5, "danger_score": 0.445, "nearest_stop": "Bloor St West at Islington Ave"}}, {"type": "Feature", "geometry": {"type": "LineString", "coordinates": [[-79.5223448, 43.6447786], [-79.523173, 43.6445981]]}, "properties": {"segment": 157, "length_m": 69.6, "danger_score": 0.445, "nearest_stop": "Bloor St West at Islington Ave"}}, {"type": "Feature", "geometry": {"type": "LineString", "coordinates": [[-79.523173, 43.6445981], [-79.5232022, 43.6445732]]}, "properties": {"segment": 158, "length_m": 3.6, "danger_score": 0.484, "nearest_stop": "Islington Ave at Bloor St West"}}, {"type": "Feature", "geometry": {"type": "LineString", "coordinates": [[-79.5232022, 43.6445732], [-79.5235568, 43.6445039]]}, "properties": {"segment": 159, "length_m": 29.6, "danger_score": 0.484, "nearest_stop": "Islington Ave at Bloor St West"}}, {"type": "Feature", "geometry": {"type": "LineString", "coordinates": [[-79.5235568, 43.6445039], [-79.5236072, 43.6444926]]}, "properties": {"segment": 160, "length_m": 4.2, "danger_score": 0.456, "nearest_stop": "Bloor St West at Islington Ave"}}, {"type": "Feature", "geometry": {"type": "LineString", "coordinates": [[-79.5236072, 43.6444926], [-79.5243713, 43.6443275]]}, "properties": {"segment": 161, "length_m": 64.2, "danger_score": 0.391, "nearest_stop": "Bloor St West at Islington Ave West Side"}}, {"type": "Feature", "geometry": {"type": "LineString", "coordinates": [[-79.5243713, 43.6443275], [-79.5245789, 43.6443104]]}, "properties": {"segment": 162, "length_m": 16.8, "danger_score": 0.391, "nearest_stop": "Bloor St West at Islington Ave West Side"}}, {"type": "Feature", "geometry": {"type": "LineString", "coordinates": [[-79.5245789, 43.6443104], [-79.5254882, 43.644088]]}, "properties": {"segment": 163, "length_m": 78.0, "danger_score": 0.405, "nearest_stop": "Bloor St West at Green Lanes East Side"}}, {"type": "Feature", "geometry": {"type": "LineString", "coordinates": [[-79.5254882, 43.644088], [-79.5257321, 43.6440364]]}, "properties": {"segment": 164, "length_m": 20.5, "danger_score": 0.405, "nearest_stop": "Bloor St West at Green Lanes East Side"}}, {"type": "Feature", "geometry": {"type": "LineString", "coordinates": [[-79.5257321, 43.6440364], [-79.5271958, 43.6437352]]}, "properties": {"segment": 165, "length_m": 122.9, "danger_score": 0.405, "nearest_stop": "Bloor St West at Green Lanes East Side"}}, {"type": "Feature", "geometry": {"type": "LineString", "coordinates": [[-79.5271958, 43.6437352], [-79.5306323, 43.6429388]]}, "properties": {"segment": 166, "length_m": 290.6, "danger_score": 0.386, "nearest_stop": "3700 Bloor St West at Resurrection Rd"}}, {"type": "Feature", "geometry": {"type": "LineString", "coordinates": [[-79.5306323, 43.6429388], [-79.5307576, 43.6428917]]}, "properties": {"segment": 167, "length_m": 11.4, "danger_score": 0.448, "nearest_stop": "Bloor St West at Resurrection Rd"}}, {"type": "Feature", "geometry": {"type": "LineString", "coordinates": [[-79.5307576, 43.6428917], [-79.530852, 43.642861]]}, "properties": {"segment": 168, "length_m": 8.3, "danger_score": 0.448, "nearest_stop": "Bloor St West at Resurrection Rd"}}, {"type": "Feature", "geometry": {"type": "LineString", "coordinates": [[-79.530852, 43.642861], [-79.5320384, 43.6425076]]}, "properties": {"segment": 169, "length_m": 105.2, "danger_score": 0.448, "nearest_stop": "Bloor St West at Resurrection Rd"}}, {"type": "Feature", "geometry": {"type": "LineString", "coordinates": [[-79.5320384, 43.6425076], [-79.5328645, 43.6408581]]}, "properties": {"segment": 170, "length_m": 213.9, "danger_score": 0.392, "nearest_stop": "Dundas St West at Bloor St West"}}, {"type": "Feature", "geometry": {"type": "LineString", "coordinates": [[-79.5328645, 43.6408581], [-79.5324646, 43.6403864]]}, "properties": {"segment": 171, "length_m": 62.8, "danger_score": 0.34, "nearest_stop": "Dundas St West at Kipling Ave"}}, {"type": "Feature", "geometry": {"type": "LineString", "coordinates": [[-79.5324646, 43.6403864], [-79.5325685, 43.6402959]]}, "properties": {"segment": 172, "length_m": 13.1, "danger_score": 0.34, "nearest_stop": "Dundas St West at Kipling Ave"}}, {"type": "Feature", "geometry": {"type": "LineString", "coordinates": [[-79.5325685, 43.6402959], [-79.5324794, 43.6402312]]}, "properties": {"segment": 173, "length_m": 10.2, "danger_score": 0.34, "nearest_stop": "Dundas St West at Kipling Ave"}}, {"type": "Feature", "geometry": {"type": "LineString", "coordinates": [[-79.5324794, 43.6402312], [-79.5338529, 43.6393829]]}, "properties": {"segment": 174, "length_m": 147.4, "danger_score": 0.36, "nearest_stop": "St. Albans Rd at West Service Rd"}}, {"type": "Feature", "geometry": {"type": "LineString", "coordinates": [[-79.5338529, 43.6393829], [-79.5341601, 43.6391201]]}, "properties": {"segment": 175, "length_m": 38.3, "danger_score": 0.36, "nearest_stop": "St. Albans Rd at West Service Rd"}}, {"type": "Feature", "geometry": {"type": "LineString", "coordinates": [[-79.5341601, 43.6391201], [-79.5342252, 43.6390898]]}, "properties": {"segment": 176, "length_m": 6.2, "danger_score": 0.36, "nearest_stop": "St. Albans Rd at West Service Rd"}}, {"type": "Feature", "geometry": {"type": "LineString", "coordinates": [[-79.5342252, 43.6390898], [-79.5348849, 43.6381834]]}, "properties": {"segment": 177, "length_m": 125.7, "danger_score": 0.374, "nearest_stop": "Kipling Station"}}, {"type": "Feature", "geometry": {"type": "LineString", "coordinates": [[-79.5348849, 43.6381834], [-79.5349096, 43.6381566]]}, "properties": {"segment": 178, "length_m": 13.9, "danger_score": 0.395, "nearest_stop": "Kipling Station"}}, {"type": "Feature", "geometry": {"type": "LineString", "coordinates": [[-79.5349096, 43.6381566], [-79.5349731, 43.638187]]}, "properties": {"segment": 179, "length_m": 6.1, "danger_score": 0.395, "nearest_stop": "Kipling Station"}}, {"type": "Feature", "geometry": {"type": "LineString", "coordinates": [[-79.5349731, 43.638187], [-79.5360116, 43.6372933]]}, "properties": {"segment": 180, "length_m": 129.8, "danger_score": 0.396, "nearest_stop": "Kipling Station"}}, {"type": "Feature", "geometry": {"type": "LineString", "coordinates": [[-79.5360116, 43.6372933], [-79.5362212, 43.6370419]]}, "properties": {"segment": 181, "length_m": 34.2, "danger_score": 0.492, "nearest_stop": "Kipling Station"}}, {"type": "Feature", "geometry": {"type": "LineString", "coordinates": [[-79.5362212, 43.6370419], [-79.5360231, 43.6371319]]}, "properties": {"segment": 182, "length_m": 18.8, "danger_score": 0.492, "nearest_stop": "Kipling Station"}}], "properties": {"num_segments": 182, "total_length_m": 8144.5, "overall_safety_score": 68.9}}