{"type": "FeatureCollection", "features": [{"type": "Feature", "geometry": {"type": "LineString", "coordinates": [[-79.3991687, 43.7054551], [-79.3995801, 43.7055402]]}, "properties": {"segment": 1, "length_m": 34.4, "danger_score": 0.57, "nearest_stop": "Eglinton Station"}}, {"type": "Feature", "geometry": {"type": "LineString", "coordinates": [[-79.3995801, 43.7055402], [-79.3999945, 43.7056166]]}, "properties": {"segment": 2, "length_m": 34.4, "danger_score": 0.501, "nearest_stop": "Eglinton Station"}}, {"type": "Feature", "geometry": {"type": "LineString", "coordinates": [[-79.3999945, 43.7056166], [-79.4001091, 43.7062488]]}, "properties": {"segment": 3, "length_m": 71.1, "danger_score": 0.419, "nearest_stop": "Duplex Ave at Eglinton Ave West"}}, {"type": "Feature", "geometry": {"type": "LineString", "coordinates": [[-79.4001091, 43.7062488], [-79.400073, 43.7062894]]}, "properties": {"segment": 4, "length_m": 5.4, "danger_score": 0.419, "nearest_stop": "Duplex Ave at Eglinton Ave West"}}, {"type": "Feature", "geometry": {"type": "LineString", "coordinates": [[-79.400073, 43.7062894], [-79.4001511, 43.7064788]]}, "properties": {"segment": 5, "length_m": 22.0, "danger_score": 0.419, "nearest_stop": "Duplex Ave at Eglinton Ave West"}}, {"type": "Feature", "geometry": {"type": "LineString", "coordinates": [[-79.4001511, 43.7064788], [-79.4002064, 43.7064817]]}, "properties": {"segment": 6, "length_m": 4.5, "danger_score": 0.419, "nearest_stop": "Duplex Ave at Eglinton Ave West"}}, {"type": "Feature", "geometry": {"type": "LineString", "coordinates": [[-79.4002064, 43.7064817], [-79.400443, 43.7071257]]}, "properties": {"segment": 7, "length_m": 74.1, "danger_score": 0.419, "nearest_stop": "Duplex Ave at Eglinton Ave West"}}, {"type": "Feature", "geometry": {"type": "LineString", "coordinates": [[-79.400443, 43.7071257], [-79.40051, 43.7072986]]}, "properties": {"segment": 8, "length_m": 20.0, "danger_score": 0.419, "nearest_stop": "Duplex Ave at Eglinton Ave West"}}, {"type": "Feature", "geometry": {"type": "LineString", "coordinates": [[-79.40051, 43.7072986], [-79.4005761, 43.7074701]]}, "properties": {"segment": 9, "length_m": 25.0, "danger_score": 0.419, "nearest_stop": "Duplex Ave at Eglinton Ave West"}}, {"type": "Feature", "geometry": {"type": "LineString", "coordinates": [[-79.4005761, 43.7074701], [-79.4006632, 43.707706]]}, "properties": {"segment": 10, "length_m": 27.2, "danger_score": 0.419, "nearest_stop": "Duplex Ave at Eglinton Ave West"}}, {"type": "Feature", "geometry": {"type": "LineString", "coordinates": [[-79.4006632, 43.707706], [-79.4006566, 43.707724]]}, "properties": {"segment": 11, "length_m": 2.1, "danger_score": 0.495, "nearest_stop": "Yonge St at Orchard View Blvd"}}, {"type": "Feature", "geometry": {"type": "LineString", "coordinates": [[-79.4006566, 43.707724], [-79.4007165, 43.7078564]]}, "properties": {"segment": 12, "length_m": 15.5, "danger_score": 0.495, "nearest_stop": "Yonge St at Orchard View Blvd"}}, {"type": "Feature", "geometry": {"type": "LineString", "coordinates": [[-79.4007165, 43.7078564], [-79.4007447, 43.7078531]]}, "properties": {"segment": 13, "length_m": 2.3, "danger_score": 0.495, "nearest_stop": "Yonge St at Orchard View Blvd"}}, {"type": "Feature", "geometry": {"type": "LineString", "coordinates": [[-79.4007447, 43.7078531], [-79.4009299, 43.7085853]]}, "properties": {"segment": 14, "length_m": 83.8, "danger_score": 0.495, "nearest_stop": "Yonge St at Orchard View Blvd"}}, {"type": "Feature", "geometry": {"type": "LineString", "coordinates": [[-79.4009299, 43.7085853], [-79.4009081, 43.7086232]]}, "properties": {"segment": 15, "length_m": 4.6, "danger_score": 0.495, "nearest_stop": "Yonge St at Orchard View Blvd"}}, {"type": "Feature", "geometry": {"type": "LineString", "coordinates": [[-79.4009081, 43.7086232], [-79.400916, 43.7087468]]}, "properties": {"segment": 16, "length_m": 13.8, "danger_score": 0.495, "nearest_stop": "Yonge St at Orchard View Blvd"}}, {"type": "Feature", "geometry": {"type": "LineString", "coordinates": [[-79.400916, 43.7087468], [-79.4009323, 43.7091213]]}, "properties": {"segment": 17, "length_m": 42.4, "danger_score": 0.481, "nearest_stop": "Yonge St at Montgomery Ave"}}, {"type": "Feature", "geometry": {"type": "LineString", "coordinates": [[-79.4009323, 43.7091213], [-79.4009222, 43.709269]]}, "properties": {"segment": 18, "length_m": 16.4, "danger_score": 0.481, "nearest_stop": "Yonge St at Montgomery Ave"}}, {"type": "Feature", "geometry": {"type": "LineString", "coordinates": [[-79.4009222, 43.709269], [-79.4009915, 43.7104992]]}, "properties": {"segment": 19, "length_m": 138.3, "danger_score": 0.481, "nearest_stop": "Yonge St at Montgomery Ave"}}, {"type": "Feature", "geometry": {"type": "LineString", "coordinates": [[-79.4009915, 43.7104992], [-79.4009935, 43.710633]]}, "properties": {"segment": 20, "length_m": 14.9, "danger_score": 0.541, "nearest_stop": "Yonge St at Castlefield Ave South Side"}}, {"type": "Feature", "geometry": {"type": "LineString", "coordinates": [[-79.4009935, 43.710633], [-79.401127, 43.7114408]]}, "properties": {"segment": 21, "length_m": 91.3, "danger_score": 0.541, "nearest_stop": "Yonge St at Castlefield Ave South Side"}}, {"type": "Feature", "geometry": {"type": "LineString", "coordinates": [[-79.401127, 43.7114408], [-79.4011426, 43.7115762]]}, "properties": {"segment": 22, "length_m": 15.1, "danger_score": 0.541, "nearest_stop": "Yonge St at Castlefield Ave South Side"}}, {"type": "Feature", "geometry": {"type": "LineString", "coordinates": [[-79.4011426, 43.7115762], [-79.4013796, 43.7125725]]}, "properties": {"segment": 23, "length_m": 112.8, "danger_score": 0.541, "nearest_stop": "Yonge St at Castlefield Ave South Side"}}, {"type": "Feature", "geometry": {"type": "LineString", "coordinates": [[-79.4013796, 43.7125725], [-79.4013632, 43.7125994]]}, "properties": {"segment": 24, "length_m": 3.3, "danger_score": 0.501, "nearest_stop": "Yonge St at Sherwood Ave"}}, {"type": "Feature", "geometry": {"type": "LineString", "coordinates": [[-79.4013632, 43.7125994], [-79.4013901, 43.7127285]]}, "properties": {"segment": 25, "length_m": 14.5, "danger_score": 0.501, "nearest_stop": "Yonge St at Sherwood Ave"}}, {"type": "Feature", "geometry": {"type": "LineString", "coordinates": [[-79.4013901, 43.7127285], [-79.4001293, 43.7129773]]}, "properties": {"segment": 26, "length_m": 105.1, "danger_score": 0.501, "nearest_stop": "Yonge St at Sherwood Ave"}}, {"type": "Feature", "geometry": {"type": "LineString", "coordinates": [[-79.4001293, 43.7129773], [-79.4001233, 43.7129785]]}, "properties": {"segment": 27, "length_m": 0.5, "danger_score": 0.501, "nearest_stop": "Yonge St at Sherwood Ave"}}, {"type": "Feature", "geometry": {"type": "LineString", "coordinates": [[-79.4001233, 43.7129785], [-79.4000081, 43.7130749]]}, "properties": {"segment": 28, "length_m": 14.3, "danger_score": 0.501, "nearest_stop": "Yonge St at Sherwood Ave"}}, {"type": "Feature", "geometry": {"type": "LineString", "coordinates": [[-79.4000081, 43.7130749], [-79.4000264, 43.7131572]]}, "properties": {"segment": 29, "length_m": 9.3, "danger_score": 0.501, "nearest_stop": "Yonge St at Sherwood Ave"}}, {"type": "Feature", "geometry": {"type": "LineString", "coordinates": [[-79.4000264, 43.7131572], [-79.3998756, 43.7133175]]}, "properties": {"segment": 30, "length_m": 22.5, "danger_score": 0.501, "nearest_stop": "Yonge St at Sherwood Ave"}}, {"type": "Feature", "geometry": {"type": "LineString", "coordinates": [[-79.3998756, 43.7133175], [-79.3998988, 43.7134218]]}, "properties": {"segment": 31, "length_m": 11.7, "danger_score": 0.501, "nearest_stop": "Yonge St at Sherwood Ave"}}, {"type": "Feature", "geometry": {"type": "LineString", "coordinates": [[-79.3998988, 43.7134218], [-79.3999331, 43.7135744]]}, "properties": {"segment": 32, "length_m": 17.2, "danger_score": 0.501, "nearest_stop": "Yonge St at Sherwood Ave"}}, {"type": "Feature", "geometry": {"type": "LineString", "coordinates": [[-79.3999331, 43.7135744], [-79.3999671, 43.7137021]]}, "properties": {"segment": 33, "length_m": 14.5, "danger_score": 0.515, "nearest_stop": "Yonge St at Briar Hill Ave"}}, {"type": "Feature", "geometry": {"type": "LineString", "coordinates": [[-79.3999671, 43.7137021], [-79.40013, 43.714488]]}, "properties": {"segment": 34, "length_m": 88.4, "danger_score": 0.515, "nearest_stop": "Yonge St at Briar Hill Ave"}}, {"type": "Feature", "geometry": {"type": "LineString", "coordinates": [[-79.40013, 43.714488], [-79.4001527, 43.7146036]]}, "properties": {"segment": 35, "length_m": 13.0, "danger_score": 0.515, "nearest_stop": "Yonge St at Briar Hill Ave"}}, {"type": "Feature", "geometry": {"type": "LineString", "coordinates": [[-79.4001527, 43.7146036], [-79.4003262, 43.7154185]]}, "properties": {"segment": 36, "length_m": 91.7, "danger_score": 0.481, "nearest_stop": "Yonge St at Blythwood Rd"}}, {"type": "Feature", "geometry": {"type": "LineString", "coordinates": [[-79.4003262, 43.7154185], [-79.4003349, 43.7154644]]}, "properties": {"segment": 37, "length_m": 5.2, "danger_score": 0.481, "nearest_stop": "Yonge St at Blythwood Rd"}}, {"type": "Feature", "geometry": {"type": "LineString", "coordinates": [[-79.4003349, 43.7154644], [-79.4003541, 43.7155224]]}, "properties": {"segment": 38, "length_m": 6.6, "danger_score": 0.481, "nearest_stop": "Yonge St at Blythwood Rd"}}, {"type": "Feature", "geometry": {"type": "LineString", "coordinates": [[-79.4003541, 43.7155224], [-79.4005293, 43.7162978]]}, "properties": {"segment": 39, "length_m": 87.4, "danger_score": 0.481, "nearest_stop": "Yonge St at Blythwood Rd"}}, {"type": "Feature", "geometry": {"type": "LineString", "coordinates": [[-79.4005293, 43.7162978], [-79.4005551, 43.7164212]]}, "properties": {"segment": 40, "length_m": 13.9, "danger_score": 0.481, "nearest_stop": "Yonge St at Blythwood Rd"}}, {"type": "Feature", "geometry": {"type": "LineString", "coordinates": [[-79.4005551, 43.7164212], [-79.4005536, 43.7165084]]}, "properties": {"segment": 41, "length_m": 9.7, "danger_score": 0.449, "nearest_stop": "Yonge St at Lytton Blvd"}}, {"type": "Feature", "geometry": {"type": "LineString", "coordinates": [[-79.4005536, 43.7165084], [-79.4005953, 43.7166721]]}, "properties": {"segment": 42, "length_m": 18.5, "danger_score": 0.449, "nearest_stop": "Yonge St at Lytton Blvd"}}, {"type": "Feature", "geometry": {"type": "LineString", "coordinates": [[-79.4005953, 43.7166721], [-79.4007162, 43.7172085]]}, "properties": {"segment": 43, "length_m": 60.4, "danger_score": 0.449, "nearest_stop": "Yonge St at Lytton Blvd"}}, {"type": "Feature", "geometry": {"type": "LineString", "coordinates": [[-79.4007162, 43.7172085], [-79.4007516, 43.7173533]]}, "properties": {"segment": 44, "length_m": 16.4, "danger_score": 0.449, "nearest_stop": "Yonge St at Lytton Blvd"}}, {"type": "Feature", "geometry": {"type": "LineString", "coordinates": [[-79.4007516, 43.7173533], [-79.4009485, 43.7182657]]}, "properties": {"segment": 45, "length_m": 103.2, "danger_score": 0.449, "nearest_stop": "Yonge St at Lytton Blvd"}}, {"type": "Feature", "geometry": {"type": "LineString", "coordinates": [[-79.4009485, 43.7182657], [-79.4009763, 43.7183933]]}, "properties": {"segment": 46, "length_m": 14.4, "danger_score": 0.474, "nearest_stop": "Yonge St at Glengrove Ave East"}}, {"type": "Feature", "geometry": {"type": "LineString", "coordinates": [[-79.4009763, 43.7183933], [-79.4012014, 43.7194028]]}, "properties": {"segment": 47, "length_m": 114.0, "danger_score": 0.474, "nearest_stop": "Yonge St at Glengrove Ave East"}}, {"type": "Feature", "geometry": {"type": "LineString", "coordinates": [[-79.4012014, 43.7194028], [-79.4012216, 43.7195598]]}, "properties": {"segment": 48, "length_m": 17.8, "danger_score": 0.449, "nearest_stop": "Yonge St at Glengrove Ave West"}}, {"type": "Feature", "geometry": {"type": "LineString", "coordinates": [[-79.4012216, 43.7195598], [-79.4012194, 43.7196253]]}, "properties": {"segment": 49, "length_m": 7.3, "danger_score": 0.449, "nearest_stop": "Yonge St at Glengrove Ave West"}}, {"type": "Feature", "geometry": {"type": "LineString", "coordinates": [[-79.4012194, 43.7196253], [-79.4014, 43.7205137]]}, "properties": {"segment": 50, "length_m": 99.8, "danger_score": 0.449, "nearest_stop": "Yonge St at Glengrove Ave West"}}, {"type": "Feature", "geometry": {"type": "LineString", "coordinates": [[-79.4014, 43.7205137], [-79.4015833, 43.7214151]]}, "properties": {"segment": 51, "length_m": 101.3, "danger_score": 0.376, "nearest_stop": "Yonge St at St Edmund's Dr"}}, {"type": "Feature", "geometry": {"type": "LineString", "coordinates": [[-79.4015833, 43.7214151], [-79.4016153, 43.7215626]]}, "properties": {"segment": 52, "length_m": 16.6, "danger_score": 0.376, "nearest_stop": "Yonge St at St Edmund's Dr"}}, {"type": "Feature", "geometry": {"type": "LineString", "coordinates": [[-79.4016153, 43.7215626], [-79.4016925, 43.7219009]]}, "properties": {"segment": 53, "length_m": 38.1, "danger_score": 0.376, "nearest_stop": "Yonge St at St Edmund's Dr"}}, {"type": "Feature", "geometry": {"type": "LineString", "coordinates": [[-79.4016925, 43.7219009], [-79.4017217, 43.7220377]]}, "properties": {"segment": 54, "length_m": 15.4, "danger_score": 0.412, "nearest_stop": "Yonge St at Chatsworth Dr"}}, {"type": "Feature", "geometry": {"type": "LineString", "coordinates": [[-79.4017217, 43.7220377], [-79.4017304, 43.7220748]]}, "properties": {"segment": 55, "length_m": 4.2, "danger_score": 0.412, "nearest_stop": "Yonge St at Chatsworth Dr"}}, {"type": "Feature", "geometry": {"type": "LineString", "coordinates": [[-79.4017304, 43.7220748], [-79.4019099, 43.7230414]]}, "properties": {"segment": 56, "length_m": 108.4, "danger_score": 0.412, "nearest_stop": "Yonge St at Chatsworth Dr"}}, {"type": "Feature", "geometry": {"type": "LineString", "coordinates": [[-79.4019099, 43.7230414], [-79.4019296, 43.7231404]]}, "properties": {"segment": 57, "length_m": 11.1, "danger_score": 0.412, "nearest_stop": "Yonge St at Chatsworth Dr"}}, {"type": "Feature", "geometry": {"type": "LineString", "coordinates": [[-79.4019296, 43.7231404], [-79.4023227, 43.7249724]]}, "properties": {"segment": 58, "length_m": 206.1, "danger_score": 0.414, "nearest_stop": "Lawrence Ave East at Yonge St East Side"}}, {"type": "Feature", "geometry": {"type": "LineString", "coordinates": [[-79.4023227, 43.7249724], [-79.4023892, 43.7251776]]}, "properties": {"segment": 59, "length_m": 25.2, "danger_score": 0.397, "nearest_stop": "Lawrence Station"}}, {"type": "Feature", "geometry": {"type": "LineString", "coordinates": [[-79.4023892, 43.7251776], [-79.4025993, 43.7260908]]}, "properties": {"segment": 60, "length_m": 103.1, "danger_score": 0.364, "nearest_stop": "Lawrence Station"}}, {"type": "Feature", "geometry": {"type": "LineString", "coordinates": [[-79.4025993, 43.7260908], [-79.4026673, 43.7263555]]}, "properties": {"segment": 61, "length_m": 29.9, "danger_score": 0.446, "nearest_stop": "Lawrence Station - Northbound Platform"}}, {"type": "Feature", "geometry": {"type": "LineString", "coordinates": [[-79.4026673, 43.7263555], [-79.4028349, 43.7270084]]}, "properties": {"segment": 62, "length_m": 73.8, "danger_score": 0.446, "nearest_stop": "Lawrence Station - Northbound Platform"}}, {"type": "Feature", "geometry": {"type": "LineString", "coordinates": [[-79.4028349, 43.7270084], [-79.4029572, 43.727417]]}, "properties": {"segment": 63, "length_m": 46.5, "danger_score": 0.473, "nearest_stop": "Yonge St at Ranleigh Ave"}}, {"type": "Feature", "geometry": {"type": "LineString", "coordinates": [[-79.4029572, 43.727417], [-79.4030245, 43.7277505]]}, "properties": {"segment": 64, "length_m": 37.5, "danger_score": 0.473, "nearest_stop": "Yonge St at Ranleigh Ave"}}, {"type": "Feature", "geometry": {"type": "LineString", "coordinates": [[-79.4030245, 43.7277505], [-79.4030718, 43.7279366]]}, "properties": {"segment": 65, "length_m": 21.0, "danger_score": 0.461, "nearest_stop": "Yonge St at Ranleigh Ave"}}, {"type": "Feature", "geometry": {"type": "LineString", "coordinates": [[-79.4030718, 43.7279366], [-79.4031797, 43.7283306]]}, "properties": {"segment": 66, "length_m": 44.7, "danger_score": 0.461, "nearest_stop": "Yonge St at Ranleigh Ave"}}, {"type": "Feature", "geometry": {"type": "LineString", "coordinates": [[-79.4031797, 43.7283306], [-79.4033692, 43.729093]]}, "properties": {"segment": 67, "length_m": 86.1, "danger_score": 0.461, "nearest_stop": "Yonge St at Ranleigh Ave"}}, {"type": "Feature", "geometry": {"type": "LineString", "coordinates": [[-79.4033692, 43.729093], [-79.4034048, 43.7292316]]}, "properties": {"segment": 68, "length_m": 15.7, "danger_score": 0.461, "nearest_stop": "Yonge St at Ranleigh Ave"}}, {"type": "Feature", "geometry": {"type": "LineString", "coordinates": [[-79.4034048, 43.7292316], [-79.4035994, 43.7299323]]}, "properties": {"segment": 69, "length_m": 79.5, "danger_score": 0.483, "nearest_stop": "Yonge St at Glenforest Rd North Side"}}, {"type": "Feature", "geometry": {"type": "LineString", "coordinates": [[-79.4035994, 43.7299323], [-79.4038352, 43.7308049]]}, "properties": {"segment": 70, "length_m": 99.1, "danger_score": 0.483, "nearest_stop": "Yonge St at Glenforest Rd North Side"}}, {"type": "Feature", "geometry": {"type": "LineString", "coordinates": [[-79.4038352, 43.7308049], [-79.4038814, 43.7309326]]}, "properties": {"segment": 71, "length_m": 14.7, "danger_score": 0.473, "nearest_stop": "Yonge St at Fairlawn Ave"}}, {"type": "Feature", "geometry": {"type": "LineString", "coordinates": [[-79.4038814, 43.7309326], [-79.403872, 43.7309567]]}, "properties": {"segment": 72, "length_m": 2.8, "danger_score": 0.473, "nearest_stop": "Yonge St at Fairlawn Ave"}}, {"type": "Feature", "geometry": {"type": "LineString", "coordinates": [[-79.403872, 43.7309567], [-79.4041105, 43.7318697]]}, "properties": {"segment": 73, "length_m": 103.3, "danger_score": 0.473, "nearest_stop": "Yonge St at Fairlawn Ave"}}, {"type": "Feature", "geometry": {"type": "LineString", "coordinates": [[-79.4041105, 43.7318697], [-79.4043702, 43.7328919]]}, "properties": {"segment": 74, "length_m": 115.6, "danger_score": 0.473, "nearest_stop": "Yonge St at Fairlawn Ave"}}, {"type": "Feature", "geometry": {"type": "LineString", "coordinates": [[-79.4043702, 43.7328919], [-79.4046275, 43.7339185]]}, "properties": {"segment": 75, "length_m": 116.0, "danger_score": 0.485, "nearest_stop": "Yonge St at Yonge Blvd South Side"}}, {"type": "Feature", "geometry": {"type": "LineString", "coordinates": [[-79.4046275, 43.7339185], [-79.4046409, 43.7339719]]}, "properties": {"segment": 76, "length_m": 6.0, "danger_score": 0.485, "nearest_stop": "Yonge St at Yonge Blvd South Side"}}, {"type": "Feature", "geometry": {"type": "LineString", "coordinates": [[-79.4046409, 43.7339719], [-79.4047205, 43.7342414]]}, "properties": {"segment": 77, "length_m": 31.5, "danger_score": 0.485, "nearest_stop": "Yonge St at Yonge Blvd South Side"}}, {"type": "Feature", "geometry": {"type": "LineString", "coordinates": [[-79.4047205, 43.7342414], [-79.4047354, 43.7343601]]}, "properties": {"segment": 78, "length_m": 13.3, "danger_score": 0.478, "nearest_stop": "Yonge Blvd at Yonge St West Side"}}, {"type": "Feature", "geometry": {"type": "LineString", "coordinates": [[-79.4047354, 43.7343601], [-79.4047422, 43.7344611]]}, "properties": {"segment": 79, "length_m": 11.2, "danger_score": 0.478, "nearest_stop": "Yonge Blvd at Yonge St West Side"}}, {"type": "Feature", "geometry": {"type": "LineString", "coordinates": [[-79.4047422, 43.7344611], [-79.4047472, 43.7344915]]}, "properties": {"segment": 80, "length_m": 3.4, "danger_score": 0.478, "nearest_stop": "Yonge Blvd at Yonge St West Side"}}, {"type": "Feature", "geometry": {"type": "LineString", "coordinates": [[-79.4047472, 43.7344915], [-79.4049216, 43.7354738]]}, "properties": {"segment": 81, "length_m": 110.1, "danger_score": 0.478, "nearest_stop": "Yonge Blvd at Yonge St West Side"}}, {"type": "Feature", "geometry": {"type": "LineString", "coordinates": [[-79.4049216, 43.7354738], [-79.4049436, 43.7355585]]}, "properties": {"segment": 82, "length_m": 9.6, "danger_score": 0.478, "nearest_stop": "Yonge Blvd at Yonge St West Side"}}, {"type": "Feature", "geometry": {"type": "LineString", "coordinates": [[-79.4049436, 43.7355585], [-79.4049661, 43.7356263]]}, "properties": {"segment": 83, "length_m": 7.8, "danger_score": 0.478, "nearest_stop": "Yonge Blvd at Yonge St West Side"}}, {"type": "Feature", "geometry": {"type": "LineString", "coordinates": [[-79.4049661, 43.7356263], [-79.405046, 43.7360112]]}, "properties": {"segment": 84, "length_m": 43.5, "danger_score": 0.478, "nearest_stop": "Yonge Blvd at Yonge St West Side"}}, {"type": "Feature", "geometry": {"type": "LineString", "coordinates": [[-79.405046, 43.7360112], [-79.4060674, 43.7402887]]}, "properties": {"segment": 85, "length_m": 483.1, "danger_score": 0.421, "nearest_stop": "3800 Yonge St"}}, {"type": "Feature", "geometry": {"type": "LineString", "coordinates": [[-79.4060674, 43.7402887], [-79.4057836, 43.7403184]]}, "properties": {"segment": 86, "length_m": 23.0, "danger_score": 0.339, "nearest_stop": "Yonge St at Mill St"}}, {"type": "Feature", "geometry": {"type": "LineString", "coordinates": [[-79.4057836, 43.7403184], [-79.4057937, 43.7403899]]}, "properties": {"segment": 87, "length_m": 8.0, "danger_score": 0.339, "nearest_stop": "Yonge St at Mill St"}}, {"type": "Feature", "geometry": {"type": "LineString", "coordinates": [[-79.4057937, 43.7403899], [-79.405808, 43.7404799]]}, "properties": {"segment": 88, "length_m": 10.1, "danger_score": 0.339, "nearest_stop": "Yonge St at Mill St"}}, {"type": "Feature", "geometry": {"type": "LineString", "coordinates": [[-79.405808, 43.7404799], [-79.4060672, 43.7417971]]}, "properties": {"segment": 89, "length_m": 148.7, "danger_score": 0.345, "nearest_stop": "Yonge St at Mcglashan Rd South Side"}}, {"type": "Feature", "geometry": {"type": "LineString", "coordinates": [[-79.4060672, 43.7417971], [-79.4060804, 43.7418738]]}, "properties": {"segment": 90, "length_m": 8.6, "danger_score": 0.333, "nearest_stop": "Yonge St at Mcglashan Rd"}}, {"type": "Feature", "geometry": {"type": "LineString", "coordinates": [[-79.4060804, 43.7418738], [-79.406089, 43.7419378]]}, "properties": {"segment": 91, "length_m": 7.1, "danger_score": 0.333, "nearest_stop": "Yonge St at Mcglashan Rd"}}, {"type": "Feature", "geometry": {"type": "LineString", "coordinates": [[-79.406089, 43.7419378], [-79.4061004, 43.7419964]]}, "properties": {"segment": 92, "length_m": 6.6, "danger_score": 0.333, "nearest_stop": "Yonge St at Mcglashan Rd"}}, {"type": "Feature", "geometry": {"type": "LineString", "coordinates": [[-79.4061004, 43.7419964], [-79.4063378, 43.7432023]]}, "properties": {"segment": 93, "length_m": 135.7, "danger_score": 0.345, "nearest_stop": "York Mills Station - Southbound Platform"}}, {"type": "Feature", "geometry": {"type": "LineString", "coordinates": [[-79.4063378, 43.7432023], [-79.4063646, 43.7433684]]}, "properties": {"segment": 94, "length_m": 18.6, "danger_score": 0.345, "nearest_stop": "York Mills Station - Southbound Platform"}}, {"type": "Feature", "geometry": {"type": "LineString", "coordinates": [[-79.4063646, 43.7433684], [-79.4064117, 43.7436488]]}, "properties": {"segment": 95, "length_m": 31.4, "danger_score": 0.359, "nearest_stop": "Yonge St at Wilson Ave South Side"}}, {"type": "Feature", "geometry": {"type": "LineString", "coordinates": [[-79.4064117, 43.7436488], [-79.4064734, 43.7438957]]}, "properties": {"segment": 96, "length_m": 27.9, "danger_score": 0.324, "nearest_stop": "Yonge St at York Mills Rd"}}, {"type": "Feature", "geometry": {"type": "LineString", "coordinates": [[-79.4064734, 43.7438957], [-79.4064771, 43.7440248]]}, "properties": {"segment": 97, "length_m": 14.4, "danger_score": 0.324, "nearest_stop": "Yonge St at York Mills Rd"}}, {"type": "Feature", "geometry": {"type": "LineString", "coordinates": [[-79.4064771, 43.7440248], [-79.4065356, 43.744331]]}, "properties": {"segment": 98, "length_m": 34.4, "danger_score": 0.323, "nearest_stop": "Yonge St at Wilson Ave - York Mills Station"}}, {"type": "Feature", "geometry": {"type": "LineString", "coordinates": [[-79.4065356, 43.744331], [-79.4068747, 43.7456482]]}, "properties": {"segment": 99, "length_m": 149.3, "danger_score": 0.335, "nearest_stop": "Yonge St at York Mills Rd North Side - York Mills Station"}}, {"type": "Feature", "geometry": {"type": "LineString", "coordinates": [[-79.4068747, 43.7456482], [-79.4069085, 43.7458121]]}, "properties": {"segment": 100, "length_m": 18.4, "danger_score": 0.412, "nearest_stop": "York Mills Station"}}, {"type": "Feature", "geometry": {"type": "LineString", "coordinates": [[-79.4069085, 43.7458121], [-79.4071121, 43.7467117]]}, "properties": {"segment": 101, "length_m": 101.4, "danger_score": 0.415, "nearest_stop": "Yonge St at William Carson Cres"}}, {"type": "Feature", "geometry": {"type": "LineString", "coordinates": [[-79.4071121, 43.7467117], [-79.4072435, 43.7472515]]}, "properties": {"segment": 102, "length_m": 60.9, "danger_score": 0.415, "nearest_stop": "Yonge St at William Carson Cres"}}, {"type": "Feature", "geometry": {"type": "LineString", "coordinates": [[-79.4072435, 43.7472515], [-79.4072582, 43.7473569]]}, "properties": {"segment": 103, "length_m": 12.1, "danger_score": 0.415, "nearest_stop": "Yonge St at William Carson Cres"}}, {"type": "Feature", "geometry": {"type": "LineString", "coordinates": [[-79.4072582, 43.7473569], [-79.4072729, 43.747441]]}, "properties": {"segment": 104, "length_m": 9.4, "danger_score": 0.415, "nearest_stop": "Yonge St at William Carson Cres"}}, {"type": "Feature", "geometry": {"type": "LineString", "coordinates": [[-79.4072729, 43.747441], [-79.4072871, 43.7474448]]}, "properties": {"segment": 105, "length_m": 1.2, "danger_score": 0.415, "nearest_stop": "Yonge St at William Carson Cres"}}, {"type": "Feature", "geometry": {"type": "LineString", "coordinates": [[-79.4072871, 43.7474448], [-79.4073198, 43.7475622]]}, "properties": {"segment": 106, "length_m": 13.3, "danger_score": 0.379, "nearest_stop": "Yonge St at William Carson Cres"}}, {"type": "Feature", "geometry": {"type": "LineString", "coordinates": [[-79.4073198, 43.7475622], [-79.4078753, 43.7524563]]}, "properties": {"segment": 107, "length_m": 549.5, "danger_score": 0.328, "nearest_stop": "Yonge St at Lord Seaton Rd South Side"}}, {"type": "Feature", "geometry": {"type": "LineString", "coordinates": [[-79.4078753, 43.7524563], [-79.4082884, 43.7524421]]}, "properties": {"segment": 108, "length_m": 33.2, "danger_score": 0.333, "nearest_stop": "Yonge St at Lord Seaton Rd"}}, {"type": "Feature", "geometry": {"type": "LineString", "coordinates": [[-79.4082884, 43.7524421], [-79.4098325, 43.7563607]]}, "properties": {"segment": 109, "length_m": 465.7, "danger_score": 0.333, "nearest_stop": "Yonge St at Lord Seaton Rd"}}, {"type": "Feature", "geometry": {"type": "LineString", "coordinates": [[-79.4098325, 43.7563607], [-79.4099153, 43.7566223]]}, "properties": {"segment": 110, "length_m": 29.9, "danger_score": 0.44, "nearest_stop": "Yonge St at Florence Ave"}}, {"type": "Feature", "geometry": {"type": "LineString", "coordinates": [[-79.4099153, 43.7566223], [-79.4099686, 43.7568434]]}, "properties": {"segment": 111, "length_m": 25.0, "danger_score": 0.44, "nearest_stop": "Yonge St at Florence Ave"}}, {"type": "Feature", "geometry": {"type": "LineString", "coordinates": [[-79.4099686, 43.7568434], [-79.4100216, 43.7570596]]}, "properties": {"segment": 112, "length_m": 24.4, "danger_score": 0.44, "nearest_stop": "Yonge St at Florence Ave"}}, {"type": "Feature", "geometry": {"type": "LineString", "coordinates": [[-79.4100216, 43.7570596], [-79.4100752, 43.7572287]]}, "properties": {"segment": 113, "length_m": 19.3, "danger_score": 0.44, "nearest_stop": "Yonge St at Florence Ave"}}, {"type": "Feature", "geometry": {"type": "LineString", "coordinates": [[-79.4100752, 43.7572287], [-79.4101598, 43.7576426]]}, "properties": {"segment": 114, "length_m": 46.5, "danger_score": 0.44, "nearest_stop": "Yonge St at Florence Ave"}}, {"type": "Feature", "geometry": {"type": "LineString", "coordinates": [[-79.4101598, 43.7576426], [-79.4102911, 43.7581221]]}, "properties": {"segment": 115, "length_m": 55.1, "danger_score": 0.44, "nearest_stop": "Yonge St at Florence Ave"}}, {"type": "Feature", "geometry": {"type": "LineString", "coordinates": [[-79.4102911, 43.7581221], [-79.4103433, 43.758307]]}, "properties": {"segment": 116, "length_m": 21.0, "danger_score": 0.44, "nearest_stop": "Yonge St at Florence Ave"}}, {"type": "Feature", "geometry": {"type": "LineString", "coordinates": [[-79.4103433, 43.758307], [-79.4099525, 43.758334]]}, "properties": {"segment": 117, "length_m": 31.6, "danger_score": 0.44, "nearest_stop": "Yonge St at Florence Ave"}}, {"type": "Feature", "geometry": {"type": "LineString", "coordinates": [[-79.4099525, 43.758334], [-79.4101203, 43.7589864]]}, "properties": {"segment": 118, "length_m": 73.9, "danger_score": 0.468, "nearest_stop": "Yonge St at Avondale Ave North Side"}}, {"type": "Feature", "geometry": {"type": "LineString", "coordinates": [[-79.4101203, 43.7589864], [-79.4101213, 43.7590639]]}, "properties": {"segment": 119, "length_m": 8.6, "danger_score": 0.468, "nearest_stop": "Yonge St at Avondale Ave North Side"}}, {"type": "Feature", "geometry": {"type": "LineString", "coordinates": [[-79.4101213, 43.7590639], [-79.4101259, 43.7591362]]}, "properties": {"segment": 120, "length_m": 8.0, "danger_score": 0.468, "nearest_stop": "Yonge St at Avondale Ave North Side"}}, {"type": "Feature", "geometry": {"type": "LineString", "coordinates": [[-79.4101259, 43.7591362], [-79.4103656, 43.7600211]]}, "properties": {"segment": 121, "length_m": 100.8, "danger_score": 0.472, "nearest_stop": "Sheppard-Yonge Station - Southbound Platform"}}, {"type": "Feature", "geometry": {"type": "LineString", "coordinates": [[-79.4103656, 43.7600211], [-79.4103829, 43.7600878]]}, "properties": {"segment": 122, "length_m": 7.5, "danger_score": 0.472, "nearest_stop": "Sheppard-Yonge Station - Southbound Platform"}}, {"type": "Feature", "geometry": {"type": "LineString", "coordinates": [[-79.4103829, 43.7600878], [-79.4104145, 43.7602097]]}, "properties": {"segment": 123, "length_m": 13.8, "danger_score": 0.472, "nearest_stop": "Sheppard-Yonge Station - Southbound Platform"}}, {"type": "Feature", "geometry": {"type": "LineString", "coordinates": [[-79.4104145, 43.7602097], [-79.4104106, 43.7602971]]}, "properties": {"segment": 124, "length_m": 9.8, "danger_score": 0.472, "nearest_stop": "Sheppard-Yonge Station - Southbound Platform"}}, {"type": "Feature", "geometry": {"type": "LineString", "coordinates": [[-79.4104106, 43.7602971], [-79.4106687, 43.7613987]]}, "properties": {"segment": 125, "length_m": 124.7, "danger_score": 0.472, "nearest_stop": "Sheppard-Yonge Station - Southbound Platform"}}, {"type": "Feature", "geometry": {"type": "LineString", "coordinates": [[-79.4106687, 43.7613987], [-79.4106503, 43.7614115]]}, "properties": {"segment": 126, "length_m": 2.1, "danger_score": 0.42, "nearest_stop": "Sheppard-Yonge Station - Eastbound Platform"}}, {"type": "Feature", "geometry": {"type": "LineString", "coordinates": [[-79.4106503, 43.7614115], [-79.410728, 43.761728]]}, "properties": {"segment": 127, "length_m": 35.7, "danger_score": 0.415, "nearest_stop": "Sheppard Ave East at Yonge St"}}, {"type": "Feature", "geometry": {"type": "LineString", "coordinates": [[-79.410728, 43.761728], [-79.410901, 43.7622641]]}, "properties": {"segment": 128, "length_m": 61.8, "danger_score": 0.43, "nearest_stop": "Yonge St at Sheppard Ave East North Side - Sheppard Station"}}, {"type": "Feature", "geometry": {"type": "LineString", "coordinates": [[-79.410901, 43.7622641], [-79.4110382, 43.7627403]]}, "properties": {"segment": 129, "length_m": 54.1, "danger_score": 0.43, "nearest_stop": "Yonge St at Sheppard Ave East North Side - Sheppard Station"}}, {"type": "Feature", "geometry": {"type": "LineString", "coordinates": [[-79.4110382, 43.7627403], [-79.4110863, 43.7629027]]}, "properties": {"segment": 130, "length_m": 18.5, "danger_score": 0.505, "nearest_stop": "Yonge St at Elmhurst Ave"}}, {"type": "Feature", "geometry": {"type": "LineString", "coordinates": [[-79.4110863, 43.7629027], [-79.411191, 43.763256]]}, "properties": {"segment": 131, "length_m": 40.2, "danger_score": 0.505, "nearest_stop": "Yonge St at Elmhurst Ave"}}, {"type": "Feature", "geometry": {"type": "LineString", "coordinates": [[-79.411191, 43.763256], [-79.4112125, 43.7633486]]}, "properties": {"segment": 132, "length_m": 10.4, "danger_score": 0.505, "nearest_stop": "Yonge St at Elmhurst Ave"}}, {"type": "Feature", "geometry": {"type": "LineString", "coordinates": [[-79.4112125, 43.7633486], [-79.4112327, 43.7634358]]}, "properties": {"segment": 133, "length_m": 9.8, "danger_score": 0.505, "nearest_stop": "Yonge St at Elmhurst Ave"}}, {"type": "Feature", "geometry": {"type": "LineString", "coordinates": [[-79.4112327, 43.7634358], [-79.4114425, 43.7642704]]}, "properties": {"segment": 134, "length_m": 94.5, "danger_score": 0.505, "nearest_stop": "Yonge St at Elmhurst Ave"}}, {"type": "Feature", "geometry": {"type": "LineString", "coordinates": [[-79.4114425, 43.7642704], [-79.411472, 43.7643445]]}, "properties": {"segment": 135, "length_m": 8.6, "danger_score": 0.505, "nearest_stop": "Yonge St at Elmhurst Ave"}}, {"type": "Feature", "geometry": {"type": "LineString", "coordinates": [[-79.411472, 43.7643445], [-79.4114847, 43.7644274]]}, "properties": {"segment": 136, "length_m": 9.3, "danger_score": 0.505, "nearest_stop": "Yonge St at Elmhurst Ave"}}, {"type": "Feature", "geometry": {"type": "LineString", "coordinates": [[-79.4114847, 43.7644274], [-79.4117853, 43.7656247]]}, "properties": {"segment": 137, "length_m": 135.3, "danger_score": 0.582, "nearest_stop": "Yonge St at Elmwood Ave"}}, {"type": "Feature", "geometry": {"type": "LineString", "coordinates": [[-79.4117853, 43.7656247], [-79.411794, 43.7657131]]}, "properties": {"segment": 138, "length_m": 9.9, "danger_score": 0.582, "nearest_stop": "Yonge St at Elmwood Ave"}}, {"type": "Feature", "geometry": {"type": "LineString", "coordinates": [[-79.411794, 43.7657131], [-79.4117787, 43.7658293]]}, "properties": {"segment": 139, "length_m": 13.2, "danger_score": 0.582, "nearest_stop": "Yonge St at Elmwood Ave"}}, {"type": "Feature", "geometry": {"type": "LineString", "coordinates": [[-79.4117787, 43.7658293], [-79.4119992, 43.766463]]}, "properties": {"segment": 140, "length_m": 73.3, "danger_score": 0.582, "nearest_stop": "Yonge St at Elmwood Ave"}}, {"type": "Feature", "geometry": {"type": "LineString", "coordinates": [[-79.4119992, 43.766463], [-79.4120173, 43.7665235]]}, "properties": {"segment": 141, "length_m": 6.9, "danger_score": 0.582, "nearest_stop": "Yonge St at Elmwood Ave"}}, {"type": "Feature", "geometry": {"type": "LineString", "coordinates": [[-79.4120173, 43.7665235], [-79.4120348, 43.7667044]]}, "properties": {"segment": 142, "length_m": 20.2, "danger_score": 0.582, "nearest_stop": "Yonge St at Elmwood Ave"}}, {"type": "Feature", "geometry": {"type": "LineString", "coordinates": [[-79.4120348, 43.7667044], [-79.4120402, 43.7667167]]}, "properties": {"segment": 143, "length_m": 1.4, "danger_score": 0.582, "nearest_stop": "Yonge St at Elmwood Ave"}}, {"type": "Feature", "geometry": {"type": "LineString", "coordinates": [[-79.4120402, 43.7667167], [-79.4122423, 43.7674313]]}, "properties": {"segment": 144, "length_m": 81.2, "danger_score": 0.596, "nearest_stop": "Yonge St at North York Blvd"}}, {"type": "Feature", "geometry": {"type": "LineString", "coordinates": [[-79.4122423, 43.7674313], [-79.4122642, 43.7675138]]}, "properties": {"segment": 145, "length_m": 9.3, "danger_score": 0.57, "nearest_stop": "North York Centre Station - Southbound Platform"}}, {"type": "Feature", "geometry": {"type": "LineString", "coordinates": [[-79.4122642, 43.7675138], [-79.4122824, 43.7676044]]}, "properties": {"segment": 146, "length_m": 10.2, "danger_score": 0.57, "nearest_stop": "North York Centre Station - Southbound Platform"}}, {"type": "Feature", "geometry": {"type": "LineString", "coordinates": [[-79.4122824, 43.7676044], [-79.4123537, 43.7679008]]}, "properties": {"segment": 147, "length_m": 33.5, "danger_score": 0.57, "nearest_stop": "North York Centre Station - Southbound Platform"}}, {"type": "Feature", "geometry": {"type": "LineString", "coordinates": [[-79.4123537, 43.7679008], [-79.4124536, 43.7683155]]}, "properties": {"segment": 148, "length_m": 46.8, "danger_score": 0.622, "nearest_stop": "North York Centre Station - Northbound Platform"}}, {"type": "Feature", "geometry": {"type": "LineString", "coordinates": [[-79.4124536, 43.7683155], [-79.4125248, 43.7686115]]}, "properties": {"segment": 149, "length_m": 33.4, "danger_score": 0.622, "nearest_stop": "North York Centre Station - Northbound Platform"}}, {"type": "Feature", "geometry": {"type": "LineString", "coordinates": [[-79.4125248, 43.7686115], [-79.4126831, 43.7692102]]}, "properties": {"segment": 150, "length_m": 67.8, "danger_score": 0.453, "nearest_stop": "Yonge St at Empress Ave - North York Centre Station"}}, {"type": "Feature", "geometry": {"type": "LineString", "coordinates": [[-79.4126831, 43.7692102], [-79.4127328, 43.7694069]]}, "properties": {"segment": 151, "length_m": 22.2, "danger_score": 0.453, "nearest_stop": "Yonge St at Empress Ave - North York Centre Station"}}, {"type": "Feature", "geometry": {"type": "LineString", "coordinates": [[-79.4127328, 43.7694069], [-79.4129216, 43.7701091]]}, "properties": {"segment": 152, "length_m": 79.8, "danger_score": 0.506, "nearest_stop": "Yonge St at Park Home Ave"}}, {"type": "Feature", "geometry": {"type": "LineString", "coordinates": [[-79.4129216, 43.7701091], [-79.4129425, 43.7701834]]}, "properties": {"segment": 153, "length_m": 8.4, "danger_score": 0.506, "nearest_stop": "Yonge St at Park Home Ave"}}, {"type": "Feature", "geometry": {"type": "LineString", "coordinates": [[-79.4129425, 43.7701834], [-79.4129667, 43.7702677]]}, "properties": {"segment": 154, "length_m": 9.6, "danger_score": 0.506, "nearest_stop": "Yonge St at Park Home Ave"}}, {"type": "Feature", "geometry": {"type": "LineString", "coordinates": [[-79.4129667, 43.7702677], [-79.4131081, 43.7709761]]}, "properties": {"segment": 155, "length_m": 80.5, "danger_score": 0.506, "nearest_stop": "Yonge St at Park Home Ave"}}, {"type": "Feature", "geometry": {"type": "LineString", "coordinates": [[-79.4131081, 43.7709761], [-79.413129, 43.7710374]]}, "properties": {"segment": 156, "length_m": 7.0, "danger_score": 0.422, "nearest_stop": "Yonge St at Norton Ave"}}, {"type": "Feature", "geometry": {"type": "LineString", "coordinates": [[-79.413129, 43.7710374], [-79.4131575, 43.771122]]}, "properties": {"segment": 157, "length_m": 9.7, "danger_score": 0.422, "nearest_stop": "Yonge St at Norton Ave"}}, {"type": "Feature", "geometry": {"type": "LineString", "coordinates": [[-79.4131575, 43.771122], [-79.4134378, 43.772223]]}, "properties": {"segment": 158, "length_m": 124.5, "danger_score": 0.422, "nearest_stop": "Yonge St at Norton Ave"}}, {"type": "Feature", "geometry": {"type": "LineString", "coordinates": [[-79.4134378, 43.772223], [-79.4134769, 43.7722947]]}, "properties": {"segment": 159, "length_m": 9.0, "danger_score": 0.422, "nearest_stop": "Yonge St at Norton Ave"}}, {"type": "Feature", "geometry": {"type": "LineString", "coordinates": [[-79.4134769, 43.7722947], [-79.4135012, 43.7723877]]}, "properties": {"segment": 160, "length_m": 10.5, "danger_score": 0.422, "nearest_stop": "Yonge St at Norton Ave"}}, {"type": "Feature", "geometry": {"type": "LineString", "coordinates": [[-79.4135012, 43.7723877], [-79.4136214, 43.7729239]]}, "properties": {"segment": 161, "length_m": 60.4, "danger_score": 0.505, "nearest_stop": "Yonge St at Ellerslie Ave"}}, {"type": "Feature", "geometry": {"type": "LineString", "coordinates": [[-79.4136214, 43.7729239], [-79.4136744, 43.7730885]]}, "properties": {"segment": 162, "length_m": 18.8, "danger_score": 0.509, "nearest_stop": "Yonge St at Church Ave"}}, {"type": "Feature", "geometry": {"type": "LineString", "coordinates": [[-79.4136744, 43.7730885], [-79.4138472, 43.7737382]]}, "properties": {"segment": 163, "length_m": 73.8, "danger_score": 0.509, "nearest_stop": "Yonge St at Church Ave"}}, {"type": "Feature", "geometry": {"type": "LineString", "coordinates": [[-79.4138472, 43.7737382], [-79.4138882, 43.7739057]]}, "properties": {"segment": 164, "length_m": 18.9, "danger_score": 0.509, "nearest_stop": "Yonge St at Church Ave"}}, {"type": "Feature", "geometry": {"type": "LineString", "coordinates": [[-79.4138882, 43.7739057], [-79.4139582, 43.7742079]]}, "properties": {"segment": 165, "length_m": 34.1, "danger_score": 0.501, "nearest_stop": "Yonge St at Churchill Ave"}}, {"type": "Feature", "geometry": {"type": "LineString", "coordinates": [[-79.4139582, 43.7742079], [-79.4140612, 43.7747216]]}, "properties": {"segment": 166, "length_m": 58.1, "danger_score": 0.501, "nearest_stop": "Yonge St at Churchill Ave"}}, {"type": "Feature", "geometry": {"type": "LineString", "coordinates": [[-79.4140612, 43.7747216], [-79.4141659, 43.7751476]]}, "properties": {"segment": 167, "length_m": 48.1, "danger_score": 0.501, "nearest_stop": "Yonge St at Churchill Ave"}}, {"type": "Feature", "geometry": {"type": "LineString", "coordinates": [[-79.4141659, 43.7751476], [-79.4142029, 43.7752962]]}, "properties": {"segment": 168, "length_m": 16.8, "danger_score": 0.484, "nearest_stop": "Yonge St at Byng Ave"}}, {"type": "Feature", "geometry": {"type": "LineString", "coordinates": [[-79.4142029, 43.7752962], [-79.4143979, 43.7760643]]}, "properties": {"segment": 169, "length_m": 86.8, "danger_score": 0.484, "nearest_stop": "Yonge St at Byng Ave"}}, {"type": "Feature", "geometry": {"type": "LineString", "coordinates": [[-79.4143979, 43.7760643], [-79.4145296, 43.7765629]]}, "properties": {"segment": 170, "length_m": 56.4, "danger_score": 0.484, "nearest_stop": "Yonge St at Byng Ave"}}, {"type": "Feature", "geometry": {"type": "LineString", "coordinates": [[-79.4145296, 43.7765629], [-79.4145794, 43.7767093]]}, "properties": {"segment": 171, "length_m": 16.8, "danger_score": 0.484, "nearest_stop": "Yonge St at Byng Ave"}}, {"type": "Feature", "geometry": {"type": "LineString", "coordinates": [[-79.4145794, 43.7767093], [-79.4146364, 43.7769245]]}, "properties": {"segment": 172, "length_m": 24.4, "danger_score": 0.484, "nearest_stop": "Yonge St at Byng Ave"}}, {"type": "Feature", "geometry": {"type": "LineString", "coordinates": [[-79.4146364, 43.7769245], [-79.4146782, 43.7770721]]}, "properties": {"segment": 173, "length_m": 16.8, "danger_score": 0.436, "nearest_stop": "Yonge St at Kempford Blvd"}}, {"type": "Feature", "geometry": {"type": "LineString", "coordinates": [[-79.4146782, 43.7770721], [-79.414877, 43.7778388]]}, "properties": {"segment": 174, "length_m": 86.7, "danger_score": 0.436, "nearest_stop": "Yonge St at Kempford Blvd"}}, {"type": "Feature", "geometry": {"type": "LineString", "coordinates": [[-79.414877, 43.7778388], [-79.4149213, 43.7780119]]}, "properties": {"segment": 175, "length_m": 19.6, "danger_score": 0.436, "nearest_stop": "Yonge St at Kempford Blvd"}}, {"type": "Feature", "geometry": {"type": "LineString", "coordinates": [[-79.4149213, 43.7780119], [-79.4150844, 43.7786641]]}, "properties": {"segment": 176, "length_m": 73.7, "danger_score": 0.436, "nearest_stop": "Yonge St at Kempford Blvd"}}, {"type": "Feature", "geometry": {"type": "LineString", "coordinates": [[-79.4150844, 43.7786641], [-79.4151304, 43.7788363]]}, "properties": {"segment": 177, "length_m": 19.5, "danger_score": 0.438, "nearest_stop": "Yonge St at Finch Ave East"}}, {"type": "Feature", "geometry": {"type": "LineString", "coordinates": [[-79.4151304, 43.7788363], [-79.4151469, 43.7788974]]}, "properties": {"segment": 178, "length_m": 6.9, "danger_score": 0.438, "nearest_stop": "Yonge St at Finch Ave East"}}, {"type": "Feature", "geometry": {"type": "LineString", "coordinates": [[-79.4151469, 43.7788974], [-79.415189, 43.7790532]]}, "properties": {"segment": 179, "length_m": 17.7, "danger_score": 0.438, "nearest_stop": "Yonge St at Finch Ave East"}}, {"type": "Feature", "geometry": {"type": "LineString", "coordinates": [[-79.415189, 43.7790532], [-79.4153416, 43.7797056]]}, "properties": {"segment": 180, "length_m": 74.2, "danger_score": 0.438, "nearest_stop": "Yonge St at Finch Ave East"}}, {"type": "Feature", "geometry": {"type": "LineString", "coordinates": [[-79.4153416, 43.7797056], [-79.4153932, 43.7799175]]}, "properties": {"segment": 181, "length_m": 23.9, "danger_score": 0.438, "nearest_stop": "Yonge St at Finch Ave East"}}, {"type": "Feature", "geometry": {"type": "LineString", "coordinates": [[-79.4153932, 43.7799175], [-79.4154411, 43.7801012]]}, "properties": {"segment": 182, "length_m": 20.8, "danger_score": 0.435, "nearest_stop": "Finch Station - Southbound Platform"}}, {"type": "Feature", "geometry": {"type": "LineString", "coordinates": [[-79.4154411, 43.7801012], [-79.4156236, 43.7808014]]}, "properties": {"segment": 183, "length_m": 79.2, "danger_score": 0.435, "nearest_stop": "Finch Station - Southbound Platform"}}, {"type": "Feature", "geometry": {"type": "LineString", "coordinates": [[-79.4156236, 43.7808014], [-79.415444, 43.7808866]]}, "properties": {"segment": 184, "length_m": 22.8, "danger_score": 0.483, "nearest_stop": "Finch Station - Subway Platform"}}, {"type": "Feature", "geometry": {"type": "LineString", "coordinates": [[-79.415444, 43.7808866], [-79.4149198, 43.7810047]]}, "properties": {"segment": 185, "length_m": 44.1, "danger_score": 0.483, "nearest_stop": "Finch Station - Subway Platform"}}, {"type": "Feature", "geometry": {"type": "LineString", "coordinates": [[-79.4149198, 43.7810047], [-79.4150635, 43.781358]]}, "properties": {"segment": 186, "length_m": 40.9, "danger_score": 0.444, "nearest_stop": "Finch Station"}}, {"type": "Feature", "geometry": {"type": "LineString", "coordinates": [[-79.4150635, 43.781358], [-79.4151515, 43.7813396]]}, "properties": {"segment": 187, "length_m": 7.4, "danger_score": 0.477, "nearest_stop": "Finch Station"}}, {"type": "Feature", "geometry": {"type": "LineString", "coordinates": [[-79.4151515, 43.7813396], [-79.4149959, 43.7809522]]}, "properties": {"segment": 188, "length_m": 44.9, "danger_score": 0.444, "nearest_stop": "Finch Station"}}], "properties": {"num_segments": 188, "total_length_m": 8936.9, "overall_safety_score": 69.3}}