{"type": "FeatureCollection", "features": [{"type": "Feature", "geometry": {"type": "LineString", "coordinates": [[-79.3780096, 43.649682], [-79.377489, 43.6498152]]}, "properties": {"segment": 1, "length_m": 44.8, "danger_score": 0.538, "nearest_stop": "King Station - Northbound Platform"}}, {"type": "Feature", "geometry": {"type": "LineString", "coordinates": [[-79.377489, 43.6498152], [-79.3774794, 43.6500733]]}, "properties": {"segment": 2, "length_m": 31.4, "danger_score": 0.538, "nearest_stop": "King Station - Northbound Platform"}}, {"type": "Feature", "geometry": {"type": "LineString", "coordinates": [[-79.3774794, 43.6500733], [-79.3775871, 43.6505276]]}, "properties": {"segment": 3, "length_m": 52.7, "danger_score": 0.512, "nearest_stop": "Adelaide St West at Yonge St - King Station"}}, {"type": "Feature", "geometry": {"type": "LineString", "coordinates": [[-79.3775871, 43.6505276], [-79.3773013, 43.6505891]]}, "properties": {"segment": 4, "length_m": 24.0, "danger_score": 0.512, "nearest_stop": "Adelaide St West at Yonge St - King Station"}}, {"type": "Feature", "geometry": {"type": "LineString", "coordinates": [[-79.3773013, 43.6505891], [-79.377361, 43.6507506]]}, "properties": {"segment": 5, "length_m": 18.6, "danger_score": 0.512, "nearest_stop": "Adelaide St West at Yonge St - King Station"}}, {"type": "Feature", "geometry": {"type": "LineString", "coordinates": [[-79.377361, 43.6507506], [-79.3777019, 43.6515559]]}, "properties": {"segment": 6, "length_m": 93.7, "danger_score": 0.46, "nearest_stop": "Yonge St at Richmond St East"}}, {"type": "Feature", "geometry": {"type": "LineString", "coordinates": [[-79.3777019, 43.6515559], [-79.3778393, 43.6518586]]}, "properties": {"segment": 7, "length_m": 35.6, "danger_score": 0.46, "nearest_stop": "Yonge St at Richmond St East"}}, {"type": "Feature", "geometry": {"type": "LineString", "coordinates": [[-79.3778393, 43.6518586], [-79.3779041, 43.652012]]}, "properties": {"segment": 8, "length_m": 17.8, "danger_score": 0.46, "nearest_stop": "Yonge St at Richmond St East"}}, {"type": "Feature", "geometry": {"type": "LineString", "coordinates": [[-79.3779041, 43.652012], [-79.3781356, 43.6525813]]}, "properties": {"segment": 9, "length_m": 66.1, "danger_score": 0.479, "nearest_stop": "Yonge St at Queen St East - Queen Station"}}, {"type": "Feature", "geometry": {"type": "LineString", "coordinates": [[-79.3781356, 43.6525813], [-79.3779333, 43.6526251]]}, "properties": {"segment": 10, "length_m": 17.0, "danger_score": 0.479, "nearest_stop": "Yonge St at Queen St East - Queen Station"}}, {"type": "Feature", "geometry": {"type": "LineString", "coordinates": [[-79.3779333, 43.6526251], [-79.3771063, 43.652809]]}, "properties": {"segment": 11, "length_m": 69.6, "danger_score": 0.479, "nearest_stop": "Yonge St at Queen St East - Queen Station"}}, {"type": "Feature", "geometry": {"type": "LineString", "coordinates": [[-79.3771063, 43.652809], [-79.3771626, 43.6529474]]}, "properties": {"segment": 12, "length_m": 16.0, "danger_score": 0.58, "nearest_stop": "Church St at Queen St East"}}, {"type": "Feature", "geometry": {"type": "LineString", "coordinates": [[-79.3771626, 43.6529474], [-79.3770208, 43.6529912]]}, "properties": {"segment": 13, "length_m": 12.7, "danger_score": 0.58, "nearest_stop": "Church St at Queen St East"}}, {"type": "Feature", "geometry": {"type": "LineString", "coordinates": [[-79.3770208, 43.6529912], [-79.3768688, 43.6530206]]}, "properties": {"segment": 14, "length_m": 12.7, "danger_score": 0.58, "nearest_stop": "Church St at Queen St East"}}, {"type": "Feature", "geometry": {"type": "LineString", "coordinates": [[-79.3768688, 43.6530206], [-79.3768165, 43.6530356]]}, "properties": {"segment": 15, "length_m": 4.5, "danger_score": 0.58, "nearest_stop": "Church St at Queen St East"}}, {"type": "Feature", "geometry": {"type": "LineString", "coordinates": [[-79.3768165, 43.6530356], [-79.376503, 43.6534569]]}, "properties": {"segment": 16, "length_m": 56.3, "danger_score": 0.58, "nearest_stop": "Church St at Queen St East"}}, {"type": "Feature", "geometry": {"type": "LineString", "coordinates": [[-79.376503, 43.6534569], [-79.3765582, 43.6535608]]}, "properties": {"segment": 17, "length_m": 12.4, "danger_score": 0.449, "nearest_stop": "Queen St East at Church St"}}, {"type": "Feature", "geometry": {"type": "LineString", "coordinates": [[-79.3765582, 43.6535608], [-79.376139, 43.6538176]]}, "properties": {"segment": 18, "length_m": 48.7, "danger_score": 0.449, "nearest_stop": "Queen St East at Church St"}}, {"type": "Feature", "geometry": {"type": "LineString", "coordinates": [[-79.376139, 43.6538176], [-79.376367, 43.654379]]}, "properties": {"segment": 19, "length_m": 65.1, "danger_score": 0.449, "nearest_stop": "Queen St East at Church St"}}, {"type": "Feature", "geometry": {"type": "LineString", "coordinates": [[-79.376367, 43.654379], [-79.3765243, 43.6547205]]}, "properties": {"segment": 20, "length_m": 40.0, "danger_score": 0.449, "nearest_stop": "Queen St East at Church St"}}, {"type": "Feature", "geometry": {"type": "LineString", "coordinates": [[-79.3765243, 43.6547205], [-79.3762906, 43.6547678]]}, "properties": {"segment": 21, "length_m": 19.5, "danger_score": 0.449, "nearest_stop": "Queen St East at Church St"}}, {"type": "Feature", "geometry": {"type": "LineString", "coordinates": [[-79.3762906, 43.6547678], [-79.376365, 43.65493]]}, "properties": {"segment": 22, "length_m": 19.0, "danger_score": 0.449, "nearest_stop": "Queen St East at Church St"}}, {"type": "Feature", "geometry": {"type": "LineString", "coordinates": [[-79.376365, 43.65493], [-79.3759359, 43.6550202]]}, "properties": {"segment": 23, "length_m": 36.0, "danger_score": 0.578, "nearest_stop": "Dundas St East at Church St"}}, {"type": "Feature", "geometry": {"type": "LineString", "coordinates": [[-79.3759359, 43.6550202], [-79.3758255, 43.6550419]]}, "properties": {"segment": 24, "length_m": 9.2, "danger_score": 0.578, "nearest_stop": "Dundas St East at Church St"}}, {"type": "Feature", "geometry": {"type": "LineString", "coordinates": [[-79.3758255, 43.6550419], [-79.3759567, 43.6553618]]}, "properties": {"segment": 25, "length_m": 37.1, "danger_score": 0.578, "nearest_stop": "Dundas St East at Church St"}}, {"type": "Feature", "geometry": {"type": "LineString", "coordinates": [[-79.3759567, 43.6553618], [-79.3755206, 43.655468]]}, "properties": {"segment": 26, "length_m": 37.0, "danger_score": 0.543, "nearest_stop": "Dundas St East at Church St"}}, {"type": "Feature", "geometry": {"type": "LineString", "coordinates": [[-79.3755206, 43.655468], [-79.3755097, 43.6559823]]}, "properties": {"segment": 27, "length_m": 59.5, "danger_score": 0.444, "nearest_stop": "Dundas St East at Jarvis St"}}, {"type": "Feature", "geometry": {"type": "LineString", "coordinates": [[-79.3755097, 43.6559823], [-79.3754383, 43.6561234]]}, "properties": {"segment": 28, "length_m": 16.7, "danger_score": 0.444, "nearest_stop": "Dundas St East at Jarvis St"}}, {"type": "Feature", "geometry": {"type": "LineString", "coordinates": [[-79.3754383, 43.6561234], [-79.3755119, 43.656272]]}, "properties": {"segment": 29, "length_m": 17.6, "danger_score": 0.444, "nearest_stop": "Dundas St East at Jarvis St"}}, {"type": "Feature", "geometry": {"type": "LineString", "coordinates": [[-79.3755119, 43.656272], [-79.3755245, 43.6563046]]}, "properties": {"segment": 30, "length_m": 3.8, "danger_score": 0.444, "nearest_stop": "Dundas St East at Jarvis St"}}, {"type": "Feature", "geometry": {"type": "LineString", "coordinates": [[-79.3755245, 43.6563046], [-79.3757089, 43.6567351]]}, "properties": {"segment": 31, "length_m": 50.3, "danger_score": 0.444, "nearest_stop": "Dundas St East at Jarvis St"}}, {"type": "Feature", "geometry": {"type": "LineString", "coordinates": [[-79.3757089, 43.6567351], [-79.375531, 43.656775]]}, "properties": {"segment": 32, "length_m": 15.0, "danger_score": 0.444, "nearest_stop": "Dundas St East at Jarvis St"}}, {"type": "Feature", "geometry": {"type": "LineString", "coordinates": [[-79.375531, 43.656775], [-79.3746557, 43.6569524]]}, "properties": {"segment": 33, "length_m": 73.4, "danger_score": 0.444, "nearest_stop": "Dundas St East at Jarvis St"}}, {"type": "Feature", "geometry": {"type": "LineString", "coordinates": [[-79.3746557, 43.6569524], [-79.3747125, 43.6571214]]}, "properties": {"segment": 34, "length_m": 19.3, "danger_score": 0.444, "nearest_stop": "Dundas St East at Jarvis St"}}, {"type": "Feature", "geometry": {"type": "LineString", "coordinates": [[-79.3747125, 43.6571214], [-79.3744576, 43.6571832]]}, "properties": {"segment": 35, "length_m": 21.6, "danger_score": 0.44, "nearest_stop": "Dundas St East at Jarvis St"}}, {"type": "Feature", "geometry": {"type": "LineString", "coordinates": [[-79.3744576, 43.6571832], [-79.3745993, 43.6575504]]}, "properties": {"segment": 36, "length_m": 42.4, "danger_score": 0.44, "nearest_stop": "Dundas St East at Jarvis St"}}, {"type": "Feature", "geometry": {"type": "LineString", "coordinates": [[-79.3745993, 43.6575504], [-79.374993, 43.658552]]}, "properties": {"segment": 37, "length_m": 115.8, "danger_score": 0.44, "nearest_stop": "Dundas St East at Jarvis St"}}, {"type": "Feature", "geometry": {"type": "LineString", "coordinates": [[-79.374993, 43.658552], [-79.375713, 43.6603834]]}, "properties": {"segment": 38, "length_m": 211.7, "danger_score": 0.44, "nearest_stop": "Dundas St East at Jarvis St"}}, {"type": "Feature", "geometry": {"type": "LineString", "coordinates": [[-79.375713, 43.6603834], [-79.3757839, 43.6605499]]}, "properties": {"segment": 39, "length_m": 19.4, "danger_score": 0.444, "nearest_stop": "Carlton St at Jarvis St"}}, {"type": "Feature", "geometry": {"type": "LineString", "coordinates": [[-79.3757839, 43.6605499], [-79.3747541, 43.660753]]}, "properties": {"segment": 40, "length_m": 86.1, "danger_score": 0.444, "nearest_stop": "Carlton St at Jarvis St"}}, {"type": "Feature", "geometry": {"type": "LineString", "coordinates": [[-79.3747541, 43.660753], [-79.3747669, 43.6607806]]}, "properties": {"segment": 41, "length_m": 3.2, "danger_score": 0.534, "nearest_stop": "Sherbourne St at Gerrard St East"}}, {"type": "Feature", "geometry": {"type": "LineString", "coordinates": [[-79.3747669, 43.6607806], [-79.3743888, 43.6609855]]}, "properties": {"segment": 42, "length_m": 38.2, "danger_score": 0.534, "nearest_stop": "Sherbourne St at Gerrard St East"}}, {"type": "Feature", "geometry": {"type": "LineString", "coordinates": [[-79.3743888, 43.6609855], [-79.3742328, 43.6611789]]}, "properties": {"segment": 43, "length_m": 25.0, "danger_score": 0.534, "nearest_stop": "Sherbourne St at Gerrard St East"}}, {"type": "Feature", "geometry": {"type": "LineString", "coordinates": [[-79.3742328, 43.6611789], [-79.3740812, 43.6613596]]}, "properties": {"segment": 44, "length_m": 23.7, "danger_score": 0.534, "nearest_stop": "Sherbourne St at Gerrard St East"}}, {"type": "Feature", "geometry": {"type": "LineString", "coordinates": [[-79.3740812, 43.6613596], [-79.3738079, 43.6616006]]}, "properties": {"segment": 45, "length_m": 34.7, "danger_score": 0.534, "nearest_stop": "Sherbourne St at Gerrard St East"}}, {"type": "Feature", "geometry": {"type": "LineString", "coordinates": [[-79.3738079, 43.6616006], [-79.3738743, 43.6617756]]}, "properties": {"segment": 46, "length_m": 20.2, "danger_score": 0.534, "nearest_stop": "Sherbourne St at Gerrard St East"}}, {"type": "Feature", "geometry": {"type": "LineString", "coordinates": [[-79.3738743, 43.6617756], [-79.3739451, 43.6619391]]}, "properties": {"segment": 47, "length_m": 19.1, "danger_score": 0.534, "nearest_stop": "Sherbourne St at Gerrard St East"}}, {"type": "Feature", "geometry": {"type": "LineString", "coordinates": [[-79.3739451, 43.6619391], [-79.3738203, 43.6621543]]}, "properties": {"segment": 48, "length_m": 26.0, "danger_score": 0.463, "nearest_stop": "Carlton St at Sherbourne St"}}, {"type": "Feature", "geometry": {"type": "LineString", "coordinates": [[-79.3738203, 43.6621543], [-79.3731201, 43.6630942]]}, "properties": {"segment": 49, "length_m": 118.7, "danger_score": 0.463, "nearest_stop": "Carlton St at Sherbourne St"}}, {"type": "Feature", "geometry": {"type": "LineString", "coordinates": [[-79.3731201, 43.6630942], [-79.373183, 43.6632602]]}, "properties": {"segment": 50, "length_m": 19.1, "danger_score": 0.463, "nearest_stop": "Carlton St at Sherbourne St"}}, {"type": "Feature", "geometry": {"type": "LineString", "coordinates": [[-79.373183, 43.6632602], [-79.373384, 43.6637362]]}, "properties": {"segment": 51, "length_m": 55.3, "danger_score": 0.505, "nearest_stop": "Sherbourne St at Carlton St"}}, {"type": "Feature", "geometry": {"type": "LineString", "coordinates": [[-79.373384, 43.6637362], [-79.3734491, 43.6638904]]}, "properties": {"segment": 52, "length_m": 17.9, "danger_score": 0.505, "nearest_stop": "Sherbourne St at Carlton St"}}, {"type": "Feature", "geometry": {"type": "LineString", "coordinates": [[-79.3734491, 43.6638904], [-79.3735255, 43.6640713]]}, "properties": {"segment": 53, "length_m": 21.0, "danger_score": 0.505, "nearest_stop": "Sherbourne St at Carlton St"}}, {"type": "Feature", "geometry": {"type": "LineString", "coordinates": [[-79.3735255, 43.6640713], [-79.3735913, 43.664227]]}, "properties": {"segment": 54, "length_m": 29.1, "danger_score": 0.505, "nearest_stop": "Sherbourne St at Carlton St"}}, {"type": "Feature", "geometry": {"type": "LineString", "coordinates": [[-79.3735913, 43.664227], [-79.3736668, 43.6644059]]}, "properties": {"segment": 55, "length_m": 20.8, "danger_score": 0.586, "nearest_stop": "418 Sherbourne St"}}, {"type": "Feature", "geometry": {"type": "LineString", "coordinates": [[-79.3736668, 43.6644059], [-79.3740761, 43.6653706]]}, "properties": {"segment": 56, "length_m": 112.2, "danger_score": 0.586, "nearest_stop": "418 Sherbourne St"}}, {"type": "Feature", "geometry": {"type": "LineString", "coordinates": [[-79.3740761, 43.6653706], [-79.3747443, 43.6669309]]}, "properties": {"segment": 57, "length_m": 181.8, "danger_score": 0.445, "nearest_stop": "Sherbourne St at Wellesley St East"}}, {"type": "Feature", "geometry": {"type": "LineString", "coordinates": [[-79.3747443, 43.6669309], [-79.3745256, 43.6670174]]}, "properties": {"segment": 58, "length_m": 20.0, "danger_score": 0.445, "nearest_stop": "Sherbourne St at Wellesley St East"}}, {"type": "Feature", "geometry": {"type": "LineString", "coordinates": [[-79.3745256, 43.6670174], [-79.3745901, 43.6671862]]}, "properties": {"segment": 59, "length_m": 19.5, "danger_score": 0.419, "nearest_stop": "Wellesley St East at Sherbourne St"}}, {"type": "Feature", "geometry": {"type": "LineString", "coordinates": [[-79.3745901, 43.6671862], [-79.3738721, 43.6673386]]}, "properties": {"segment": 60, "length_m": 60.2, "danger_score": 0.419, "nearest_stop": "Wellesley St East at Sherbourne St"}}, {"type": "Feature", "geometry": {"type": "LineString", "coordinates": [[-79.3738721, 43.6673386], [-79.3737212, 43.6673696]]}, "properties": {"segment": 61, "length_m": 12.6, "danger_score": 0.419, "nearest_stop": "Wellesley St East at Sherbourne St"}}, {"type": "Feature", "geometry": {"type": "LineString", "coordinates": [[-79.3737212, 43.6673696], [-79.3743161, 43.6688169]]}, "properties": {"segment": 62, "length_m": 167.9, "danger_score": 0.419, "nearest_stop": "Wellesley St East at Sherbourne St"}}, {"type": "Feature", "geometry": {"type": "LineString", "coordinates": [[-79.3743161, 43.6688169], [-79.3732934, 43.6690526]]}, "properties": {"segment": 63, "length_m": 86.8, "danger_score": 0.528, "nearest_stop": "Sherbourne St at Earl St North Side"}}, {"type": "Feature", "geometry": {"type": "LineString", "coordinates": [[-79.3732934, 43.6690526], [-79.3730554, 43.6691108]]}, "properties": {"segment": 64, "length_m": 20.3, "danger_score": 0.528, "nearest_stop": "Sherbourne St at Earl St North Side"}}, {"type": "Feature", "geometry": {"type": "LineString", "coordinates": [[-79.3730554, 43.6691108], [-79.3727466, 43.6692155]]}, "properties": {"segment": 65, "length_m": 27.6, "danger_score": 0.556, "nearest_stop": "Wellesley St East at Ontario St"}}, {"type": "Feature", "geometry": {"type": "LineString", "coordinates": [[-79.3727466, 43.6692155], [-79.3727328, 43.6692211]]}, "properties": {"segment": 66, "length_m": 1.3, "danger_score": 0.556, "nearest_stop": "Wellesley St East at Ontario St"}}, {"type": "Feature", "geometry": {"type": "LineString", "coordinates": [[-79.3727328, 43.6692211], [-79.3719597, 43.6694669]]}, "properties": {"segment": 67, "length_m": 67.9, "danger_score": 0.635, "nearest_stop": "Parliament St at St James Ave South Side"}}, {"type": "Feature", "geometry": {"type": "LineString", "coordinates": [[-79.3719597, 43.6694669], [-79.3719282, 43.6694751]]}, "properties": {"segment": 68, "length_m": 2.7, "danger_score": 0.635, "nearest_stop": "Parliament St at St James Ave South Side"}}, {"type": "Feature", "geometry": {"type": "LineString", "coordinates": [[-79.3719282, 43.6694751], [-79.3715473, 43.6696197]]}, "properties": {"segment": 69, "length_m": 34.7, "danger_score": 0.635, "nearest_stop": "Parliament St at St James Ave South Side"}}, {"type": "Feature", "geometry": {"type": "LineString", "coordinates": [[-79.3715473, 43.6696197], [-79.3714252, 43.669919]]}, "properties": {"segment": 70, "length_m": 35.6, "danger_score": 0.635, "nearest_stop": "Parliament St at St James Ave South Side"}}, {"type": "Feature", "geometry": {"type": "LineString", "coordinates": [[-79.3714252, 43.669919], [-79.3711197, 43.6700494]]}, "properties": {"segment": 71, "length_m": 29.2, "danger_score": 0.635, "nearest_stop": "Parliament St at St James Ave South Side"}}, {"type": "Feature", "geometry": {"type": "LineString", "coordinates": [[-79.3711197, 43.6700494], [-79.370473, 43.6702027]]}, "properties": {"segment": 72, "length_m": 54.9, "danger_score": 0.635, "nearest_stop": "Parliament St at St James Ave South Side"}}, {"type": "Feature", "geometry": {"type": "LineString", "coordinates": [[-79.370473, 43.6702027], [-79.3705059, 43.6702829]]}, "properties": {"segment": 73, "length_m": 9.3, "danger_score": 0.635, "nearest_stop": "Parliament St at St James Ave South Side"}}, {"type": "Feature", "geometry": {"type": "LineString", "coordinates": [[-79.3705059, 43.6702829], [-79.3706636, 43.6706895]]}, "properties": {"segment": 74, "length_m": 47.0, "danger_score": 0.459, "nearest_stop": "Parliament St at Howard St South Side"}}, {"type": "Feature", "geometry": {"type": "LineString", "coordinates": [[-79.3706636, 43.6706895], [-79.3708898, 43.6712246]]}, "properties": {"segment": 75, "length_m": 62.2, "danger_score": 0.459, "nearest_stop": "Parliament St at Howard St South Side"}}, {"type": "Feature", "geometry": {"type": "LineString", "coordinates": [[-79.3708898, 43.6712246], [-79.3709428, 43.6713386]]}, "properties": {"segment": 76, "length_m": 13.4, "danger_score": 0.459, "nearest_stop": "Parliament St at Howard St South Side"}}, {"type": "Feature", "geometry": {"type": "LineString", "coordinates": [[-79.3709428, 43.6713386], [-79.3710367, 43.6714927]]}, "properties": {"segment": 77, "length_m": 18.7, "danger_score": 0.434, "nearest_stop": "Parliament St at Bloor St East"}}, {"type": "Feature", "geometry": {"type": "LineString", "coordinates": [[-79.3710367, 43.6714927], [-79.3710983, 43.6716329]]}, "properties": {"segment": 78, "length_m": 17.4, "danger_score": 0.434, "nearest_stop": "Parliament St at Bloor St East"}}, {"type": "Feature", "geometry": {"type": "LineString", "coordinates": [[-79.3710983, 43.6716329], [-79.3710893, 43.6717847]]}, "properties": {"segment": 79, "length_m": 16.9, "danger_score": 0.434, "nearest_stop": "Parliament St at Bloor St East"}}, {"type": "Feature", "geometry": {"type": "LineString", "coordinates": [[-79.3710893, 43.6717847], [-79.3711472, 43.6720313]]}, "properties": {"segment": 80, "length_m": 27.8, "danger_score": 0.459, "nearest_stop": "Bloor St East at Parliament St"}}, {"type": "Feature", "geometry": {"type": "LineString", "coordinates": [[-79.3711472, 43.6720313], [-79.3691564, 43.6732502]]}, "properties": {"segment": 81, "length_m": 211.6, "danger_score": 0.442, "nearest_stop": "Bloor St East at Parliament St"}}, {"type": "Feature", "geometry": {"type": "LineString", "coordinates": [[-79.3691564, 43.6732502], [-79.3683878, 43.6738003]]}, "properties": {"segment": 82, "length_m": 87.0, "danger_score": 0.399, "nearest_stop": "Castle Frank Station"}}, {"type": "Feature", "geometry": {"type": "LineString", "coordinates": [[-79.3683878, 43.6738003], [-79.3681082, 43.6739817]]}, "properties": {"segment": 83, "length_m": 30.2, "danger_score": 0.347, "nearest_stop": "Castle Frank Station - Eastbound Platform"}}, {"type": "Feature", "geometry": {"type": "LineString", "coordinates": [[-79.3681082, 43.6739817], [-79.3680634, 43.6740123]]}, "properties": {"segment": 84, "length_m": 5.0, "danger_score": 0.353, "nearest_stop": "Bloor St East at Castle Frank Rd"}}, {"type": "Feature", "geometry": {"type": "LineString", "coordinates": [[-79.3680634, 43.6740123], [-79.367518, 43.6743852]]}, "properties": {"segment": 85, "length_m": 60.4, "danger_score": 0.365, "nearest_stop": "Bloor St East at Castle Frank Rd East Side"}}, {"type": "Feature", "geometry": {"type": "LineString", "coordinates": [[-79.367518, 43.6743852], [-79.3673261, 43.674528]]}, "properties": {"segment": 86, "length_m": 22.6, "danger_score": 0.365, "nearest_stop": "Bloor St East at Castle Frank Rd East Side"}}, {"type": "Feature", "geometry": {"type": "LineString", "coordinates": [[-79.3673261, 43.674528], [-79.361036, 43.6758928]]}, "properties": {"segment": 87, "length_m": 530.3, "danger_score": 0.365, "nearest_stop": "Bloor St East at Castle Frank Rd East Side"}}, {"type": "Feature", "geometry": {"type": "LineString", "coordinates": [[-79.361036, 43.6758928], [-79.3604411, 43.6760147]]}, "properties": {"segment": 88, "length_m": 49.7, "danger_score": 0.52, "nearest_stop": "Broadview Station - Westbound Platform"}}, {"type": "Feature", "geometry": {"type": "LineString", "coordinates": [[-79.3604411, 43.6760147], [-79.3602048, 43.6760603]]}, "properties": {"segment": 89, "length_m": 19.7, "danger_score": 0.52, "nearest_stop": "Broadview Station - Westbound Platform"}}, {"type": "Feature", "geometry": {"type": "LineString", "coordinates": [[-79.3602048, 43.6760603], [-79.3593249, 43.6762331]]}, "properties": {"segment": 90, "length_m": 73.3, "danger_score": 0.52, "nearest_stop": "Broadview Station - Westbound Platform"}}, {"type": "Feature", "geometry": {"type": "LineString", "coordinates": [[-79.3593249, 43.6762331], [-79.3591241, 43.6762725]]}, "properties": {"segment": 91, "length_m": 16.7, "danger_score": 0.475, "nearest_stop": "Broadview Ave at Danforth Ave"}}, {"type": "Feature", "geometry": {"type": "LineString", "coordinates": [[-79.3591241, 43.6762725], [-79.3590733, 43.6762863]]}, "properties": {"segment": 92, "length_m": 4.4, "danger_score": 0.475, "nearest_stop": "Broadview Ave at Danforth Ave"}}, {"type": "Feature", "geometry": {"type": "LineString", "coordinates": [[-79.3590733, 43.6762863], [-79.3588162, 43.6772958]]}, "properties": {"segment": 93, "length_m": 114.2, "danger_score": 0.493, "nearest_stop": "Broadview Station"}}, {"type": "Feature", "geometry": {"type": "LineString", "coordinates": [[-79.3588162, 43.6772958], [-79.358546, 43.6783685]]}, "properties": {"segment": 94, "length_m": 121.3, "danger_score": 0.467, "nearest_stop": "Broadview Ave at Erindale Ave"}}, {"type": "Feature", "geometry": {"type": "LineString", "coordinates": [[-79.358546, 43.6783685], [-79.3585182, 43.6784713]]}, "properties": {"segment": 95, "length_m": 11.6, "danger_score": 0.544, "nearest_stop": "Broadview Ave at Pretoria Ave"}}, {"type": "Feature", "geometry": {"type": "LineString", "coordinates": [[-79.3585182, 43.6784713], [-79.3585031, 43.6784923]]}, "properties": {"segment": 96, "length_m": 2.6, "danger_score": 0.544, "nearest_stop": "Broadview Ave at Pretoria Ave"}}, {"type": "Feature", "geometry": {"type": "LineString", "coordinates": [[-79.3585031, 43.6784923], [-79.3577924, 43.6812014]]}, "properties": {"segment": 97, "length_m": 306.6, "danger_score": 0.569, "nearest_stop": "876 Broadview Ave"}}, {"type": "Feature", "geometry": {"type": "LineString", "coordinates": [[-79.3577924, 43.6812014], [-79.3575765, 43.6811838]]}, "properties": {"segment": 98, "length_m": 17.5, "danger_score": 0.539, "nearest_stop": "Broadview Ave at Chester Hill Rd"}}, {"type": "Feature", "geometry": {"type": "LineString", "coordinates": [[-79.3575765, 43.6811838], [-79.3573733, 43.681881]]}, "properties": {"segment": 99, "length_m": 79.3, "danger_score": 0.539, "nearest_stop": "Broadview Ave at Chester Hill Rd"}}, {"type": "Feature", "geometry": {"type": "LineString", "coordinates": [[-79.3573733, 43.681881], [-79.357334, 43.6820524]]}, "properties": {"segment": 100, "length_m": 19.3, "danger_score": 0.539, "nearest_stop": "Broadview Ave at Chester Hill Rd"}}, {"type": "Feature", "geometry": {"type": "LineString", "coordinates": [[-79.357334, 43.6820524], [-79.3571183, 43.682883]]}, "properties": {"segment": 101, "length_m": 94.9, "danger_score": 0.471, "nearest_stop": "Broadview Ave at Pottery Rd South Side"}}, {"type": "Feature", "geometry": {"type": "LineString", "coordinates": [[-79.3571183, 43.682883], [-79.357086, 43.6830415]]}, "properties": {"segment": 102, "length_m": 17.8, "danger_score": 0.471, "nearest_stop": "Broadview Ave at Pottery Rd South Side"}}, {"type": "Feature", "geometry": {"type": "LineString", "coordinates": [[-79.357086, 43.6830415], [-79.3568633, 43.6838401]]}, "properties": {"segment": 103, "length_m": 91.1, "danger_score": 0.471, "nearest_stop": "Broadview Ave at Pottery Rd South Side"}}, {"type": "Feature", "geometry": {"type": "LineString", "coordinates": [[-79.3568633, 43.6838401], [-79.3568111, 43.6840269]]}, "properties": {"segment": 104, "length_m": 21.2, "danger_score": 0.508, "nearest_stop": "Mortimer Ave at Broadview Ave East Side"}}, {"type": "Feature", "geometry": {"type": "LineString", "coordinates": [[-79.3568111, 43.6840269], [-79.3566979, 43.6845574]]}, "properties": {"segment": 105, "length_m": 59.9, "danger_score": 0.464, "nearest_stop": "Broadview Ave at Mortimer Ave North Side"}}, {"type": "Feature", "geometry": {"type": "LineString", "coordinates": [[-79.3566979, 43.6845574], [-79.356664, 43.6846707]]}, "properties": {"segment": 106, "length_m": 12.9, "danger_score": 0.464, "nearest_stop": "Broadview Ave at Mortimer Ave North Side"}}, {"type": "Feature", "geometry": {"type": "LineString", "coordinates": [[-79.356664, 43.6846707], [-79.3564675, 43.6851624]]}, "properties": {"segment": 107, "length_m": 57.5, "danger_score": 0.464, "nearest_stop": "Broadview Ave at Mortimer Ave North Side"}}, {"type": "Feature", "geometry": {"type": "LineString", "coordinates": [[-79.3564675, 43.6851624], [-79.3564265, 43.6853021]]}, "properties": {"segment": 108, "length_m": 15.9, "danger_score": 0.464, "nearest_stop": "Broadview Ave at Mortimer Ave North Side"}}, {"type": "Feature", "geometry": {"type": "LineString", "coordinates": [[-79.3564265, 43.6853021], [-79.3562337, 43.6858702]]}, "properties": {"segment": 109, "length_m": 65.4, "danger_score": 0.501, "nearest_stop": "Broadview Ave at Hillside Dr"}}, {"type": "Feature", "geometry": {"type": "LineString", "coordinates": [[-79.3562337, 43.6858702], [-79.3561966, 43.6859671]]}, "properties": {"segment": 110, "length_m": 11.2, "danger_score": 0.501, "nearest_stop": "Broadview Ave at Hillside Dr"}}, {"type": "Feature", "geometry": {"type": "LineString", "coordinates": [[-79.3561966, 43.6859671], [-79.3561554, 43.6860698]]}, "properties": {"segment": 111, "length_m": 11.9, "danger_score": 0.501, "nearest_stop": "Broadview Ave at Hillside Dr"}}, {"type": "Feature", "geometry": {"type": "LineString", "coordinates": [[-79.3561554, 43.6860698], [-79.3557585, 43.687027]]}, "properties": {"segment": 112, "length_m": 111.5, "danger_score": 0.501, "nearest_stop": "Broadview Ave at Hillside Dr"}}, {"type": "Feature", "geometry": {"type": "LineString", "coordinates": [[-79.3557585, 43.687027], [-79.3557213, 43.6871308]]}, "properties": {"segment": 113, "length_m": 11.9, "danger_score": 0.488, "nearest_stop": "Broadview Ave at Bater Ave"}}, {"type": "Feature", "geometry": {"type": "LineString", "coordinates": [[-79.3557213, 43.6871308], [-79.3556289, 43.6873682]]}, "properties": {"segment": 114, "length_m": 27.4, "danger_score": 0.488, "nearest_stop": "Broadview Ave at Bater Ave"}}, {"type": "Feature", "geometry": {"type": "LineString", "coordinates": [[-79.3556289, 43.6873682], [-79.3554487, 43.6877722]]}, "properties": {"segment": 115, "length_m": 47.6, "danger_score": 0.541, "nearest_stop": "Broadview Ave at Cosburn Ave South Side"}}, {"type": "Feature", "geometry": {"type": "LineString", "coordinates": [[-79.3554487, 43.6877722], [-79.3553953, 43.6878999]]}, "properties": {"segment": 116, "length_m": 14.8, "danger_score": 0.541, "nearest_stop": "Broadview Ave at Cosburn Ave South Side"}}, {"type": "Feature", "geometry": {"type": "LineString", "coordinates": [[-79.3553953, 43.6878999], [-79.3551681, 43.6884638]]}, "properties": {"segment": 117, "length_m": 66.2, "danger_score": 0.541, "nearest_stop": "Broadview Ave at Cosburn Ave South Side"}}, {"type": "Feature", "geometry": {"type": "LineString", "coordinates": [[-79.3551681, 43.6884638], [-79.3551057, 43.6886479]]}, "properties": {"segment": 118, "length_m": 21.1, "danger_score": 0.527, "nearest_stop": "Cosburn Ave at Broadview Ave East Side"}}, {"type": "Feature", "geometry": {"type": "LineString", "coordinates": [[-79.3551057, 43.6886479], [-79.3550513, 43.6888062]]}, "properties": {"segment": 119, "length_m": 18.2, "danger_score": 0.505, "nearest_stop": "Broadview Ave at Cosburn Ave North Side"}}, {"type": "Feature", "geometry": {"type": "LineString", "coordinates": [[-79.3550513, 43.6888062], [-79.3548753, 43.6891973]]}, "properties": {"segment": 120, "length_m": 46.2, "danger_score": 0.505, "nearest_stop": "Broadview Ave at Cosburn Ave North Side"}}, {"type": "Feature", "geometry": {"type": "LineString", "coordinates": [[-79.3548753, 43.6891973], [-79.3548016, 43.6893739]]}, "properties": {"segment": 121, "length_m": 20.5, "danger_score": 0.505, "nearest_stop": "Broadview Ave at Cosburn Ave North Side"}}, {"type": "Feature", "geometry": {"type": "LineString", "coordinates": [[-79.3548016, 43.6893739], [-79.3550064, 43.690216]]}, "properties": {"segment": 122, "length_m": 97.1, "danger_score": 0.56, "nearest_stop": "Broadview Ave at Don Valley Dr"}}, {"type": "Feature", "geometry": {"type": "LineString", "coordinates": [[-79.3550064, 43.690216], [-79.3496369, 43.6912653]]}, "properties": {"segment": 123, "length_m": 447.7, "danger_score": 0.528, "nearest_stop": "80 Cosburn Ave"}}, {"type": "Feature", "geometry": {"type": "LineString", "coordinates": [[-79.3496369, 43.6912653], [-79.3496802, 43.6913977]]}, "properties": {"segment": 124, "length_m": 15.1, "danger_score": 0.5, "nearest_stop": "Pape Ave at Torrens Ave North Side"}}, {"type": "Feature", "geometry": {"type": "LineString", "coordinates": [[-79.3496802, 43.6913977], [-79.3494561, 43.6914431]]}, "properties": {"segment": 125, "length_m": 18.7, "danger_score": 0.5, "nearest_stop": "Pape Ave at Torrens Ave North Side"}}, {"type": "Feature", "geometry": {"type": "LineString", "coordinates": [[-79.3494561, 43.6914431], [-79.3497779, 43.6922975]]}, "properties": {"segment": 126, "length_m": 98.7, "danger_score": 0.5, "nearest_stop": "Pape Ave at Torrens Ave North Side"}}, {"type": "Feature", "geometry": {"type": "LineString", "coordinates": [[-79.3497779, 43.6922975], [-79.3498152, 43.692397]]}, "properties": {"segment": 127, "length_m": 11.5, "danger_score": 0.5, "nearest_stop": "Pape Ave at Torrens Ave North Side"}}, {"type": "Feature", "geometry": {"type": "LineString", "coordinates": [[-79.3498152, 43.692397], [-79.3490399, 43.6925641]]}, "properties": {"segment": 128, "length_m": 66.6, "danger_score": 0.453, "nearest_stop": "Pape Ave at O'Connor Dr"}}, {"type": "Feature", "geometry": {"type": "LineString", "coordinates": [[-79.3490399, 43.6925641], [-79.3488992, 43.6925874]]}, "properties": {"segment": 129, "length_m": 11.6, "danger_score": 0.453, "nearest_stop": "Pape Ave at O'Connor Dr"}}, {"type": "Feature", "geometry": {"type": "LineString", "coordinates": [[-79.3488992, 43.6925874], [-79.349175, 43.6933609]]}, "properties": {"segment": 130, "length_m": 89.3, "danger_score": 0.453, "nearest_stop": "Pape Ave at O'Connor Dr"}}, {"type": "Feature", "geometry": {"type": "LineString", "coordinates": [[-79.349175, 43.6933609], [-79.3483398, 43.6935371]]}, "properties": {"segment": 131, "length_m": 70.5, "danger_score": 0.564, "nearest_stop": "O'Connor Dr at Rivercourt Blvd"}}, {"type": "Feature", "geometry": {"type": "LineString", "coordinates": [[-79.3483398, 43.6935371], [-79.3483108, 43.6935337]]}, "properties": {"segment": 132, "length_m": 2.4, "danger_score": 0.564, "nearest_stop": "O'Connor Dr at Rivercourt Blvd"}}, {"type": "Feature", "geometry": {"type": "LineString", "coordinates": [[-79.3483108, 43.6935337], [-79.34814, 43.6935663]]}, "properties": {"segment": 133, "length_m": 14.2, "danger_score": 0.564, "nearest_stop": "O'Connor Dr at Rivercourt Blvd"}}, {"type": "Feature", "geometry": {"type": "LineString", "coordinates": [[-79.34814, 43.6935663], [-79.3481314, 43.6935748]]}, "properties": {"segment": 134, "length_m": 1.2, "danger_score": 0.564, "nearest_stop": "O'Connor Dr at Rivercourt Blvd"}}, {"type": "Feature", "geometry": {"type": "LineString", "coordinates": [[-79.3481314, 43.6935748], [-79.3472718, 43.6937458]]}, "properties": {"segment": 135, "length_m": 71.9, "danger_score": 0.56, "nearest_stop": "O'Connor Dr at Chilton Rd"}}, {"type": "Feature", "geometry": {"type": "LineString", "coordinates": [[-79.3472718, 43.6937458], [-79.347074, 43.6937836]]}, "properties": {"segment": 136, "length_m": 16.4, "danger_score": 0.56, "nearest_stop": "O'Connor Dr at Chilton Rd"}}, {"type": "Feature", "geometry": {"type": "LineString", "coordinates": [[-79.347074, 43.6937836], [-79.3462448, 43.6939445]]}, "properties": {"segment": 137, "length_m": 69.2, "danger_score": 0.56, "nearest_stop": "O'Connor Dr at Chilton Rd"}}, {"type": "Feature", "geometry": {"type": "LineString", "coordinates": [[-79.3462448, 43.6939445], [-79.3460376, 43.6939871]]}, "properties": {"segment": 138, "length_m": 17.3, "danger_score": 0.562, "nearest_stop": "O'Connor Dr at Warland Ave"}}, {"type": "Feature", "geometry": {"type": "LineString", "coordinates": [[-79.3460376, 43.6939871], [-79.3452173, 43.6941456]]}, "properties": {"segment": 139, "length_m": 68.4, "danger_score": 0.575, "nearest_stop": "O'Connor Dr at Wolverton Ave"}}, {"type": "Feature", "geometry": {"type": "LineString", "coordinates": [[-79.3452173, 43.6941456], [-79.3450144, 43.6941835]]}, "properties": {"segment": 140, "length_m": 16.8, "danger_score": 0.575, "nearest_stop": "O'Connor Dr at Wolverton Ave"}}, {"type": "Feature", "geometry": {"type": "LineString", "coordinates": [[-79.3450144, 43.6941835], [-79.3441797, 43.6943505]]}, "properties": {"segment": 141, "length_m": 69.7, "danger_score": 0.575, "nearest_stop": "O'Connor Dr at Wolverton Ave"}}, {"type": "Feature", "geometry": {"type": "LineString", "coordinates": [[-79.3441797, 43.6943505], [-79.3439938, 43.694387]]}, "properties": {"segment": 142, "length_m": 15.5, "danger_score": 0.459, "nearest_stop": "O'Connor Dr at Donlands Ave West Side"}}, {"type": "Feature", "geometry": {"type": "LineString", "coordinates": [[-79.3439938, 43.694387], [-79.3431766, 43.694543]]}, "properties": {"segment": 143, "length_m": 68.0, "danger_score": 0.459, "nearest_stop": "O'Connor Dr at Donlands Ave West Side"}}, {"type": "Feature", "geometry": {"type": "LineString", "coordinates": [[-79.3431766, 43.694543], [-79.3429294, 43.6945978]]}, "properties": {"segment": 144, "length_m": 20.8, "danger_score": 0.403, "nearest_stop": "Donlands Ave at O'Connor Dr"}}, {"type": "Feature", "geometry": {"type": "LineString", "coordinates": [[-79.3429294, 43.6945978], [-79.3429182, 43.6947189]]}, "properties": {"segment": 145, "length_m": 13.8, "danger_score": 0.403, "nearest_stop": "Donlands Ave at O'Connor Dr"}}, {"type": "Feature", "geometry": {"type": "LineString", "coordinates": [[-79.3429182, 43.6947189], [-79.3425676, 43.6948553]]}, "properties": {"segment": 146, "length_m": 33.1, "danger_score": 0.403, "nearest_stop": "Donlands Ave at O'Connor Dr"}}, {"type": "Feature", "geometry": {"type": "LineString", "coordinates": [[-79.3425676, 43.6948553], [-79.3421717, 43.6949423]]}, "properties": {"segment": 147, "length_m": 33.3, "danger_score": 0.403, "nearest_stop": "Donlands Ave at O'Connor Dr"}}, {"type": "Feature", "geometry": {"type": "LineString", "coordinates": [[-79.3421717, 43.6949423], [-79.3419672, 43.6949799]]}, "properties": {"segment": 148, "length_m": 17.0, "danger_score": 0.403, "nearest_stop": "Donlands Ave at O'Connor Dr"}}, {"type": "Feature", "geometry": {"type": "LineString", "coordinates": [[-79.3419672, 43.6949799], [-79.3411865, 43.6951415]]}, "properties": {"segment": 149, "length_m": 65.3, "danger_score": 0.51, "nearest_stop": "O'Connor Dr at St Hubert Ave"}}, {"type": "Feature", "geometry": {"type": "LineString", "coordinates": [[-79.3411865, 43.6951415], [-79.3410093, 43.6951781]]}, "properties": {"segment": 150, "length_m": 14.8, "danger_score": 0.51, "nearest_stop": "O'Connor Dr at St Hubert Ave"}}, {"type": "Feature", "geometry": {"type": "LineString", "coordinates": [[-79.3410093, 43.6951781], [-79.3402342, 43.695332]]}, "properties": {"segment": 151, "length_m": 64.9, "danger_score": 0.51, "nearest_stop": "O'Connor Dr at St Hubert Ave"}}, {"type": "Feature", "geometry": {"type": "LineString", "coordinates": [[-79.3402342, 43.695332], [-79.3400063, 43.6953897]]}, "properties": {"segment": 152, "length_m": 19.5, "danger_score": 0.508, "nearest_stop": "O'Connor Dr at Don Mills Rd West Side"}}, {"type": "Feature", "geometry": {"type": "LineString", "coordinates": [[-79.3400063, 43.6953897], [-79.3397135, 43.6954589]]}, "properties": {"segment": 153, "length_m": 24.9, "danger_score": 0.508, "nearest_stop": "O'Connor Dr at Don Mills Rd West Side"}}, {"type": "Feature", "geometry": {"type": "LineString", "coordinates": [[-79.3397135, 43.6954589], [-79.3392589, 43.6955449]]}, "properties": {"segment": 154, "length_m": 38.0, "danger_score": 0.508, "nearest_stop": "O'Connor Dr at Don Mills Rd West Side"}}, {"type": "Feature", "geometry": {"type": "LineString", "coordinates": [[-79.3392589, 43.6955449], [-79.3390786, 43.6955825]]}, "properties": {"segment": 155, "length_m": 15.1, "danger_score": 0.513, "nearest_stop": "O'Connor Dr at Northbrook Rd"}}, {"type": "Feature", "geometry": {"type": "LineString", "coordinates": [[-79.3390786, 43.6955825], [-79.3382797, 43.6957623]]}, "properties": {"segment": 156, "length_m": 67.6, "danger_score": 0.513, "nearest_stop": "O'Connor Dr at Northbrook Rd"}}, {"type": "Feature", "geometry": {"type": "LineString", "coordinates": [[-79.3382797, 43.6957623], [-79.3381033, 43.6957966]]}, "properties": {"segment": 157, "length_m": 14.7, "danger_score": 0.513, "nearest_stop": "O'Connor Dr at Northbrook Rd"}}, {"type": "Feature", "geometry": {"type": "LineString", "coordinates": [[-79.3381033, 43.6957966], [-79.337174, 43.6960086]]}, "properties": {"segment": 158, "length_m": 79.4, "danger_score": 0.507, "nearest_stop": "O'Connor Dr at Athlone Rd West Side"}}, {"type": "Feature", "geometry": {"type": "LineString", "coordinates": [[-79.337174, 43.6960086], [-79.3369928, 43.6960452]]}, "properties": {"segment": 159, "length_m": 15.1, "danger_score": 0.507, "nearest_stop": "O'Connor Dr at Athlone Rd West Side"}}, {"type": "Feature", "geometry": {"type": "LineString", "coordinates": [[-79.3369928, 43.6960452], [-79.3360278, 43.6962484]]}, "properties": {"segment": 160, "length_m": 81.4, "danger_score": 0.507, "nearest_stop": "O'Connor Dr at Athlone Rd West Side"}}, {"type": "Feature", "geometry": {"type": "LineString", "coordinates": [[-79.3360278, 43.6962484], [-79.3358473, 43.696285]]}, "properties": {"segment": 161, "length_m": 15.1, "danger_score": 0.541, "nearest_stop": "O'Connor Dr at Derwyn Rd"}}, {"type": "Feature", "geometry": {"type": "LineString", "coordinates": [[-79.3358473, 43.696285], [-79.3349041, 43.6964938]]}, "properties": {"segment": 162, "length_m": 79.9, "danger_score": 0.541, "nearest_stop": "O'Connor Dr at Derwyn Rd"}}, {"type": "Feature", "geometry": {"type": "LineString", "coordinates": [[-79.3349041, 43.6964938], [-79.3347042, 43.6965286]]}, "properties": {"segment": 163, "length_m": 16.5, "danger_score": 0.541, "nearest_stop": "O'Connor Dr at Derwyn Rd"}}, {"type": "Feature", "geometry": {"type": "LineString", "coordinates": [[-79.3347042, 43.6965286], [-79.3342597, 43.6966345]]}, "properties": {"segment": 164, "length_m": 37.6, "danger_score": 0.529, "nearest_stop": "O'Connor Dr at Derwyn Rd"}}, {"type": "Feature", "geometry": {"type": "LineString", "coordinates": [[-79.3342597, 43.6966345], [-79.3341408, 43.6966585]]}, "properties": {"segment": 165, "length_m": 9.9, "danger_score": 0.529, "nearest_stop": "O'Connor Dr at Derwyn Rd"}}, {"type": "Feature", "geometry": {"type": "LineString", "coordinates": [[-79.3341408, 43.6966585], [-79.3338688, 43.6967135]]}, "properties": {"segment": 166, "length_m": 22.7, "danger_score": 0.529, "nearest_stop": "O'Connor Dr at Derwyn Rd"}}, {"type": "Feature", "geometry": {"type": "LineString", "coordinates": [[-79.3338688, 43.6967135], [-79.3336588, 43.6967565]]}, "properties": {"segment": 167, "length_m": 17.5, "danger_score": 0.529, "nearest_stop": "O'Connor Dr at Derwyn Rd"}}, {"type": "Feature", "geometry": {"type": "LineString", "coordinates": [[-79.3336588, 43.6967565], [-79.332243, 43.6970599]]}, "properties": {"segment": 168, "length_m": 118.7, "danger_score": 0.484, "nearest_stop": "O'Connor Dr at Milton Rd"}}, {"type": "Feature", "geometry": {"type": "LineString", "coordinates": [[-79.332243, 43.6970599], [-79.3320467, 43.6971016]]}, "properties": {"segment": 169, "length_m": 16.4, "danger_score": 0.484, "nearest_stop": "O'Connor Dr at Milton Rd"}}, {"type": "Feature", "geometry": {"type": "LineString", "coordinates": [[-79.3320467, 43.6971016], [-79.3306048, 43.697404]]}, "properties": {"segment": 170, "length_m": 121.1, "danger_score": 0.484, "nearest_stop": "O'Connor Dr at Milton Rd"}}, {"type": "Feature", "geometry": {"type": "LineString", "coordinates": [[-79.3306048, 43.697404], [-79.3304339, 43.697444]]}, "properties": {"segment": 171, "length_m": 14.4, "danger_score": 0.421, "nearest_stop": "O'Connor Dr at Coxwell Ave"}}, {"type": "Feature", "geometry": {"type": "LineString", "coordinates": [[-79.3304339, 43.697444], [-79.3300121, 43.6975402]]}, "properties": {"segment": 172, "length_m": 35.7, "danger_score": 0.421, "nearest_stop": "O'Connor Dr at Coxwell Ave"}}, {"type": "Feature", "geometry": {"type": "LineString", "coordinates": [[-79.3300121, 43.6975402], [-79.3298198, 43.6975797]]}, "properties": {"segment": 173, "length_m": 16.1, "danger_score": 0.421, "nearest_stop": "O'Connor Dr at Coxwell Ave"}}, {"type": "Feature", "geometry": {"type": "LineString", "coordinates": [[-79.3298198, 43.6975797], [-79.3295857, 43.6976237]]}, "properties": {"segment": 174, "length_m": 19.5, "danger_score": 0.421, "nearest_stop": "O'Connor Dr at Coxwell Ave"}}, {"type": "Feature", "geometry": {"type": "LineString", "coordinates": [[-79.3295857, 43.6976237], [-79.3293258, 43.6976891]]}, "properties": {"segment": 175, "length_m": 22.1, "danger_score": 0.447, "nearest_stop": "Coxwell Ave at O'Connor Dr"}}, {"type": "Feature", "geometry": {"type": "LineString", "coordinates": [[-79.3293258, 43.6976891], [-79.3290254, 43.6977637]]}, "properties": {"segment": 176, "length_m": 25.5, "danger_score": 0.447, "nearest_stop": "Coxwell Ave at O'Connor Dr"}}, {"type": "Feature", "geometry": {"type": "LineString", "coordinates": [[-79.3290254, 43.6977637], [-79.3288477, 43.6978078]]}, "properties": {"segment": 177, "length_m": 15.1, "danger_score": 0.447, "nearest_stop": "Coxwell Ave at O'Connor Dr"}}, {"type": "Feature", "geometry": {"type": "LineString", "coordinates": [[-79.3288477, 43.6978078], [-79.3284569, 43.6978724]]}, "properties": {"segment": 178, "length_m": 32.7, "danger_score": 0.447, "nearest_stop": "Coxwell Ave at O'Connor Dr"}}, {"type": "Feature", "geometry": {"type": "LineString", "coordinates": [[-79.3284569, 43.6978724], [-79.3282698, 43.6979167]]}, "properties": {"segment": 179, "length_m": 15.8, "danger_score": 0.477, "nearest_stop": "O'Connor Dr at Hutton Ave"}}, {"type": "Feature", "geometry": {"type": "LineString", "coordinates": [[-79.3282698, 43.6979167], [-79.3275034, 43.6980883]]}, "properties": {"segment": 180, "length_m": 64.7, "danger_score": 0.477, "nearest_stop": "O'Connor Dr at Hutton Ave"}}, {"type": "Feature", "geometry": {"type": "LineString", "coordinates": [[-79.3275034, 43.6980883], [-79.3272973, 43.6981402]]}, "properties": {"segment": 181, "length_m": 17.5, "danger_score": 0.477, "nearest_stop": "O'Connor Dr at Hutton Ave"}}, {"type": "Feature", "geometry": {"type": "LineString", "coordinates": [[-79.3272973, 43.6981402], [-79.3265649, 43.6982972]]}, "properties": {"segment": 182, "length_m": 61.4, "danger_score": 0.48, "nearest_stop": "O'Connor Dr at Ralston Ave West Side"}}, {"type": "Feature", "geometry": {"type": "LineString", "coordinates": [[-79.3265649, 43.6982972], [-79.326389, 43.6983341]]}, "properties": {"segment": 183, "length_m": 14.7, "danger_score": 0.519, "nearest_stop": "O'Connor Dr at Binswood Ave West Side"}}, {"type": "Feature", "geometry": {"type": "LineString", "coordinates": [[-79.326389, 43.6983341], [-79.3256023, 43.6984969]]}, "properties": {"segment": 184, "length_m": 65.9, "danger_score": 0.519, "nearest_stop": "O'Connor Dr at Binswood Ave West Side"}}, {"type": "Feature", "geometry": {"type": "LineString", "coordinates": [[-79.3256023, 43.6984969], [-79.3253929, 43.6985375]]}, "properties": {"segment": 185, "length_m": 17.4, "danger_score": 0.519, "nearest_stop": "O'Connor Dr at Binswood Ave West Side"}}, {"type": "Feature", "geometry": {"type": "LineString", "coordinates": [[-79.3253929, 43.6985375], [-79.3245585, 43.698721]]}, "properties": {"segment": 186, "length_m": 70.5, "danger_score": 0.539, "nearest_stop": "O'Connor Dr at Binswood Ave East Side"}}, {"type": "Feature", "geometry": {"type": "LineString", "coordinates": [[-79.3245585, 43.698721], [-79.3243621, 43.6987588]]}, "properties": {"segment": 187, "length_m": 16.3, "danger_score": 0.539, "nearest_stop": "O'Connor Dr at Binswood Ave East Side"}}, {"type": "Feature", "geometry": {"type": "LineString", "coordinates": [[-79.3243621, 43.6987588], [-79.3236991, 43.6989176]]}, "properties": {"segment": 188, "length_m": 56.5, "danger_score": 0.529, "nearest_stop": "O'Connor Dr at Taylor Dr"}}, {"type": "Feature", "geometry": {"type": "LineString", "coordinates": [[-79.3236991, 43.6989176], [-79.3235154, 43.6989454]]}, "properties": {"segment": 189, "length_m": 15.3, "danger_score": 0.529, "nearest_stop": "O'Connor Dr at Taylor Dr"}}, {"type": "Feature", "geometry": {"type": "LineString", "coordinates": [[-79.3235154, 43.6989454], [-79.3233217, 43.6989833]]}, "properties": {"segment": 190, "length_m": 16.1, "danger_score": 0.529, "nearest_stop": "O'Connor Dr at Taylor Dr"}}, {"type": "Feature", "geometry": {"type": "LineString", "coordinates": [[-79.3233217, 43.6989833], [-79.3224908, 43.6991702]]}, "properties": {"segment": 191, "length_m": 70.5, "danger_score": 0.551, "nearest_stop": "O'Connor Dr at Glebemount Ave East Side"}}, {"type": "Feature", "geometry": {"type": "LineString", "coordinates": [[-79.3224908, 43.6991702], [-79.3222688, 43.6992144]]}, "properties": {"segment": 192, "length_m": 18.5, "danger_score": 0.551, "nearest_stop": "O'Connor Dr at Glebemount Ave East Side"}}, {"type": "Feature", "geometry": {"type": "LineString", "coordinates": [[-79.3222688, 43.6992144], [-79.3214519, 43.6993804]]}, "properties": {"segment": 193, "length_m": 69.0, "danger_score": 0.519, "nearest_stop": "O'Connor Dr at Woodmount Ave"}}, {"type": "Feature", "geometry": {"type": "LineString", "coordinates": [[-79.3214519, 43.6993804], [-79.3212729, 43.6994232]]}, "properties": {"segment": 194, "length_m": 15.2, "danger_score": 0.519, "nearest_stop": "O'Connor Dr at Woodmount Ave"}}, {"type": "Feature", "geometry": {"type": "LineString", "coordinates": [[-79.3212729, 43.6994232], [-79.3201056, 43.6996929]]}, "properties": {"segment": 195, "length_m": 98.8, "danger_score": 0.519, "nearest_stop": "O'Connor Dr at Woodmount Ave"}}, {"type": "Feature", "geometry": {"type": "LineString", "coordinates": [[-79.3201056, 43.6996929], [-79.3191722, 43.6998692]]}, "properties": {"segment": 196, "length_m": 78.1, "danger_score": 0.373, "nearest_stop": "O'Connor Dr at Woodbine Ave"}}, {"type": "Feature", "geometry": {"type": "LineString", "coordinates": [[-79.3191722, 43.6998692], [-79.3189118, 43.700016]]}, "properties": {"segment": 197, "length_m": 26.5, "danger_score": 0.317, "nearest_stop": "Woodbine Ave at O'Connor Dr"}}, {"type": "Feature", "geometry": {"type": "LineString", "coordinates": [[-79.3189118, 43.700016], [-79.3186653, 43.7003372]]}, "properties": {"segment": 198, "length_m": 42.4, "danger_score": 0.317, "nearest_stop": "Woodbine Ave at O'Connor Dr"}}, {"type": "Feature", "geometry": {"type": "LineString", "coordinates": [[-79.3186653, 43.7003372], [-79.316329, 43.7020978]]}, "properties": {"segment": 199, "length_m": 271.3, "danger_score": 0.485, "nearest_stop": "O'Connor Dr at Glenwood Cres West Side"}}, {"type": "Feature", "geometry": {"type": "LineString", "coordinates": [[-79.316329, 43.7020978], [-79.315731, 43.7025614]]}, "properties": {"segment": 200, "length_m": 70.5, "danger_score": 0.474, "nearest_stop": "O'Connor Dr at Glenwood Cres"}}, {"type": "Feature", "geometry": {"type": "LineString", "coordinates": [[-79.315731, 43.7025614], [-79.3159294, 43.7026686]]}, "properties": {"segment": 201, "length_m": 19.9, "danger_score": 0.474, "nearest_stop": "O'Connor Dr at Glenwood Cres"}}, {"type": "Feature", "geometry": {"type": "LineString", "coordinates": [[-79.3159294, 43.7026686], [-79.3158418, 43.7027314]]}, "properties": {"segment": 202, "length_m": 9.9, "danger_score": 0.474, "nearest_stop": "O'Connor Dr at Glenwood Cres"}}, {"type": "Feature", "geometry": {"type": "LineString", "coordinates": [[-79.3158418, 43.7027314], [-79.3157371, 43.7028066]]}, "properties": {"segment": 203, "length_m": 11.9, "danger_score": 0.474, "nearest_stop": "O'Connor Dr at Glenwood Cres"}}, {"type": "Feature", "geometry": {"type": "LineString", "coordinates": [[-79.3157371, 43.7028066], [-79.3156668, 43.702832]]}, "properties": {"segment": 204, "length_m": 6.3, "danger_score": 0.474, "nearest_stop": "O'Connor Dr at Glenwood Cres"}}, {"type": "Feature", "geometry": {"type": "LineString", "coordinates": [[-79.3156668, 43.702832], [-79.313851, 43.7044297]]}, "properties": {"segment": 205, "length_m": 230.0, "danger_score": 0.481, "nearest_stop": "Sandra Rd at O'Connor Dr"}}, {"type": "Feature", "geometry": {"type": "LineString", "coordinates": [[-79.313851, 43.7044297], [-79.3136807, 43.7045869]]}, "properties": {"segment": 206, "length_m": 22.2, "danger_score": 0.481, "nearest_stop": "Sandra Rd at O'Connor Dr"}}, {"type": "Feature", "geometry": {"type": "LineString", "coordinates": [[-79.3136807, 43.7045869], [-79.3130913, 43.7052613]]}, "properties": {"segment": 207, "length_m": 89.6, "danger_score": 0.48, "nearest_stop": "O'Connor Dr at Sandra Rd"}}, {"type": "Feature", "geometry": {"type": "LineString", "coordinates": [[-79.3130913, 43.7052613], [-79.3129631, 43.7054604]]}, "properties": {"segment": 208, "length_m": 24.5, "danger_score": 0.428, "nearest_stop": "O'Connor Dr at St Clair Ave East"}}, {"type": "Feature", "geometry": {"type": "LineString", "coordinates": [[-79.3129631, 43.7054604], [-79.312903, 43.705515]]}, "properties": {"segment": 209, "length_m": 7.8, "danger_score": 0.428, "nearest_stop": "O'Connor Dr at St Clair Ave East"}}, {"type": "Feature", "geometry": {"type": "LineString", "coordinates": [[-79.312903, 43.705515], [-79.3123793, 43.7062155]]}, "properties": {"segment": 210, "length_m": 88.5, "danger_score": 0.431, "nearest_stop": "O'Connor Dr at St Clair Ave East North Side"}}, {"type": "Feature", "geometry": {"type": "LineString", "coordinates": [[-79.3123793, 43.7062155], [-79.312268, 43.7063715]]}, "properties": {"segment": 211, "length_m": 19.5, "danger_score": 0.431, "nearest_stop": "O'Connor Dr at St Clair Ave East North Side"}}, {"type": "Feature", "geometry": {"type": "LineString", "coordinates": [[-79.312268, 43.7063715], [-79.3121661, 43.7065106]]}, "properties": {"segment": 212, "length_m": 17.5, "danger_score": 0.431, "nearest_stop": "O'Connor Dr at St Clair Ave East North Side"}}, {"type": "Feature", "geometry": {"type": "LineString", "coordinates": [[-79.3121661, 43.7065106], [-79.3118284, 43.7069649]]}, "properties": {"segment": 213, "length_m": 57.4, "danger_score": 0.431, "nearest_stop": "O'Connor Dr at St Clair Ave East North Side"}}, {"type": "Feature", "geometry": {"type": "LineString", "coordinates": [[-79.3118284, 43.7069649], [-79.311207, 43.7079001]]}, "properties": {"segment": 214, "length_m": 115.7, "danger_score": 0.522, "nearest_stop": "O'Connor Dr at Curity Ave West Side"}}, {"type": "Feature", "geometry": {"type": "LineString", "coordinates": [[-79.311207, 43.7079001], [-79.31116, 43.7079754]]}, "properties": {"segment": 215, "length_m": 9.2, "danger_score": 0.522, "nearest_stop": "O'Connor Dr at Curity Ave West Side"}}, {"type": "Feature", "geometry": {"type": "LineString", "coordinates": [[-79.31116, 43.7079754], [-79.3110891, 43.7080603]]}, "properties": {"segment": 216, "length_m": 11.0, "danger_score": 0.418, "nearest_stop": "Curity Ave at O'Connor Dr North Side"}}, {"type": "Feature", "geometry": {"type": "LineString", "coordinates": [[-79.3110891, 43.7080603], [-79.3105278, 43.7087443]]}, "properties": {"segment": 217, "length_m": 88.9, "danger_score": 0.438, "nearest_stop": "O'Connor Dr at Gardens Cres"}}, {"type": "Feature", "geometry": {"type": "LineString", "coordinates": [[-79.3105278, 43.7087443], [-79.3100177, 43.7093614]]}, "properties": {"segment": 218, "length_m": 79.9, "danger_score": 0.438, "nearest_stop": "O'Connor Dr at Gardens Cres"}}, {"type": "Feature", "geometry": {"type": "LineString", "coordinates": [[-79.3100177, 43.7093614], [-79.309812, 43.7096218]]}, "properties": {"segment": 219, "length_m": 33.3, "danger_score": 0.466, "nearest_stop": "O'Connor Dr at Dohme Ave"}}, {"type": "Feature", "geometry": {"type": "LineString", "coordinates": [[-79.309812, 43.7096218], [-79.3091466, 43.7105094]]}, "properties": {"segment": 220, "length_m": 112.6, "danger_score": 0.466, "nearest_stop": "O'Connor Dr at Dohme Ave"}}, {"type": "Feature", "geometry": {"type": "LineString", "coordinates": [[-79.3091466, 43.7105094], [-79.3090888, 43.7105821]]}, "properties": {"segment": 221, "length_m": 9.3, "danger_score": 0.459, "nearest_stop": "O'Connor Dr at Dohme Ave"}}, {"type": "Feature", "geometry": {"type": "LineString", "coordinates": [[-79.3090888, 43.7105821], [-79.3090291, 43.7106572]]}, "properties": {"segment": 222, "length_m": 9.6, "danger_score": 0.459, "nearest_stop": "O'Connor Dr at Dohme Ave"}}, {"type": "Feature", "geometry": {"type": "LineString", "coordinates": [[-79.3090291, 43.7106572], [-79.3083465, 43.7114735]]}, "properties": {"segment": 223, "length_m": 106.2, "danger_score": 0.459, "nearest_stop": "O'Connor Dr at Dohme Ave"}}, {"type": "Feature", "geometry": {"type": "LineString", "coordinates": [[-79.3083465, 43.7114735], [-79.3082158, 43.7116403]]}, "properties": {"segment": 224, "length_m": 21.3, "danger_score": 0.484, "nearest_stop": "O'Connor Dr at Yardley Ave"}}, {"type": "Feature", "geometry": {"type": "LineString", "coordinates": [[-79.3082158, 43.7116403], [-79.3075955, 43.7124389]]}, "properties": {"segment": 225, "length_m": 101.9, "danger_score": 0.484, "nearest_stop": "O'Connor Dr at Yardley Ave"}}, {"type": "Feature", "geometry": {"type": "LineString", "coordinates": [[-79.3075955, 43.7124389], [-79.3075509, 43.7125146]]}, "properties": {"segment": 226, "length_m": 9.1, "danger_score": 0.484, "nearest_stop": "O'Connor Dr at Yardley Ave"}}, {"type": "Feature", "geometry": {"type": "LineString", "coordinates": [[-79.3075509, 43.7125146], [-79.307488, 43.7125934]]}, "properties": {"segment": 227, "length_m": 10.1, "danger_score": 0.476, "nearest_stop": "O'Connor Dr at Bermondsey Rd"}}, {"type": "Feature", "geometry": {"type": "LineString", "coordinates": [[-79.307488, 43.7125934], [-79.3072608, 43.712878]]}, "properties": {"segment": 228, "length_m": 36.5, "danger_score": 0.476, "nearest_stop": "O'Connor Dr at Bermondsey Rd"}}, {"type": "Feature", "geometry": {"type": "LineString", "coordinates": [[-79.3072608, 43.712878], [-79.3068773, 43.7133583]]}, "properties": {"segment": 229, "length_m": 61.7, "danger_score": 0.476, "nearest_stop": "O'Connor Dr at Bermondsey Rd"}}, {"type": "Feature", "geometry": {"type": "LineString", "coordinates": [[-79.3068773, 43.7133583], [-79.3065205, 43.7138044]]}, "properties": {"segment": 230, "length_m": 57.3, "danger_score": 0.447, "nearest_stop": "O'Connor Dr at Amsterdam Ave"}}, {"type": "Feature", "geometry": {"type": "LineString", "coordinates": [[-79.3065205, 43.7138044], [-79.3062828, 43.7141016]]}, "properties": {"segment": 231, "length_m": 38.2, "danger_score": 0.462, "nearest_stop": "O'Connor Dr at Amsterdam Ave West Side"}}, {"type": "Feature", "geometry": {"type": "LineString", "coordinates": [[-79.3062828, 43.7141016], [-79.305705, 43.7148296]]}, "properties": {"segment": 232, "length_m": 93.3, "danger_score": 0.462, "nearest_stop": "O'Connor Dr at Amsterdam Ave West Side"}}, {"type": "Feature", "geometry": {"type": "LineString", "coordinates": [[-79.305705, 43.7148296], [-79.3054899, 43.7151236]]}, "properties": {"segment": 233, "length_m": 37.1, "danger_score": 0.462, "nearest_stop": "O'Connor Dr at Amsterdam Ave West Side"}}, {"type": "Feature", "geometry": {"type": "LineString", "coordinates": [[-79.3054899, 43.7151236], [-79.3054532, 43.7151725]]}, "properties": {"segment": 234, "length_m": 6.2, "danger_score": 0.46, "nearest_stop": "O'Connor Dr at Wakunda Pl South Side"}}, {"type": "Feature", "geometry": {"type": "LineString", "coordinates": [[-79.3054532, 43.7151725], [-79.3054136, 43.7152252]]}, "properties": {"segment": 235, "length_m": 6.7, "danger_score": 0.46, "nearest_stop": "O'Connor Dr at Wakunda Pl South Side"}}, {"type": "Feature", "geometry": {"type": "LineString", "coordinates": [[-79.3054136, 43.7152252], [-79.3051797, 43.7156586]]}, "properties": {"segment": 236, "length_m": 52.0, "danger_score": 0.46, "nearest_stop": "O'Connor Dr at Wakunda Pl South Side"}}, {"type": "Feature", "geometry": {"type": "LineString", "coordinates": [[-79.3051797, 43.7156586], [-79.3049943, 43.7167582]]}, "properties": {"segment": 237, "length_m": 123.9, "danger_score": 0.46, "nearest_stop": "O'Connor Dr at Wakunda Pl South Side"}}, {"type": "Feature", "geometry": {"type": "LineString", "coordinates": [[-79.3049943, 43.7167582], [-79.3049795, 43.7168418]]}, "properties": {"segment": 238, "length_m": 9.4, "danger_score": 0.46, "nearest_stop": "O'Connor Dr at Wakunda Pl South Side"}}, {"type": "Feature", "geometry": {"type": "LineString", "coordinates": [[-79.3049795, 43.7168418], [-79.3049651, 43.7169232]]}, "properties": {"segment": 239, "length_m": 9.1, "danger_score": 0.46, "nearest_stop": "O'Connor Dr at Wakunda Pl South Side"}}, {"type": "Feature", "geometry": {"type": "LineString", "coordinates": [[-79.3049651, 43.7169232], [-79.30489, 43.7172714]]}, "properties": {"segment": 240, "length_m": 39.4, "danger_score": 0.46, "nearest_stop": "O'Connor Dr at Wakunda Pl South Side"}}, {"type": "Feature", "geometry": {"type": "LineString", "coordinates": [[-79.30489, 43.7172714], [-79.3048566, 43.71749]]}, "properties": {"segment": 241, "length_m": 24.5, "danger_score": 0.51, "nearest_stop": "O'Connor Dr at Sunrise Ave"}}, {"type": "Feature", "geometry": {"type": "LineString", "coordinates": [[-79.3048566, 43.71749], [-79.3048013, 43.7178516]]}, "properties": {"segment": 242, "length_m": 40.5, "danger_score": 0.51, "nearest_stop": "O'Connor Dr at Sunrise Ave"}}, {"type": "Feature", "geometry": {"type": "LineString", "coordinates": [[-79.3048013, 43.7178516], [-79.3046785, 43.7187788]]}, "properties": {"segment": 243, "length_m": 104.5, "danger_score": 0.51, "nearest_stop": "O'Connor Dr at Sunrise Ave"}}, {"type": "Feature", "geometry": {"type": "LineString", "coordinates": [[-79.3046785, 43.7187788], [-79.3046995, 43.7187952]]}, "properties": {"segment": 244, "length_m": 2.5, "danger_score": 0.51, "nearest_stop": "O'Connor Dr at Sunrise Ave"}}, {"type": "Feature", "geometry": {"type": "LineString", "coordinates": [[-79.3046995, 43.7187952], [-79.3046431, 43.7189973]]}, "properties": {"segment": 245, "length_m": 23.2, "danger_score": 0.485, "nearest_stop": "O'Connor Dr at Sunrise Ave"}}, {"type": "Feature", "geometry": {"type": "LineString", "coordinates": [[-79.3046431, 43.7189973], [-79.3046314, 43.7190143]]}, "properties": {"segment": 246, "length_m": 2.1, "danger_score": 0.485, "nearest_stop": "O'Connor Dr at Sunrise Ave"}}, {"type": "Feature", "geometry": {"type": "LineString", "coordinates": [[-79.3046314, 43.7190143], [-79.3045789, 43.7193897]]}, "properties": {"segment": 247, "length_m": 42.0, "danger_score": 0.485, "nearest_stop": "O'Connor Dr at Sunrise Ave"}}, {"type": "Feature", "geometry": {"type": "LineString", "coordinates": [[-79.3045789, 43.7193897], [-79.3044889, 43.7199119]]}, "properties": {"segment": 248, "length_m": 58.5, "danger_score": 0.485, "nearest_stop": "O'Connor Dr at Sunrise Ave"}}, {"type": "Feature", "geometry": {"type": "LineString", "coordinates": [[-79.3044889, 43.7199119], [-79.3044307, 43.7202491]]}, "properties": {"segment": 249, "length_m": 37.8, "danger_score": 0.452, "nearest_stop": "1801 O'Connor Dr"}}, {"type": "Feature", "geometry": {"type": "LineString", "coordinates": [[-79.3044307, 43.7202491], [-79.3043172, 43.7208947]]}, "properties": {"segment": 250, "length_m": 72.4, "danger_score": 0.452, "nearest_stop": "1801 O'Connor Dr"}}, {"type": "Feature", "geometry": {"type": "LineString", "coordinates": [[-79.3043172, 43.7208947], [-79.3042125, 43.7213452]]}, "properties": {"segment": 251, "length_m": 50.8, "danger_score": 0.452, "nearest_stop": "1801 O'Connor Dr"}}, {"type": "Feature", "geometry": {"type": "LineString", "coordinates": [[-79.3042125, 43.7213452], [-79.3038508, 43.7221475]]}, "properties": {"segment": 252, "length_m": 94.2, "danger_score": 0.452, "nearest_stop": "1801 O'Connor Dr"}}, {"type": "Feature", "geometry": {"type": "LineString", "coordinates": [[-79.3038508, 43.7221475], [-79.3031456, 43.7229455]]}, "properties": {"segment": 253, "length_m": 107.5, "danger_score": 0.355, "nearest_stop": "O'Connor Dr at Cranborne Ave"}}, {"type": "Feature", "geometry": {"type": "LineString", "coordinates": [[-79.3031456, 43.7229455], [-79.3029682, 43.7230797]]}, "properties": {"segment": 254, "length_m": 20.6, "danger_score": 0.355, "nearest_stop": "O'Connor Dr at Cranborne Ave"}}, {"type": "Feature", "geometry": {"type": "LineString", "coordinates": [[-79.3029682, 43.7230797], [-79.3023529, 43.7234135]]}, "properties": {"segment": 255, "length_m": 63.0, "danger_score": 0.355, "nearest_stop": "O'Connor Dr at Cranborne Ave"}}, {"type": "Feature", "geometry": {"type": "LineString", "coordinates": [[-79.3023529, 43.7234135], [-79.3023231, 43.7234678]]}, "properties": {"segment": 256, "length_m": 6.7, "danger_score": 0.355, "nearest_stop": "O'Connor Dr at Cranborne Ave"}}, {"type": "Feature", "geometry": {"type": "LineString", "coordinates": [[-79.3023231, 43.7234678], [-79.3020575, 43.7235993]]}, "properties": {"segment": 257, "length_m": 25.9, "danger_score": 0.371, "nearest_stop": "O'Connor Dr at Victoria Park Ave"}}, {"type": "Feature", "geometry": {"type": "LineString", "coordinates": [[-79.3020575, 43.7235993], [-79.302054, 43.7236429]]}, "properties": {"segment": 258, "length_m": 4.9, "danger_score": 0.371, "nearest_stop": "O'Connor Dr at Victoria Park Ave"}}, {"type": "Feature", "geometry": {"type": "LineString", "coordinates": [[-79.302054, 43.7236429], [-79.30205, 43.7236741]]}, "properties": {"segment": 259, "length_m": 3.5, "danger_score": 0.371, "nearest_stop": "O'Connor Dr at Victoria Park Ave"}}, {"type": "Feature", "geometry": {"type": "LineString", "coordinates": [[-79.30205, 43.7236741], [-79.3008683, 43.7247491]]}, "properties": {"segment": 260, "length_m": 159.5, "danger_score": 0.371, "nearest_stop": "O'Connor Dr at Victoria Park Ave"}}, {"type": "Feature", "geometry": {"type": "LineString", "coordinates": [[-79.3008683, 43.7247491], [-79.3005393, 43.7247956]]}, "properties": {"segment": 261, "length_m": 27.0, "danger_score": 0.359, "nearest_stop": "Eglinton Ave East at Eglinton Sq"}}, {"type": "Feature", "geometry": {"type": "LineString", "coordinates": [[-79.3005393, 43.7247956], [-79.3003303, 43.7248177]]}, "properties": {"segment": 262, "length_m": 17.2, "danger_score": 0.359, "nearest_stop": "Eglinton Ave East at Eglinton Sq"}}, {"type": "Feature", "geometry": {"type": "LineString", "coordinates": [[-79.3003303, 43.7248177], [-79.3000018, 43.7249037]]}, "properties": {"segment": 263, "length_m": 28.3, "danger_score": 0.359, "nearest_stop": "Eglinton Ave East at Eglinton Sq"}}, {"type": "Feature", "geometry": {"type": "LineString", "coordinates": [[-79.3000018, 43.7249037], [-79.2994214, 43.725047]]}, "properties": {"segment": 264, "length_m": 49.3, "danger_score": 0.359, "nearest_stop": "Eglinton Ave East at Eglinton Sq"}}, {"type": "Feature", "geometry": {"type": "LineString", "coordinates": [[-79.2994214, 43.725047], [-79.2992535, 43.7250844]]}, "properties": {"segment": 265, "length_m": 14.1, "danger_score": 0.359, "nearest_stop": "Eglinton Ave East at Eglinton Sq"}}, {"type": "Feature", "geometry": {"type": "LineString", "coordinates": [[-79.2992535, 43.7250844], [-79.2982408, 43.7253324]]}, "properties": {"segment": 266, "length_m": 85.9, "danger_score": 0.361, "nearest_stop": "Eglinton Ave East at Pharmacy Ave"}}, {"type": "Feature", "geometry": {"type": "LineString", "coordinates": [[-79.2982408, 43.7253324], [-79.2977389, 43.7254219]]}, "properties": {"segment": 267, "length_m": 41.8, "danger_score": 0.361, "nearest_stop": "Eglinton Ave East at Pharmacy Ave"}}, {"type": "Feature", "geometry": {"type": "LineString", "coordinates": [[-79.2977389, 43.7254219], [-79.2973525, 43.7255034]]}, "properties": {"segment": 268, "length_m": 32.4, "danger_score": 0.373, "nearest_stop": "Pharmacy Ave at Eglinton Ave East"}}, {"type": "Feature", "geometry": {"type": "LineString", "coordinates": [[-79.2973525, 43.7255034], [-79.2972512, 43.725555]]}, "properties": {"segment": 269, "length_m": 10.3, "danger_score": 0.373, "nearest_stop": "Pharmacy Ave at Eglinton Ave East"}}, {"type": "Feature", "geometry": {"type": "LineString", "coordinates": [[-79.2972512, 43.725555], [-79.2953119, 43.725987]]}, "properties": {"segment": 270, "length_m": 163.1, "danger_score": 0.418, "nearest_stop": "Pharmacy Station Eastbound Platform"}}, {"type": "Feature", "geometry": {"type": "LineString", "coordinates": [[-79.2953119, 43.725987], [-79.2944204, 43.7261827]]}, "properties": {"segment": 271, "length_m": 74.9, "danger_score": 0.418, "nearest_stop": "Pharmacy Station Eastbound Platform"}}, {"type": "Feature", "geometry": {"type": "LineString", "coordinates": [[-79.2944204, 43.7261827], [-79.2942438, 43.7262265]]}, "properties": {"segment": 272, "length_m": 15.0, "danger_score": 0.392, "nearest_stop": "Hakimi Lebovic Station Westbound Platform"}}, {"type": "Feature", "geometry": {"type": "LineString", "coordinates": [[-79.2942438, 43.7262265], [-79.2932245, 43.7264517]]}, "properties": {"segment": 273, "length_m": 85.7, "danger_score": 0.392, "nearest_stop": "Hakimi Lebovic Station Westbound Platform"}}, {"type": "Feature", "geometry": {"type": "LineString", "coordinates": [[-79.2932245, 43.7264517], [-79.2925988, 43.7265805]]}, "properties": {"segment": 274, "length_m": 52.3, "danger_score": 0.392, "nearest_stop": "Hakimi Lebovic Station Westbound Platform"}}, {"type": "Feature", "geometry": {"type": "LineString", "coordinates": [[-79.2925988, 43.7265805], [-79.2917452, 43.7267707]]}, "properties": {"segment": 275, "length_m": 71.8, "danger_score": 0.41, "nearest_stop": "Eglinton Ave East at Lebovic Ave"}}, {"type": "Feature", "geometry": {"type": "LineString", "coordinates": [[-79.2917452, 43.7267707], [-79.291631, 43.7267738]]}, "properties": {"segment": 276, "length_m": 9.3, "danger_score": 0.41, "nearest_stop": "Eglinton Ave East at Lebovic Ave"}}, {"type": "Feature", "geometry": {"type": "LineString", "coordinates": [[-79.291631, 43.7267738], [-79.2914738, 43.7268182]]}, "properties": {"segment": 277, "length_m": 13.6, "danger_score": 0.41, "nearest_stop": "Eglinton Ave East at Lebovic Ave"}}, {"type": "Feature", "geometry": {"type": "LineString", "coordinates": [[-79.2914738, 43.7268182], [-79.2912733, 43.7268597]]}, "properties": {"segment": 278, "length_m": 16.8, "danger_score": 0.364, "nearest_stop": "Eglinton Ave East at Lebovic Ave"}}, {"type": "Feature", "geometry": {"type": "LineString", "coordinates": [[-79.2912733, 43.7268597], [-79.2912194, 43.7268715]]}, "properties": {"segment": 279, "length_m": 4.5, "danger_score": 0.364, "nearest_stop": "Eglinton Ave East at Lebovic Ave"}}, {"type": "Feature", "geometry": {"type": "LineString", "coordinates": [[-79.2912194, 43.7268715], [-79.2899822, 43.727162]]}, "properties": {"segment": 280, "length_m": 104.9, "danger_score": 0.395, "nearest_stop": "Hakimi Lebovic Station Eastbound Platform"}}, {"type": "Feature", "geometry": {"type": "LineString", "coordinates": [[-79.2899822, 43.727162], [-79.2895143, 43.7272665]]}, "properties": {"segment": 281, "length_m": 39.4, "danger_score": 0.395, "nearest_stop": "Hakimi Lebovic Station Eastbound Platform"}}, {"type": "Feature", "geometry": {"type": "LineString", "coordinates": [[-79.2895143, 43.7272665], [-79.2878179, 43.7276429]]}, "properties": {"segment": 282, "length_m": 142.7, "danger_score": 0.348, "nearest_stop": "Golden Mile Station Westbound Platform"}}, {"type": "Feature", "geometry": {"type": "LineString", "coordinates": [[-79.2878179, 43.7276429], [-79.2877773, 43.7276325]]}, "properties": {"segment": 283, "length_m": 3.5, "danger_score": 0.411, "nearest_stop": "Eglinton Ave East at Warden Ave"}}, {"type": "Feature", "geometry": {"type": "LineString", "coordinates": [[-79.2877773, 43.7276325], [-79.2874223, 43.7277086]]}, "properties": {"segment": 284, "length_m": 29.8, "danger_score": 0.411, "nearest_stop": "Eglinton Ave East at Warden Ave"}}, {"type": "Feature", "geometry": {"type": "LineString", "coordinates": [[-79.2874223, 43.7277086], [-79.2873011, 43.7277675]]}, "properties": {"segment": 285, "length_m": 12.2, "danger_score": 0.443, "nearest_stop": "Warden Ave at Eglinton Ave East"}}, {"type": "Feature", "geometry": {"type": "LineString", "coordinates": [[-79.2873011, 43.7277675], [-79.287163, 43.7277966]]}, "properties": {"segment": 286, "length_m": 11.6, "danger_score": 0.363, "nearest_stop": "Eglinton Ave East at Warden Ave"}}, {"type": "Feature", "geometry": {"type": "LineString", "coordinates": [[-79.287163, 43.7277966], [-79.2869941, 43.7278347]]}, "properties": {"segment": 287, "length_m": 14.2, "danger_score": 0.363, "nearest_stop": "Eglinton Ave East at Warden Ave"}}, {"type": "Feature", "geometry": {"type": "LineString", "coordinates": [[-79.2869941, 43.7278347], [-79.2856572, 43.728134]]}, "properties": {"segment": 288, "length_m": 112.5, "danger_score": 0.351, "nearest_stop": "Golden Mile Station Eastbound Platform"}}, {"type": "Feature", "geometry": {"type": "LineString", "coordinates": [[-79.2856572, 43.728134], [-79.2854059, 43.7281926]]}, "properties": {"segment": 289, "length_m": 21.2, "danger_score": 0.351, "nearest_stop": "Golden Mile Station Eastbound Platform"}}, {"type": "Feature", "geometry": {"type": "LineString", "coordinates": [[-79.2854059, 43.7281926], [-79.2848035, 43.7283332]]}, "properties": {"segment": 290, "length_m": 50.9, "danger_score": 0.351, "nearest_stop": "Golden Mile Station Eastbound Platform"}}, {"type": "Feature", "geometry": {"type": "LineString", "coordinates": [[-79.2848035, 43.7283332], [-79.2838371, 43.728547]]}, "properties": {"segment": 291, "length_m": 81.2, "danger_score": 0.351, "nearest_stop": "Golden Mile Station Eastbound Platform"}}, {"type": "Feature", "geometry": {"type": "LineString", "coordinates": [[-79.2838371, 43.728547], [-79.2834268, 43.7286377]]}, "properties": {"segment": 292, "length_m": 34.5, "danger_score": 0.351, "nearest_stop": "Golden Mile Station Eastbound Platform"}}, {"type": "Feature", "geometry": {"type": "LineString", "coordinates": [[-79.2834268, 43.7286377], [-79.2815127, 43.7290303]]}, "properties": {"segment": 293, "length_m": 160.0, "danger_score": 0.442, "nearest_stop": "Eglinton Ave East at Sinnott Rd"}}, {"type": "Feature", "geometry": {"type": "LineString", "coordinates": [[-79.2815127, 43.7290303], [-79.2810871, 43.7291179]]}, "properties": {"segment": 294, "length_m": 35.6, "danger_score": 0.442, "nearest_stop": "Eglinton Ave East at Sinnott Rd"}}, {"type": "Feature", "geometry": {"type": "LineString", "coordinates": [[-79.2810871, 43.7291179], [-79.2808238, 43.7291808]]}, "properties": {"segment": 295, "length_m": 22.3, "danger_score": 0.442, "nearest_stop": "Eglinton Ave East at Sinnott Rd"}}, {"type": "Feature", "geometry": {"type": "LineString", "coordinates": [[-79.2808238, 43.7291808], [-79.2805112, 43.729259]]}, "properties": {"segment": 296, "length_m": 26.6, "danger_score": 0.442, "nearest_stop": "Eglinton Ave East at Sinnott Rd"}}, {"type": "Feature", "geometry": {"type": "LineString", "coordinates": [[-79.2805112, 43.729259], [-79.2780587, 43.7297667]]}, "properties": {"segment": 297, "length_m": 205.7, "danger_score": 0.369, "nearest_stop": "Eglinton Ave East at Birchmount Rd"}}, {"type": "Feature", "geometry": {"type": "LineString", "coordinates": [[-79.2780587, 43.7297667], [-79.2776826, 43.7298392]]}, "properties": {"segment": 298, "length_m": 31.3, "danger_score": 0.414, "nearest_stop": "Birchmount Rd at Eglinton Ave East"}}, {"type": "Feature", "geometry": {"type": "LineString", "coordinates": [[-79.2776826, 43.7298392], [-79.2775824, 43.7298897]]}, "properties": {"segment": 299, "length_m": 10.3, "danger_score": 0.414, "nearest_stop": "Birchmount Rd at Eglinton Ave East"}}, {"type": "Feature", "geometry": {"type": "LineString", "coordinates": [[-79.2775824, 43.7298897], [-79.2771333, 43.7299892]]}, "properties": {"segment": 300, "length_m": 37.7, "danger_score": 0.41, "nearest_stop": "Birchmount Station Westbound Platform"}}, {"type": "Feature", "geometry": {"type": "LineString", "coordinates": [[-79.2771333, 43.7299892], [-79.2766465, 43.7300956]]}, "properties": {"segment": 301, "length_m": 40.9, "danger_score": 0.46, "nearest_stop": "Birchmount Station Eastbound Platform"}}, {"type": "Feature", "geometry": {"type": "LineString", "coordinates": [[-79.2766465, 43.7300956], [-79.276381, 43.7301536]]}, "properties": {"segment": 302, "length_m": 22.3, "danger_score": 0.46, "nearest_stop": "Birchmount Station Eastbound Platform"}}, {"type": "Feature", "geometry": {"type": "LineString", "coordinates": [[-79.276381, 43.7301536], [-79.2761154, 43.7302116]]}, "properties": {"segment": 303, "length_m": 22.3, "danger_score": 0.46, "nearest_stop": "Birchmount Station Eastbound Platform"}}, {"type": "Feature", "geometry": {"type": "LineString", "coordinates": [[-79.2761154, 43.7302116], [-79.2744704, 43.730569]]}, "properties": {"segment": 304, "length_m": 138.0, "danger_score": 0.46, "nearest_stop": "Birchmount Station Eastbound Platform"}}, {"type": "Feature", "geometry": {"type": "LineString", "coordinates": [[-79.2744704, 43.730569], [-79.2739619, 43.7306783]]}, "properties": {"segment": 305, "length_m": 42.6, "danger_score": 0.425, "nearest_stop": "Eglinton Ave East at Rosemount Dr"}}, {"type": "Feature", "geometry": {"type": "LineString", "coordinates": [[-79.2739619, 43.7306783], [-79.2737072, 43.7307366]]}, "properties": {"segment": 306, "length_m": 21.5, "danger_score": 0.425, "nearest_stop": "Eglinton Ave East at Rosemount Dr"}}, {"type": "Feature", "geometry": {"type": "LineString", "coordinates": [[-79.2737072, 43.7307366], [-79.2727613, 43.7309682]]}, "properties": {"segment": 307, "length_m": 80.2, "danger_score": 0.359, "nearest_stop": "Eglinton Ave East at Rosemount Dr"}}, {"type": "Feature", "geometry": {"type": "LineString", "coordinates": [[-79.2727613, 43.7309682], [-79.272339, 43.7310668]]}, "properties": {"segment": 308, "length_m": 35.7, "danger_score": 0.448, "nearest_stop": "Ionview Station Westbound Platform"}}, {"type": "Feature", "geometry": {"type": "LineString", "coordinates": [[-79.272339, 43.7310668], [-79.2721799, 43.7311038]]}, "properties": {"segment": 309, "length_m": 13.4, "danger_score": 0.448, "nearest_stop": "Ionview Station Westbound Platform"}}, {"type": "Feature", "geometry": {"type": "LineString", "coordinates": [[-79.2721799, 43.7311038], [-79.2716357, 43.7312328]]}, "properties": {"segment": 310, "length_m": 46.0, "danger_score": 0.474, "nearest_stop": "Eglinton Ave East at Ionview Rd"}}, {"type": "Feature", "geometry": {"type": "LineString", "coordinates": [[-79.2716357, 43.7312328], [-79.2714545, 43.7312741]]}, "properties": {"segment": 311, "length_m": 15.3, "danger_score": 0.474, "nearest_stop": "Eglinton Ave East at Ionview Rd"}}, {"type": "Feature", "geometry": {"type": "LineString", "coordinates": [[-79.2714545, 43.7312741], [-79.271151, 43.7313433]]}, "properties": {"segment": 312, "length_m": 25.6, "danger_score": 0.475, "nearest_stop": "Ionview Station Eastbound Platform"}}, {"type": "Feature", "geometry": {"type": "LineString", "coordinates": [[-79.271151, 43.7313433], [-79.2710611, 43.7313642]]}, "properties": {"segment": 313, "length_m": 7.6, "danger_score": 0.475, "nearest_stop": "Ionview Station Eastbound Platform"}}, {"type": "Feature", "geometry": {"type": "LineString", "coordinates": [[-79.2710611, 43.7313642], [-79.2705571, 43.7314815]]}, "properties": {"segment": 314, "length_m": 42.5, "danger_score": 0.475, "nearest_stop": "Ionview Station Eastbound Platform"}}, {"type": "Feature", "geometry": {"type": "LineString", "coordinates": [[-79.2705571, 43.7314815], [-79.2700203, 43.7316065]]}, "properties": {"segment": 315, "length_m": 45.3, "danger_score": 0.475, "nearest_stop": "Ionview Station Eastbound Platform"}}, {"type": "Feature", "geometry": {"type": "LineString", "coordinates": [[-79.2700203, 43.7316065], [-79.2689969, 43.7318447]]}, "properties": {"segment": 316, "length_m": 86.4, "danger_score": 0.422, "nearest_stop": "Kennedy Rd at Eglinton Ave South Side"}}, {"type": "Feature", "geometry": {"type": "LineString", "coordinates": [[-79.2689969, 43.7318447], [-79.2681735, 43.7320321]]}, "properties": {"segment": 317, "length_m": 69.4, "danger_score": 0.422, "nearest_stop": "Kennedy Rd at Eglinton Ave South Side"}}, {"type": "Feature", "geometry": {"type": "LineString", "coordinates": [[-79.2681735, 43.7320321], [-79.2681074, 43.7320253]]}, "properties": {"segment": 318, "length_m": 5.4, "danger_score": 0.422, "nearest_stop": "Kennedy Rd at Eglinton Ave South Side"}}, {"type": "Feature", "geometry": {"type": "LineString", "coordinates": [[-79.2681074, 43.7320253], [-79.2677785, 43.7321032]]}, "properties": {"segment": 319, "length_m": 27.8, "danger_score": 0.422, "nearest_stop": "Kennedy Rd at Eglinton Ave South Side"}}, {"type": "Feature", "geometry": {"type": "LineString", "coordinates": [[-79.2677785, 43.7321032], [-79.2676904, 43.7321807]]}, "properties": {"segment": 320, "length_m": 11.5, "danger_score": 0.404, "nearest_stop": "Kennedy Rd at Eglinton Ave East"}}, {"type": "Feature", "geometry": {"type": "LineString", "coordinates": [[-79.2676904, 43.7321807], [-79.2666958, 43.7324181]]}, "properties": {"segment": 321, "length_m": 84.2, "danger_score": 0.401, "nearest_stop": "Eglinton Ave East at Kennedy Station"}}, {"type": "Feature", "geometry": {"type": "LineString", "coordinates": [[-79.2666958, 43.7324181], [-79.2661055, 43.7325501]]}, "properties": {"segment": 322, "length_m": 49.8, "danger_score": 0.401, "nearest_stop": "Eglinton Ave East at Kennedy Station"}}, {"type": "Feature", "geometry": {"type": "LineString", "coordinates": [[-79.2661055, 43.7325501], [-79.2652334, 43.7325515]]}, "properties": {"segment": 323, "length_m": 79.4, "danger_score": 0.454, "nearest_stop": "Eglinton Ave East at South Service Rd East Side"}}, {"type": "Feature", "geometry": {"type": "LineString", "coordinates": [[-79.2652334, 43.7325515], [-79.26462, 43.732697]]}, "properties": {"segment": 324, "length_m": 54.0, "danger_score": 0.486, "nearest_stop": "South Service Rd at Transway Cres"}}, {"type": "Feature", "geometry": {"type": "LineString", "coordinates": [[-79.26462, 43.732697], [-79.2644383, 43.7327387]]}, "properties": {"segment": 325, "length_m": 15.3, "danger_score": 0.46, "nearest_stop": "Kennedy Station LRT Platform"}}, {"type": "Feature", "geometry": {"type": "LineString", "coordinates": [[-79.2644383, 43.7327387], [-79.2641905, 43.732249]]}, "properties": {"segment": 326, "length_m": 58.1, "danger_score": 0.475, "nearest_stop": "Kennedy Station - Platform A"}}, {"type": "Feature", "geometry": {"type": "LineString", "coordinates": [[-79.2641905, 43.732249], [-79.264122, 43.7321007]]}, "properties": {"segment": 327, "length_m": 17.5, "danger_score": 0.475, "nearest_stop": "Kennedy Station - Platform A"}}, {"type": "Feature", "geometry": {"type": "LineString", "coordinates": [[-79.264122, 43.7321007], [-79.2640955, 43.7320721]]}, "properties": {"segment": 328, "length_m": 3.8, "danger_score": 0.475, "nearest_stop": "Kennedy Station - Platform A"}}, {"type": "Feature", "geometry": {"type": "LineString", "coordinates": [[-79.2640955, 43.7320721], [-79.2637061, 43.7322037]]}, "properties": {"segment": 329, "length_m": 34.5, "danger_score": 0.475, "nearest_stop": "Kennedy Station - Platform A"}}], "properties": {"num_segments": 329, "total_length_m": 15740.9, "overall_safety_score": 68.3}}