{"type": "FeatureCollection", "features": [{"type": "Feature", "geometry": {"type": "LineString", "coordinates": [[-79.4053904, 43.670235], [-79.4049122, 43.6690263]]}, "properties": {"segment": 1, "length_m": 140.3, "danger_score": 0.531, "nearest_stop": "Spadina Rd at Lowther Ave"}}, {"type": "Feature", "geometry": {"type": "LineString", "coordinates": [[-79.4049122, 43.6690263], [-79.4046779, 43.6690727]]}, "properties": {"segment": 2, "length_m": 19.5, "danger_score": 0.53, "nearest_stop": "Spadina Station - Southbound Platform"}}, {"type": "Feature", "geometry": {"type": "LineString", "coordinates": [[-79.4046779, 43.6690727], [-79.403716, 43.6692513]]}, "properties": {"segment": 3, "length_m": 82.0, "danger_score": 0.541, "nearest_stop": "Spadina Rd at Lowther Ave"}}, {"type": "Feature", "geometry": {"type": "LineString", "coordinates": [[-79.403716, 43.6692513], [-79.4035166, 43.6692897]]}, "properties": {"segment": 4, "length_m": 16.6, "danger_score": 0.541, "nearest_stop": "Spadina Rd at Lowther Ave"}}, {"type": "Feature", "geometry": {"type": "LineString", "coordinates": [[-79.4035166, 43.6692897], [-79.402545, 43.669499]]}, "properties": {"segment": 5, "length_m": 82.1, "danger_score": 0.541, "nearest_stop": "Spadina Rd at Lowther Ave"}}, {"type": "Feature", "geometry": {"type": "LineString", "coordinates": [[-79.402545, 43.669499], [-79.4023489, 43.6695365]]}, "properties": {"segment": 6, "length_m": 16.3, "danger_score": 0.541, "nearest_stop": "Spadina Rd at Lowther Ave"}}, {"type": "Feature", "geometry": {"type": "LineString", "coordinates": [[-79.4023489, 43.6695365], [-79.4023108, 43.6694492]]}, "properties": {"segment": 7, "length_m": 10.2, "danger_score": 0.541, "nearest_stop": "Spadina Rd at Lowther Ave"}}, {"type": "Feature", "geometry": {"type": "LineString", "coordinates": [[-79.4023108, 43.6694492], [-79.4016299, 43.6695918]]}, "properties": {"segment": 8, "length_m": 57.0, "danger_score": 0.541, "nearest_stop": "Spadina Rd at Lowther Ave"}}, {"type": "Feature", "geometry": {"type": "LineString", "coordinates": [[-79.4016299, 43.6695918], [-79.4008325, 43.6697459]]}, "properties": {"segment": 9, "length_m": 66.6, "danger_score": 0.459, "nearest_stop": "St George Station - Northbound Platform"}}, {"type": "Feature", "geometry": {"type": "LineString", "coordinates": [[-79.4008325, 43.6697459], [-79.4006477, 43.6697853]]}, "properties": {"segment": 10, "length_m": 15.5, "danger_score": 0.459, "nearest_stop": "St George Station - Northbound Platform"}}, {"type": "Feature", "geometry": {"type": "LineString", "coordinates": [[-79.4006477, 43.6697853], [-79.4002395, 43.6688213]]}, "properties": {"segment": 11, "length_m": 112.4, "danger_score": 0.459, "nearest_stop": "St George Station - Northbound Platform"}}, {"type": "Feature", "geometry": {"type": "LineString", "coordinates": [[-79.4002395, 43.6688213], [-79.4001928, 43.6687047]]}, "properties": {"segment": 12, "length_m": 13.5, "danger_score": 0.459, "nearest_stop": "St George Station - Northbound Platform"}}, {"type": "Feature", "geometry": {"type": "LineString", "coordinates": [[-79.4001928, 43.6687047], [-79.3999946, 43.6682194]]}, "properties": {"segment": 13, "length_m": 56.3, "danger_score": 0.459, "nearest_stop": "St George Station - Northbound Platform"}}, {"type": "Feature", "geometry": {"type": "LineString", "coordinates": [[-79.3999946, 43.6682194], [-79.3997387, 43.6676452]]}, "properties": {"segment": 14, "length_m": 67.4, "danger_score": 0.459, "nearest_stop": "St George Station - Northbound Platform"}}, {"type": "Feature", "geometry": {"type": "LineString", "coordinates": [[-79.3997387, 43.6676452], [-79.3996558, 43.6674384]]}, "properties": {"segment": 15, "length_m": 23.9, "danger_score": 0.459, "nearest_stop": "St George Station - Northbound Platform"}}, {"type": "Feature", "geometry": {"type": "LineString", "coordinates": [[-79.3996558, 43.6674384], [-79.398641, 43.6676538]]}, "properties": {"segment": 16, "length_m": 85.1, "danger_score": 0.459, "nearest_stop": "St George Station - Northbound Platform"}}, {"type": "Feature", "geometry": {"type": "LineString", "coordinates": [[-79.398641, 43.6676538], [-79.3983431, 43.6677171]]}, "properties": {"segment": 17, "length_m": 25.0, "danger_score": 0.443, "nearest_stop": "Bloor St West at Bedford Rd West Side - St. George Station"}}, {"type": "Feature", "geometry": {"type": "LineString", "coordinates": [[-79.3983431, 43.6677171], [-79.3981975, 43.6677472]]}, "properties": {"segment": 18, "length_m": 12.2, "danger_score": 0.443, "nearest_stop": "Bloor St West at Bedford Rd West Side - St. George Station"}}, {"type": "Feature", "geometry": {"type": "LineString", "coordinates": [[-79.3981975, 43.6677472], [-79.3981027, 43.6674887]]}, "properties": {"segment": 19, "length_m": 29.7, "danger_score": 0.443, "nearest_stop": "Bloor St West at Bedford Rd West Side - St. George Station"}}, {"type": "Feature", "geometry": {"type": "LineString", "coordinates": [[-79.3981027, 43.6674887], [-79.3975232, 43.6660865]]}, "properties": {"segment": 20, "length_m": 162.7, "danger_score": 0.473, "nearest_stop": "Bloor St West at Bedford Rd"}}, {"type": "Feature", "geometry": {"type": "LineString", "coordinates": [[-79.3975232, 43.6660865], [-79.3972721, 43.6654612]]}, "properties": {"segment": 21, "length_m": 72.4, "danger_score": 0.428, "nearest_stop": "Hoskin Ave at Tower Rd - Trinity College"}}, {"type": "Feature", "geometry": {"type": "LineString", "coordinates": [[-79.3972721, 43.6654612], [-79.3966381, 43.6655928]]}, "properties": {"segment": 22, "length_m": 53.1, "danger_score": 0.428, "nearest_stop": "Hoskin Ave at Tower Rd - Trinity College"}}, {"type": "Feature", "geometry": {"type": "LineString", "coordinates": [[-79.3966381, 43.6655928], [-79.3963877, 43.6653417]]}, "properties": {"segment": 23, "length_m": 39.6, "danger_score": 0.428, "nearest_stop": "Hoskin Ave at Tower Rd - Trinity College"}}, {"type": "Feature", "geometry": {"type": "LineString", "coordinates": [[-79.3963877, 43.6653417], [-79.3962511, 43.6651121]]}, "properties": {"segment": 24, "length_m": 28.9, "danger_score": 0.428, "nearest_stop": "Hoskin Ave at Tower Rd - Trinity College"}}, {"type": "Feature", "geometry": {"type": "LineString", "coordinates": [[-79.3962511, 43.6651121], [-79.3961646, 43.6648984]]}, "properties": {"segment": 25, "length_m": 24.8, "danger_score": 0.428, "nearest_stop": "Hoskin Ave at Tower Rd - Trinity College"}}, {"type": "Feature", "geometry": {"type": "LineString", "coordinates": [[-79.3961646, 43.6648984], [-79.3961366, 43.6648305]]}, "properties": {"segment": 26, "length_m": 7.9, "danger_score": 0.436, "nearest_stop": "Hoskin Ave at Tower Rd - Wycliffe College"}}, {"type": "Feature", "geometry": {"type": "LineString", "coordinates": [[-79.3961366, 43.6648305], [-79.3960797, 43.6646922]]}, "properties": {"segment": 27, "length_m": 16.0, "danger_score": 0.436, "nearest_stop": "Hoskin Ave at Tower Rd - Wycliffe College"}}, {"type": "Feature", "geometry": {"type": "LineString", "coordinates": [[-79.3960797, 43.6646922], [-79.3958205, 43.6647564]]}, "properties": {"segment": 28, "length_m": 22.0, "danger_score": 0.436, "nearest_stop": "Hoskin Ave at Tower Rd - Wycliffe College"}}, {"type": "Feature", "geometry": {"type": "LineString", "coordinates": [[-79.3958205, 43.6647564], [-79.3957529, 43.6645944]]}, "properties": {"segment": 29, "length_m": 18.8, "danger_score": 0.428, "nearest_stop": "Hoskin Ave at Tower Rd - Trinity College"}}, {"type": "Feature", "geometry": {"type": "LineString", "coordinates": [[-79.3957529, 43.6645944], [-79.3952614, 43.6646947]]}, "properties": {"segment": 30, "length_m": 41.1, "danger_score": 0.428, "nearest_stop": "Hoskin Ave at Tower Rd - Trinity College"}}, {"type": "Feature", "geometry": {"type": "LineString", "coordinates": [[-79.3952614, 43.6646947], [-79.3940229, 43.6649155]]}, "properties": {"segment": 31, "length_m": 103.2, "danger_score": 0.428, "nearest_stop": "Hoskin Ave at Tower Rd - Trinity College"}}, {"type": "Feature", "geometry": {"type": "LineString", "coordinates": [[-79.3940229, 43.6649155], [-79.39386, 43.6646602]]}, "properties": {"segment": 32, "length_m": 31.6, "danger_score": 0.48, "nearest_stop": "Queen's Park Cres West at Hoskin Ave"}}, {"type": "Feature", "geometry": {"type": "LineString", "coordinates": [[-79.39386, 43.6646602], [-79.3937529, 43.6643732]]}, "properties": {"segment": 33, "length_m": 33.1, "danger_score": 0.378, "nearest_stop": "Queen's Park Cres West at Hart House"}}, {"type": "Feature", "geometry": {"type": "LineString", "coordinates": [[-79.3937529, 43.6643732], [-79.3935709, 43.6638613]]}, "properties": {"segment": 34, "length_m": 58.8, "danger_score": 0.378, "nearest_stop": "Queen's Park Cres West at Hart House"}}, {"type": "Feature", "geometry": {"type": "LineString", "coordinates": [[-79.3935709, 43.6638613], [-79.3935488, 43.6638023]]}, "properties": {"segment": 35, "length_m": 6.8, "danger_score": 0.378, "nearest_stop": "Queen's Park Cres West at Hart House"}}, {"type": "Feature", "geometry": {"type": "LineString", "coordinates": [[-79.3935488, 43.6638023], [-79.3926393, 43.6619659]]}, "properties": {"segment": 36, "length_m": 217.8, "danger_score": 0.378, "nearest_stop": "Queen's Park Cres West at Hart House"}}, {"type": "Feature", "geometry": {"type": "LineString", "coordinates": [[-79.3926393, 43.6619659], [-79.3925482, 43.6618428]]}, "properties": {"segment": 37, "length_m": 15.5, "danger_score": 0.427, "nearest_stop": "Wellesley St West at Parliament Building"}}, {"type": "Feature", "geometry": {"type": "LineString", "coordinates": [[-79.3925482, 43.6618428], [-79.3923242, 43.6613573]]}, "properties": {"segment": 38, "length_m": 56.9, "danger_score": 0.402, "nearest_stop": "Queen's Park Station - Northbound Platform"}}, {"type": "Feature", "geometry": {"type": "LineString", "coordinates": [[-79.3923242, 43.6613573], [-79.3922335, 43.6612145]]}, "properties": {"segment": 39, "length_m": 17.5, "danger_score": 0.402, "nearest_stop": "Queen's Park Station - Northbound Platform"}}, {"type": "Feature", "geometry": {"type": "LineString", "coordinates": [[-79.3922335, 43.6612145], [-79.3921214, 43.6610775]]}, "properties": {"segment": 40, "length_m": 17.7, "danger_score": 0.402, "nearest_stop": "Queen's Park Station - Northbound Platform"}}, {"type": "Feature", "geometry": {"type": "LineString", "coordinates": [[-79.3921214, 43.6610775], [-79.3918534, 43.6608679]]}, "properties": {"segment": 41, "length_m": 31.8, "danger_score": 0.402, "nearest_stop": "Queen's Park Station - Northbound Platform"}}, {"type": "Feature", "geometry": {"type": "LineString", "coordinates": [[-79.3918534, 43.6608679], [-79.3917209, 43.6606634]]}, "properties": {"segment": 42, "length_m": 25.1, "danger_score": 0.402, "nearest_stop": "Queen's Park Station - Northbound Platform"}}, {"type": "Feature", "geometry": {"type": "LineString", "coordinates": [[-79.3917209, 43.6606634], [-79.3916593, 43.6605685]]}, "properties": {"segment": 43, "length_m": 11.7, "danger_score": 0.402, "nearest_stop": "Queen's Park Station - Northbound Platform"}}, {"type": "Feature", "geometry": {"type": "LineString", "coordinates": [[-79.3916593, 43.6605685], [-79.391625, 43.6605186]]}, "properties": {"segment": 44, "length_m": 6.2, "danger_score": 0.402, "nearest_stop": "Queen's Park Station - Northbound Platform"}}, {"type": "Feature", "geometry": {"type": "LineString", "coordinates": [[-79.391625, 43.6605186], [-79.3911775, 43.6602026]]}, "properties": {"segment": 45, "length_m": 50.3, "danger_score": 0.402, "nearest_stop": "Queen's Park Station - Northbound Platform"}}, {"type": "Feature", "geometry": {"type": "LineString", "coordinates": [[-79.3911775, 43.6602026], [-79.3909109, 43.6600457]]}, "properties": {"segment": 46, "length_m": 27.6, "danger_score": 0.473, "nearest_stop": "College St at University Ave - Queen's Park Station"}}, {"type": "Feature", "geometry": {"type": "LineString", "coordinates": [[-79.3909109, 43.6600457], [-79.3908092, 43.6599624]]}, "properties": {"segment": 47, "length_m": 12.4, "danger_score": 0.473, "nearest_stop": "College St at University Ave - Queen's Park Station"}}, {"type": "Feature", "geometry": {"type": "LineString", "coordinates": [[-79.3908092, 43.6599624], [-79.3907585, 43.6599022]]}, "properties": {"segment": 48, "length_m": 7.8, "danger_score": 0.473, "nearest_stop": "College St at University Ave - Queen's Park Station"}}, {"type": "Feature", "geometry": {"type": "LineString", "coordinates": [[-79.3907585, 43.6599022], [-79.3905208, 43.6599509]]}, "properties": {"segment": 49, "length_m": 19.9, "danger_score": 0.473, "nearest_stop": "College St at University Ave - Queen's Park Station"}}, {"type": "Feature", "geometry": {"type": "LineString", "coordinates": [[-79.3905208, 43.6599509], [-79.3902485, 43.6600066]]}, "properties": {"segment": 50, "length_m": 22.8, "danger_score": 0.444, "nearest_stop": "College St at Queen's Park - Queen's Park Station"}}, {"type": "Feature", "geometry": {"type": "LineString", "coordinates": [[-79.3902485, 43.6600066], [-79.3901701, 43.6598063]]}, "properties": {"segment": 51, "length_m": 23.1, "danger_score": 0.444, "nearest_stop": "College St at Queen's Park - Queen's Park Station"}}, {"type": "Feature", "geometry": {"type": "LineString", "coordinates": [[-79.3901701, 43.6598063], [-79.3900838, 43.6596045]]}, "properties": {"segment": 52, "length_m": 23.5, "danger_score": 0.465, "nearest_stop": "University Ave at College St - Queen's Park Station"}}, {"type": "Feature", "geometry": {"type": "LineString", "coordinates": [[-79.3900838, 43.6596045], [-79.3897804, 43.6588549]]}, "properties": {"segment": 53, "length_m": 86.9, "danger_score": 0.423, "nearest_stop": "Queen's Park Station - Southbound Platform"}}, {"type": "Feature", "geometry": {"type": "LineString", "coordinates": [[-79.3897804, 43.6588549], [-79.3897052, 43.6586811]]}, "properties": {"segment": 54, "length_m": 20.3, "danger_score": 0.423, "nearest_stop": "Queen's Park Station - Southbound Platform"}}, {"type": "Feature", "geometry": {"type": "LineString", "coordinates": [[-79.3897052, 43.6586811], [-79.3896075, 43.6584617]]}, "properties": {"segment": 55, "length_m": 25.6, "danger_score": 0.458, "nearest_stop": "University Ave at Gerrard St West"}}, {"type": "Feature", "geometry": {"type": "LineString", "coordinates": [[-79.3896075, 43.6584617], [-79.3895692, 43.6583728]]}, "properties": {"segment": 56, "length_m": 10.4, "danger_score": 0.458, "nearest_stop": "University Ave at Gerrard St West"}}, {"type": "Feature", "geometry": {"type": "LineString", "coordinates": [[-79.3895692, 43.6583728], [-79.3894629, 43.6581404]]}, "properties": {"segment": 57, "length_m": 27.2, "danger_score": 0.458, "nearest_stop": "University Ave at Gerrard St West"}}, {"type": "Feature", "geometry": {"type": "LineString", "coordinates": [[-79.3894629, 43.6581404], [-79.3893895, 43.658159]]}, "properties": {"segment": 58, "length_m": 6.3, "danger_score": 0.458, "nearest_stop": "University Ave at Gerrard St West"}}, {"type": "Feature", "geometry": {"type": "LineString", "coordinates": [[-79.3893895, 43.658159], [-79.389154, 43.6577207]]}, "properties": {"segment": 59, "length_m": 52.8, "danger_score": 0.439, "nearest_stop": "Gerrard St East at University Ave"}}, {"type": "Feature", "geometry": {"type": "LineString", "coordinates": [[-79.389154, 43.6577207], [-79.388338, 43.6578848]]}, "properties": {"segment": 60, "length_m": 68.1, "danger_score": 0.439, "nearest_stop": "Gerrard St East at University Ave"}}, {"type": "Feature", "geometry": {"type": "LineString", "coordinates": [[-79.388338, 43.6578848], [-79.3881455, 43.6579235]]}, "properties": {"segment": 61, "length_m": 16.1, "danger_score": 0.439, "nearest_stop": "Gerrard St East at University Ave"}}, {"type": "Feature", "geometry": {"type": "LineString", "coordinates": [[-79.3881455, 43.6579235], [-79.3872972, 43.6580885]]}, "properties": {"segment": 62, "length_m": 70.7, "danger_score": 0.441, "nearest_stop": "Gerrard St West at Elizabeth St West Side"}}, {"type": "Feature", "geometry": {"type": "LineString", "coordinates": [[-79.3872972, 43.6580885], [-79.3869072, 43.6581631]]}, "properties": {"segment": 63, "length_m": 32.5, "danger_score": 0.441, "nearest_stop": "Gerrard St West at Elizabeth St West Side"}}, {"type": "Feature", "geometry": {"type": "LineString", "coordinates": [[-79.3869072, 43.6581631], [-79.3865186, 43.6582374]]}, "properties": {"segment": 64, "length_m": 32.3, "danger_score": 0.441, "nearest_stop": "Gerrard St West at Elizabeth St West Side"}}, {"type": "Feature", "geometry": {"type": "LineString", "coordinates": [[-79.3865186, 43.6582374], [-79.3863135, 43.6582859]]}, "properties": {"segment": 65, "length_m": 17.4, "danger_score": 0.441, "nearest_stop": "Gerrard St West at Elizabeth St West Side"}}, {"type": "Feature", "geometry": {"type": "LineString", "coordinates": [[-79.3863135, 43.6582859], [-79.3862383, 43.6581315]]}, "properties": {"segment": 66, "length_m": 18.2, "danger_score": 0.441, "nearest_stop": "Gerrard St West at Elizabeth St West Side"}}, {"type": "Feature", "geometry": {"type": "LineString", "coordinates": [[-79.3862383, 43.6581315], [-79.3860974, 43.6578563]]}, "properties": {"segment": 67, "length_m": 33.0, "danger_score": 0.441, "nearest_stop": "Gerrard St West at Elizabeth St West Side"}}, {"type": "Feature", "geometry": {"type": "LineString", "coordinates": [[-79.3860974, 43.6578563], [-79.3860579, 43.6577541]]}, "properties": {"segment": 68, "length_m": 11.8, "danger_score": 0.441, "nearest_stop": "Gerrard St West at Elizabeth St West Side"}}, {"type": "Feature", "geometry": {"type": "LineString", "coordinates": [[-79.3860579, 43.6577541], [-79.3848013, 43.6580129]]}, "properties": {"segment": 69, "length_m": 105.2, "danger_score": 0.459, "nearest_stop": "Bay St at Gerrard St West"}}, {"type": "Feature", "geometry": {"type": "LineString", "coordinates": [[-79.3848013, 43.6580129], [-79.3845375, 43.6573774]]}, "properties": {"segment": 70, "length_m": 73.8, "danger_score": 0.59, "nearest_stop": "Bay St at Elm St"}}, {"type": "Feature", "geometry": {"type": "LineString", "coordinates": [[-79.3845375, 43.6573774], [-79.3842818, 43.6574322]]}, "properties": {"segment": 71, "length_m": 21.5, "danger_score": 0.59, "nearest_stop": "Bay St at Elm St"}}, {"type": "Feature", "geometry": {"type": "LineString", "coordinates": [[-79.3842818, 43.6574322], [-79.3842702, 43.6574159]]}, "properties": {"segment": 72, "length_m": 2.0, "danger_score": 0.59, "nearest_stop": "Bay St at Elm St"}}, {"type": "Feature", "geometry": {"type": "LineString", "coordinates": [[-79.3842702, 43.6574159], [-79.3842088, 43.657264]]}, "properties": {"segment": 73, "length_m": 17.6, "danger_score": 0.59, "nearest_stop": "Bay St at Elm St"}}, {"type": "Feature", "geometry": {"type": "LineString", "coordinates": [[-79.3842088, 43.657264], [-79.3842005, 43.657244]]}, "properties": {"segment": 74, "length_m": 2.3, "danger_score": 0.585, "nearest_stop": "Bay St at Elm St"}}, {"type": "Feature", "geometry": {"type": "LineString", "coordinates": [[-79.3842005, 43.657244], [-79.3839053, 43.6565414]]}, "properties": {"segment": 75, "length_m": 81.8, "danger_score": 0.585, "nearest_stop": "Bay St at Elm St"}}, {"type": "Feature", "geometry": {"type": "LineString", "coordinates": [[-79.3839053, 43.6565414], [-79.3838377, 43.6563739]]}, "properties": {"segment": 76, "length_m": 19.5, "danger_score": 0.594, "nearest_stop": "Bay St at Dundas St West"}}, {"type": "Feature", "geometry": {"type": "LineString", "coordinates": [[-79.3838377, 43.6563739], [-79.3837745, 43.6562283]]}, "properties": {"segment": 77, "length_m": 17.0, "danger_score": 0.594, "nearest_stop": "Bay St at Dundas St West"}}, {"type": "Feature", "geometry": {"type": "LineString", "coordinates": [[-79.3837745, 43.6562283], [-79.3836254, 43.6558478]]}, "properties": {"segment": 78, "length_m": 44.0, "danger_score": 0.433, "nearest_stop": "Dundas St West at Bay St"}}, {"type": "Feature", "geometry": {"type": "LineString", "coordinates": [[-79.3836254, 43.6558478], [-79.3835518, 43.6556592]]}, "properties": {"segment": 79, "length_m": 21.8, "danger_score": 0.433, "nearest_stop": "Dundas St West at Bay St"}}, {"type": "Feature", "geometry": {"type": "LineString", "coordinates": [[-79.3835518, 43.6556592], [-79.3835442, 43.6556382]]}, "properties": {"segment": 80, "length_m": 2.4, "danger_score": 0.437, "nearest_stop": "Bay St at Dundas St West"}}, {"type": "Feature", "geometry": {"type": "LineString", "coordinates": [[-79.3835442, 43.6556382], [-79.3832154, 43.6547914]]}, "properties": {"segment": 81, "length_m": 98.2, "danger_score": 0.437, "nearest_stop": "Bay St at Dundas St West"}}, {"type": "Feature", "geometry": {"type": "LineString", "coordinates": [[-79.3832154, 43.6547914], [-79.3830937, 43.6545151]]}, "properties": {"segment": 82, "length_m": 32.2, "danger_score": 0.425, "nearest_stop": "Bay St at Hagerman St"}}, {"type": "Feature", "geometry": {"type": "LineString", "coordinates": [[-79.3830937, 43.6545151], [-79.3830443, 43.6544131]]}, "properties": {"segment": 83, "length_m": 12.0, "danger_score": 0.425, "nearest_stop": "Bay St at Hagerman St"}}, {"type": "Feature", "geometry": {"type": "LineString", "coordinates": [[-79.3830443, 43.6544131], [-79.3824085, 43.6545491]]}, "properties": {"segment": 84, "length_m": 53.3, "danger_score": 0.413, "nearest_stop": "Bay St at Hagerman St"}}, {"type": "Feature", "geometry": {"type": "LineString", "coordinates": [[-79.3824085, 43.6545491], [-79.3822967, 43.6542742]]}, "properties": {"segment": 85, "length_m": 31.9, "danger_score": 0.413, "nearest_stop": "Bay St at Hagerman St"}}, {"type": "Feature", "geometry": {"type": "LineString", "coordinates": [[-79.3822967, 43.6542742], [-79.3818969, 43.653839]]}, "properties": {"segment": 86, "length_m": 62.2, "danger_score": 0.413, "nearest_stop": "Bay St at Hagerman St"}}, {"type": "Feature", "geometry": {"type": "LineString", "coordinates": [[-79.3818969, 43.653839], [-79.3820411, 43.6536317]]}, "properties": {"segment": 87, "length_m": 25.8, "danger_score": 0.413, "nearest_stop": "Bay St at Hagerman St"}}, {"type": "Feature", "geometry": {"type": "LineString", "coordinates": [[-79.3820411, 43.6536317], [-79.3813559, 43.6533456]]}, "properties": {"segment": 88, "length_m": 65.4, "danger_score": 0.442, "nearest_stop": "Bay St at Albert St"}}, {"type": "Feature", "geometry": {"type": "LineString", "coordinates": [[-79.3813559, 43.6533456], [-79.3811056, 43.6533668]]}, "properties": {"segment": 89, "length_m": 20.3, "danger_score": 0.442, "nearest_stop": "Bay St at Albert St"}}, {"type": "Feature", "geometry": {"type": "LineString", "coordinates": [[-79.3811056, 43.6533668], [-79.3805687, 43.6534691]]}, "properties": {"segment": 90, "length_m": 44.7, "danger_score": 0.49, "nearest_stop": "Yonge St at Shuter St"}}, {"type": "Feature", "geometry": {"type": "LineString", "coordinates": [[-79.3805687, 43.6534691], [-79.3805074, 43.6534814]]}, "properties": {"segment": 91, "length_m": 5.1, "danger_score": 0.555, "nearest_stop": "Queen Station - Northbound Platform"}}, {"type": "Feature", "geometry": {"type": "LineString", "coordinates": [[-79.3805074, 43.6534814], [-79.3804329, 43.6534961]]}, "properties": {"segment": 92, "length_m": 6.2, "danger_score": 0.555, "nearest_stop": "Queen Station - Northbound Platform"}}, {"type": "Feature", "geometry": {"type": "LineString", "coordinates": [[-79.3804329, 43.6534961], [-79.3801589, 43.6535529]]}, "properties": {"segment": 93, "length_m": 22.9, "danger_score": 0.555, "nearest_stop": "Queen Station - Northbound Platform"}}, {"type": "Feature", "geometry": {"type": "LineString", "coordinates": [[-79.3801589, 43.6535529], [-79.3800293, 43.6535638]]}, "properties": {"segment": 94, "length_m": 14.0, "danger_score": 0.555, "nearest_stop": "Queen Station - Northbound Platform"}}, {"type": "Feature", "geometry": {"type": "LineString", "coordinates": [[-79.3800293, 43.6535638], [-79.3798278, 43.6535912]]}, "properties": {"segment": 95, "length_m": 17.3, "danger_score": 0.555, "nearest_stop": "Queen Station - Northbound Platform"}}, {"type": "Feature", "geometry": {"type": "LineString", "coordinates": [[-79.3798278, 43.6535912], [-79.3797017, 43.6536202]]}, "properties": {"segment": 96, "length_m": 10.6, "danger_score": 0.555, "nearest_stop": "Queen Station - Northbound Platform"}}, {"type": "Feature", "geometry": {"type": "LineString", "coordinates": [[-79.3797017, 43.6536202], [-79.3796913, 43.6535965]]}, "properties": {"segment": 97, "length_m": 2.8, "danger_score": 0.555, "nearest_stop": "Queen Station - Northbound Platform"}}, {"type": "Feature", "geometry": {"type": "LineString", "coordinates": [[-79.3796913, 43.6535965], [-79.3796692, 43.6535441]]}, "properties": {"segment": 98, "length_m": 6.1, "danger_score": 0.555, "nearest_stop": "Queen Station - Northbound Platform"}}], "properties": {"num_segments": 98, "total_length_m": 3709.3, "overall_safety_score": 68.6}}