{"type": "FeatureCollection", "features": [{"type": "Feature", "geometry": {"type": "LineString", "coordinates": [[-79.3816613, 43.6455822], [-79.3816693, 43.6456026]]}, "properties": {"segment": 1, "length_m": 2.4, "danger_score": 0.518, "nearest_stop": "Union Station - Northbound Platform Towards Vaughan Metropolitan Centre"}}, {"type": "Feature", "geometry": {"type": "LineString", "coordinates": [[-79.3816693, 43.6456026], [-79.3817409, 43.6457748]]}, "properties": {"segment": 2, "length_m": 20.0, "danger_score": 0.518, "nearest_stop": "Union Station - Northbound Platform Towards Vaughan Metropolitan Centre"}}, {"type": "Feature", "geometry": {"type": "LineString", "coordinates": [[-79.3817409, 43.6457748], [-79.3806231, 43.6460214]]}, "properties": {"segment": 3, "length_m": 95.3, "danger_score": 0.518, "nearest_stop": "Union Station - Northbound Platform Towards Vaughan Metropolitan Centre"}}, {"type": "Feature", "geometry": {"type": "LineString", "coordinates": [[-79.3806231, 43.6460214], [-79.3805773, 43.646031]]}, "properties": {"segment": 4, "length_m": 3.8, "danger_score": 0.447, "nearest_stop": "Union Station - Northbound Platform Towards Finch"}}, {"type": "Feature", "geometry": {"type": "LineString", "coordinates": [[-79.3805773, 43.646031], [-79.3805256, 43.6462755]]}, "properties": {"segment": 5, "length_m": 30.1, "danger_score": 0.447, "nearest_stop": "Union Station - Northbound Platform Towards Finch"}}, {"type": "Feature", "geometry": {"type": "LineString", "coordinates": [[-79.3805256, 43.6462755], [-79.3805122, 43.6470816]]}, "properties": {"segment": 6, "length_m": 115.3, "danger_score": 0.468, "nearest_stop": "Bay St at Wellington St West"}}, {"type": "Feature", "geometry": {"type": "LineString", "coordinates": [[-79.3805122, 43.6470816], [-79.3797728, 43.647232]]}, "properties": {"segment": 7, "length_m": 61.8, "danger_score": 0.468, "nearest_stop": "Bay St at Wellington St West"}}, {"type": "Feature", "geometry": {"type": "LineString", "coordinates": [[-79.3797728, 43.647232], [-79.3798403, 43.6473959]]}, "properties": {"segment": 8, "length_m": 19.0, "danger_score": 0.468, "nearest_stop": "Bay St at Wellington St West"}}, {"type": "Feature", "geometry": {"type": "LineString", "coordinates": [[-79.3798403, 43.6473959], [-79.3798738, 43.6474833]]}, "properties": {"segment": 9, "length_m": 10.1, "danger_score": 0.468, "nearest_stop": "Bay St at Wellington St West"}}, {"type": "Feature", "geometry": {"type": "LineString", "coordinates": [[-79.3798738, 43.6474833], [-79.3799614, 43.6476979]]}, "properties": {"segment": 10, "length_m": 24.9, "danger_score": 0.468, "nearest_stop": "Bay St at Wellington St West"}}, {"type": "Feature", "geometry": {"type": "LineString", "coordinates": [[-79.3799614, 43.6476979], [-79.3800131, 43.6478304]]}, "properties": {"segment": 11, "length_m": 15.3, "danger_score": 0.468, "nearest_stop": "Bay St at Wellington St West"}}, {"type": "Feature", "geometry": {"type": "LineString", "coordinates": [[-79.3800131, 43.6478304], [-79.380125, 43.6480889]]}, "properties": {"segment": 12, "length_m": 30.1, "danger_score": 0.545, "nearest_stop": "Bay St at King St West"}}, {"type": "Feature", "geometry": {"type": "LineString", "coordinates": [[-79.380125, 43.6480889], [-79.3803651, 43.6485493]]}, "properties": {"segment": 13, "length_m": 54.7, "danger_score": 0.545, "nearest_stop": "Bay St at King St West"}}, {"type": "Feature", "geometry": {"type": "LineString", "coordinates": [[-79.3803651, 43.6485493], [-79.3804267, 43.6487029]]}, "properties": {"segment": 14, "length_m": 17.8, "danger_score": 0.525, "nearest_stop": "King St West at Bay St West Side"}}, {"type": "Feature", "geometry": {"type": "LineString", "coordinates": [[-79.3804267, 43.6487029], [-79.3803925, 43.6487107]]}, "properties": {"segment": 15, "length_m": 2.9, "danger_score": 0.525, "nearest_stop": "King St West at Bay St West Side"}}, {"type": "Feature", "geometry": {"type": "LineString", "coordinates": [[-79.3803925, 43.6487107], [-79.3806071, 43.6492197]]}, "properties": {"segment": 16, "length_m": 59.2, "danger_score": 0.57, "nearest_stop": "300 Bay St"}}, {"type": "Feature", "geometry": {"type": "LineString", "coordinates": [[-79.3806071, 43.6492197], [-79.380854, 43.6498071]]}, "properties": {"segment": 17, "length_m": 68.3, "danger_score": 0.57, "nearest_stop": "300 Bay St"}}, {"type": "Feature", "geometry": {"type": "LineString", "coordinates": [[-79.380854, 43.6498071], [-79.3809191, 43.6499719]]}, "properties": {"segment": 18, "length_m": 19.1, "danger_score": 0.608, "nearest_stop": "Bay St at Adelaide St West"}}, {"type": "Feature", "geometry": {"type": "LineString", "coordinates": [[-79.3809191, 43.6499719], [-79.3811511, 43.6505346]]}, "properties": {"segment": 19, "length_m": 65.3, "danger_score": 0.552, "nearest_stop": "Bay St at Adelaide St West North Side"}}, {"type": "Feature", "geometry": {"type": "LineString", "coordinates": [[-79.3811511, 43.6505346], [-79.3811832, 43.6506103]]}, "properties": {"segment": 20, "length_m": 8.8, "danger_score": 0.552, "nearest_stop": "Bay St at Adelaide St West North Side"}}, {"type": "Feature", "geometry": {"type": "LineString", "coordinates": [[-79.3811832, 43.6506103], [-79.3813865, 43.6510826]]}, "properties": {"segment": 21, "length_m": 55.2, "danger_score": 0.433, "nearest_stop": "Bay St at Queen St West"}}, {"type": "Feature", "geometry": {"type": "LineString", "coordinates": [[-79.3813865, 43.6510826], [-79.3811784, 43.6511299]]}, "properties": {"segment": 22, "length_m": 17.6, "danger_score": 0.433, "nearest_stop": "Bay St at Queen St West"}}, {"type": "Feature", "geometry": {"type": "LineString", "coordinates": [[-79.3811784, 43.6511299], [-79.3812405, 43.651282]]}, "properties": {"segment": 23, "length_m": 17.6, "danger_score": 0.433, "nearest_stop": "Bay St at Queen St West"}}, {"type": "Feature", "geometry": {"type": "LineString", "coordinates": [[-79.3812405, 43.651282], [-79.3812776, 43.6513705]]}, "properties": {"segment": 24, "length_m": 10.3, "danger_score": 0.433, "nearest_stop": "Bay St at Queen St West"}}, {"type": "Feature", "geometry": {"type": "LineString", "coordinates": [[-79.3812776, 43.6513705], [-79.3813811, 43.6516326]]}, "properties": {"segment": 25, "length_m": 30.3, "danger_score": 0.433, "nearest_stop": "Bay St at Queen St West"}}, {"type": "Feature", "geometry": {"type": "LineString", "coordinates": [[-79.3813811, 43.6516326], [-79.381448, 43.6518619]]}, "properties": {"segment": 26, "length_m": 26.1, "danger_score": 0.433, "nearest_stop": "Bay St at Queen St West"}}, {"type": "Feature", "geometry": {"type": "LineString", "coordinates": [[-79.381448, 43.6518619], [-79.3815158, 43.6520164]]}, "properties": {"segment": 27, "length_m": 18.0, "danger_score": 0.433, "nearest_stop": "Bay St at Queen St West"}}, {"type": "Feature", "geometry": {"type": "LineString", "coordinates": [[-79.3815158, 43.6520164], [-79.3813848, 43.6520466]]}, "properties": {"segment": 28, "length_m": 11.1, "danger_score": 0.433, "nearest_stop": "Bay St at Queen St West"}}, {"type": "Feature", "geometry": {"type": "LineString", "coordinates": [[-79.3813848, 43.6520466], [-79.3813334, 43.6520582]]}, "properties": {"segment": 29, "length_m": 4.3, "danger_score": 0.433, "nearest_stop": "Bay St at Queen St West"}}, {"type": "Feature", "geometry": {"type": "LineString", "coordinates": [[-79.3813334, 43.6520582], [-79.3812451, 43.6521104]]}, "properties": {"segment": 30, "length_m": 9.2, "danger_score": 0.433, "nearest_stop": "Bay St at Queen St West"}}, {"type": "Feature", "geometry": {"type": "LineString", "coordinates": [[-79.3812451, 43.6521104], [-79.3810882, 43.6523607]]}, "properties": {"segment": 31, "length_m": 30.6, "danger_score": 0.433, "nearest_stop": "Bay St at Queen St West"}}, {"type": "Feature", "geometry": {"type": "LineString", "coordinates": [[-79.3810882, 43.6523607], [-79.3812195, 43.6527766]]}, "properties": {"segment": 32, "length_m": 47.8, "danger_score": 0.433, "nearest_stop": "Bay St at Queen St West"}}, {"type": "Feature", "geometry": {"type": "LineString", "coordinates": [[-79.3812195, 43.6527766], [-79.381209, 43.6530558]]}, "properties": {"segment": 33, "length_m": 35.7, "danger_score": 0.442, "nearest_stop": "Bay St at Albert St"}}, {"type": "Feature", "geometry": {"type": "LineString", "coordinates": [[-79.381209, 43.6530558], [-79.3812493, 43.6531557]]}, "properties": {"segment": 34, "length_m": 11.6, "danger_score": 0.442, "nearest_stop": "Bay St at Albert St"}}, {"type": "Feature", "geometry": {"type": "LineString", "coordinates": [[-79.3812493, 43.6531557], [-79.381041, 43.6532001]]}, "properties": {"segment": 35, "length_m": 17.5, "danger_score": 0.442, "nearest_stop": "Bay St at Albert St"}}, {"type": "Feature", "geometry": {"type": "LineString", "coordinates": [[-79.381041, 43.6532001], [-79.3811056, 43.6533668]]}, "properties": {"segment": 36, "length_m": 19.3, "danger_score": 0.555, "nearest_stop": "Queen Station - Northbound Platform"}}, {"type": "Feature", "geometry": {"type": "LineString", "coordinates": [[-79.3811056, 43.6533668], [-79.3805687, 43.6534691]]}, "properties": {"segment": 37, "length_m": 44.7, "danger_score": 0.49, "nearest_stop": "Yonge St at Shuter St"}}, {"type": "Feature", "geometry": {"type": "LineString", "coordinates": [[-79.3805687, 43.6534691], [-79.3806136, 43.6535841]]}, "properties": {"segment": 38, "length_m": 13.3, "danger_score": 0.49, "nearest_stop": "Yonge St at Shuter St"}}, {"type": "Feature", "geometry": {"type": "LineString", "coordinates": [[-79.3806136, 43.6535841], [-79.3810199, 43.6546148]]}, "properties": {"segment": 39, "length_m": 120.9, "danger_score": 0.49, "nearest_stop": "Yonge St at Shuter St"}}, {"type": "Feature", "geometry": {"type": "LineString", "coordinates": [[-79.3810199, 43.6546148], [-79.3809905, 43.6546215]]}, "properties": {"segment": 40, "length_m": 2.5, "danger_score": 0.576, "nearest_stop": "Opposite 247 Yonge St - Toronto Eaton Centre"}}, {"type": "Feature", "geometry": {"type": "LineString", "coordinates": [[-79.3809905, 43.6546215], [-79.3808481, 43.6546536]]}, "properties": {"segment": 41, "length_m": 12.0, "danger_score": 0.576, "nearest_stop": "Opposite 247 Yonge St - Toronto Eaton Centre"}}, {"type": "Feature", "geometry": {"type": "LineString", "coordinates": [[-79.3808481, 43.6546536], [-79.3810986, 43.6558646]]}, "properties": {"segment": 42, "length_m": 136.7, "danger_score": 0.576, "nearest_stop": "Opposite 247 Yonge St - Toronto Eaton Centre"}}, {"type": "Feature", "geometry": {"type": "LineString", "coordinates": [[-79.3810986, 43.6558646], [-79.3810731, 43.6559011]]}, "properties": {"segment": 43, "length_m": 4.5, "danger_score": 0.483, "nearest_stop": "TMU Station - Southbound Platform"}}, {"type": "Feature", "geometry": {"type": "LineString", "coordinates": [[-79.3810731, 43.6559011], [-79.3809303, 43.6559332]]}, "properties": {"segment": 44, "length_m": 12.0, "danger_score": 0.483, "nearest_stop": "TMU Station - Southbound Platform"}}, {"type": "Feature", "geometry": {"type": "LineString", "coordinates": [[-79.3809303, 43.6559332], [-79.3808776, 43.6559441]]}, "properties": {"segment": 45, "length_m": 4.4, "danger_score": 0.483, "nearest_stop": "TMU Station - Southbound Platform"}}, {"type": "Feature", "geometry": {"type": "LineString", "coordinates": [[-79.3808776, 43.6559441], [-79.3809898, 43.6561916]]}, "properties": {"segment": 46, "length_m": 29.0, "danger_score": 0.483, "nearest_stop": "TMU Station - Southbound Platform"}}, {"type": "Feature", "geometry": {"type": "LineString", "coordinates": [[-79.3809898, 43.6561916], [-79.3810006, 43.6562153]]}, "properties": {"segment": 47, "length_m": 2.8, "danger_score": 0.472, "nearest_stop": "Dundas St West at Yonge St - TMU Station"}}, {"type": "Feature", "geometry": {"type": "LineString", "coordinates": [[-79.3810006, 43.6562153], [-79.3809131, 43.6563354]]}, "properties": {"segment": 48, "length_m": 15.1, "danger_score": 0.48, "nearest_stop": "Yonge St at Dundas St East - TMU Station"}}, {"type": "Feature", "geometry": {"type": "LineString", "coordinates": [[-79.3809131, 43.6563354], [-79.3808347, 43.6564388]]}, "properties": {"segment": 49, "length_m": 13.1, "danger_score": 0.487, "nearest_stop": "Dundas St East at Yonge St - TMU Station"}}, {"type": "Feature", "geometry": {"type": "LineString", "coordinates": [[-79.3808347, 43.6564388], [-79.3808542, 43.6564434]]}, "properties": {"segment": 50, "length_m": 1.7, "danger_score": 0.487, "nearest_stop": "Dundas St East at Yonge St - TMU Station"}}, {"type": "Feature", "geometry": {"type": "LineString", "coordinates": [[-79.3808542, 43.6564434], [-79.3812265, 43.6573664]]}, "properties": {"segment": 51, "length_m": 107.0, "danger_score": 0.462, "nearest_stop": "TMU Station - Northbound Platform"}}, {"type": "Feature", "geometry": {"type": "LineString", "coordinates": [[-79.3812265, 43.6573664], [-79.3812914, 43.6575142]]}, "properties": {"segment": 52, "length_m": 17.2, "danger_score": 0.518, "nearest_stop": "Yonge St at Gould St"}}, {"type": "Feature", "geometry": {"type": "LineString", "coordinates": [[-79.3812914, 43.6575142], [-79.3819497, 43.6590341]]}, "properties": {"segment": 53, "length_m": 177.1, "danger_score": 0.513, "nearest_stop": "Yonge St at Elm St"}}, {"type": "Feature", "geometry": {"type": "LineString", "coordinates": [[-79.3819497, 43.6590341], [-79.3820042, 43.6591862]]}, "properties": {"segment": 54, "length_m": 17.5, "danger_score": 0.483, "nearest_stop": "Yonge St at Gerrard St West South Side"}}, {"type": "Feature", "geometry": {"type": "LineString", "coordinates": [[-79.3820042, 43.6591862], [-79.3823052, 43.6598785]]}, "properties": {"segment": 55, "length_m": 80.7, "danger_score": 0.483, "nearest_stop": "Yonge St at Gerrard St West South Side"}}, {"type": "Feature", "geometry": {"type": "LineString", "coordinates": [[-79.3823052, 43.6598785], [-79.3826033, 43.6605311]]}, "properties": {"segment": 56, "length_m": 76.4, "danger_score": 0.487, "nearest_stop": "College Station - Southbound Platform"}}, {"type": "Feature", "geometry": {"type": "LineString", "coordinates": [[-79.3826033, 43.6605311], [-79.3829281, 43.6612661]]}, "properties": {"segment": 57, "length_m": 85.8, "danger_score": 0.471, "nearest_stop": "College St at Yonge St - College Station"}}, {"type": "Feature", "geometry": {"type": "LineString", "coordinates": [[-79.3829281, 43.6612661], [-79.383012, 43.6614829]]}, "properties": {"segment": 58, "length_m": 25.0, "danger_score": 0.494, "nearest_stop": "Carlton St at Yonge St - College Station"}}, {"type": "Feature", "geometry": {"type": "LineString", "coordinates": [[-79.383012, 43.6614829], [-79.3832319, 43.6619858]]}, "properties": {"segment": 59, "length_m": 58.7, "danger_score": 0.507, "nearest_stop": "Yonge St at Carlton St North Side - College Station"}}, {"type": "Feature", "geometry": {"type": "LineString", "coordinates": [[-79.3832319, 43.6619858], [-79.3832891, 43.6621215]]}, "properties": {"segment": 60, "length_m": 15.8, "danger_score": 0.507, "nearest_stop": "Yonge St at Carlton St North Side - College Station"}}, {"type": "Feature", "geometry": {"type": "LineString", "coordinates": [[-79.3832891, 43.6621215], [-79.383322, 43.6622019]]}, "properties": {"segment": 61, "length_m": 9.3, "danger_score": 0.507, "nearest_stop": "Yonge St at Carlton St North Side - College Station"}}, {"type": "Feature", "geometry": {"type": "LineString", "coordinates": [[-79.383322, 43.6622019], [-79.3835871, 43.6628496]]}, "properties": {"segment": 62, "length_m": 75.1, "danger_score": 0.497, "nearest_stop": "Yonge St at Alexander St"}}, {"type": "Feature", "geometry": {"type": "LineString", "coordinates": [[-79.3835871, 43.6628496], [-79.3836584, 43.6630177]]}, "properties": {"segment": 63, "length_m": 19.6, "danger_score": 0.497, "nearest_stop": "Yonge St at Alexander St"}}, {"type": "Feature", "geometry": {"type": "LineString", "coordinates": [[-79.3836584, 43.6630177], [-79.3836915, 43.6630996]]}, "properties": {"segment": 64, "length_m": 9.5, "danger_score": 0.515, "nearest_stop": "Yonge St at Grosvenor St"}}, {"type": "Feature", "geometry": {"type": "LineString", "coordinates": [[-79.3836915, 43.6630996], [-79.3839996, 43.6638107]]}, "properties": {"segment": 65, "length_m": 82.9, "danger_score": 0.515, "nearest_stop": "Yonge St at Grosvenor St"}}, {"type": "Feature", "geometry": {"type": "LineString", "coordinates": [[-79.3839996, 43.6638107], [-79.384045, 43.6639186]]}, "properties": {"segment": 66, "length_m": 12.5, "danger_score": 0.515, "nearest_stop": "Yonge St at Grosvenor St"}}, {"type": "Feature", "geometry": {"type": "LineString", "coordinates": [[-79.384045, 43.6639186], [-79.3844334, 43.6648588]]}, "properties": {"segment": 67, "length_m": 109.1, "danger_score": 0.626, "nearest_stop": "Yonge St at Wellesley St East - Wellesley Station"}}, {"type": "Feature", "geometry": {"type": "LineString", "coordinates": [[-79.3844334, 43.6648588], [-79.3844934, 43.6650334]]}, "properties": {"segment": 68, "length_m": 20.0, "danger_score": 0.639, "nearest_stop": "Wellesley St East at Yonge St"}}, {"type": "Feature", "geometry": {"type": "LineString", "coordinates": [[-79.3844934, 43.6650334], [-79.3848182, 43.6658227]]}, "properties": {"segment": 69, "length_m": 91.6, "danger_score": 0.645, "nearest_stop": "Yonge St at Wellesley St West - Wellesley Station"}}, {"type": "Feature", "geometry": {"type": "LineString", "coordinates": [[-79.3848182, 43.6658227], [-79.3848519, 43.6659036]]}, "properties": {"segment": 70, "length_m": 9.4, "danger_score": 0.671, "nearest_stop": "Yonge St at Gloucester St"}}, {"type": "Feature", "geometry": {"type": "LineString", "coordinates": [[-79.3848519, 43.6659036], [-79.3851255, 43.6665418]]}, "properties": {"segment": 71, "length_m": 74.3, "danger_score": 0.671, "nearest_stop": "Yonge St at Gloucester St"}}, {"type": "Feature", "geometry": {"type": "LineString", "coordinates": [[-79.3851255, 43.6665418], [-79.3851695, 43.6666558]]}, "properties": {"segment": 72, "length_m": 13.2, "danger_score": 0.671, "nearest_stop": "Yonge St at Gloucester St"}}, {"type": "Feature", "geometry": {"type": "LineString", "coordinates": [[-79.3851695, 43.6666558], [-79.3852195, 43.6667651]]}, "properties": {"segment": 73, "length_m": 12.8, "danger_score": 0.563, "nearest_stop": "Yonge St at Irwin Ave"}}, {"type": "Feature", "geometry": {"type": "LineString", "coordinates": [[-79.3852195, 43.6667651], [-79.3855295, 43.6675394]]}, "properties": {"segment": 74, "length_m": 89.6, "danger_score": 0.563, "nearest_stop": "Yonge St at Irwin Ave"}}, {"type": "Feature", "geometry": {"type": "LineString", "coordinates": [[-79.3855295, 43.6675394], [-79.3855693, 43.6676328]]}, "properties": {"segment": 75, "length_m": 10.9, "danger_score": 0.563, "nearest_stop": "Yonge St at Irwin Ave"}}, {"type": "Feature", "geometry": {"type": "LineString", "coordinates": [[-79.3855693, 43.6676328], [-79.3859793, 43.6685912]]}, "properties": {"segment": 76, "length_m": 111.6, "danger_score": 0.557, "nearest_stop": "Yonge St at Charles St East"}}, {"type": "Feature", "geometry": {"type": "LineString", "coordinates": [[-79.3859793, 43.6685912], [-79.3860327, 43.6687299]]}, "properties": {"segment": 77, "length_m": 16.0, "danger_score": 0.557, "nearest_stop": "Yonge St at Charles St East"}}, {"type": "Feature", "geometry": {"type": "LineString", "coordinates": [[-79.3860327, 43.6687299], [-79.3860774, 43.6688443]]}, "properties": {"segment": 78, "length_m": 13.2, "danger_score": 0.545, "nearest_stop": "Yonge St at Charles St West"}}, {"type": "Feature", "geometry": {"type": "LineString", "coordinates": [[-79.3860774, 43.6688443], [-79.3862844, 43.6693519]]}, "properties": {"segment": 79, "length_m": 58.8, "danger_score": 0.545, "nearest_stop": "Yonge St at Charles St West"}}, {"type": "Feature", "geometry": {"type": "LineString", "coordinates": [[-79.3862844, 43.6693519], [-79.3863298, 43.669462]]}, "properties": {"segment": 80, "length_m": 12.8, "danger_score": 0.545, "nearest_stop": "Yonge St at Charles St West"}}, {"type": "Feature", "geometry": {"type": "LineString", "coordinates": [[-79.3863298, 43.669462], [-79.3866193, 43.6701547]]}, "properties": {"segment": 81, "length_m": 80.5, "danger_score": 0.432, "nearest_stop": "Bloor St East at Yonge St"}}, {"type": "Feature", "geometry": {"type": "LineString", "coordinates": [[-79.3866193, 43.6701547], [-79.386618, 43.6701715]]}, "properties": {"segment": 82, "length_m": 1.9, "danger_score": 0.432, "nearest_stop": "Bloor St East at Yonge St"}}, {"type": "Feature", "geometry": {"type": "LineString", "coordinates": [[-79.386618, 43.6701715], [-79.3866034, 43.6701843]]}, "properties": {"segment": 83, "length_m": 1.8, "danger_score": 0.432, "nearest_stop": "Bloor St East at Yonge St"}}, {"type": "Feature", "geometry": {"type": "LineString", "coordinates": [[-79.3866034, 43.6701843], [-79.3866756, 43.6703598]]}, "properties": {"segment": 84, "length_m": 20.4, "danger_score": 0.432, "nearest_stop": "Bloor St East at Yonge St"}}, {"type": "Feature", "geometry": {"type": "LineString", "coordinates": [[-79.3866756, 43.6703598], [-79.386114, 43.6704861]]}, "properties": {"segment": 85, "length_m": 47.3, "danger_score": 0.432, "nearest_stop": "Bloor St East at Yonge St"}}, {"type": "Feature", "geometry": {"type": "LineString", "coordinates": [[-79.386114, 43.6704861], [-79.3861785, 43.670678]]}, "properties": {"segment": 86, "length_m": 22.0, "danger_score": 0.452, "nearest_stop": "Bloor St East at Yonge St East Side"}}, {"type": "Feature", "geometry": {"type": "LineString", "coordinates": [[-79.3861785, 43.670678], [-79.3858102, 43.6707631]]}, "properties": {"segment": 87, "length_m": 31.1, "danger_score": 0.597, "nearest_stop": "Yonge Station - Eastbound Platform"}}, {"type": "Feature", "geometry": {"type": "LineString", "coordinates": [[-79.3858102, 43.6707631], [-79.3856894, 43.6707844]]}, "properties": {"segment": 88, "length_m": 10.0, "danger_score": 0.597, "nearest_stop": "Yonge Station - Eastbound Platform"}}, {"type": "Feature", "geometry": {"type": "LineString", "coordinates": [[-79.3856894, 43.6707844], [-79.3857141, 43.6708995]]}, "properties": {"segment": 89, "length_m": 13.0, "danger_score": 0.597, "nearest_stop": "Yonge Station - Eastbound Platform"}}, {"type": "Feature", "geometry": {"type": "LineString", "coordinates": [[-79.3857141, 43.6708995], [-79.3857916, 43.670891]]}, "properties": {"segment": 90, "length_m": 6.3, "danger_score": 0.597, "nearest_stop": "Yonge Station - Eastbound Platform"}}, {"type": "Feature", "geometry": {"type": "LineString", "coordinates": [[-79.3857916, 43.670891], [-79.3858017, 43.6708897]]}, "properties": {"segment": 91, "length_m": 0.8, "danger_score": 0.597, "nearest_stop": "Yonge Station - Eastbound Platform"}}], "properties": {"num_segments": 91, "total_length_m": 3247.3, "overall_safety_score": 66.0}}